[{"postalCode":"20000","state":"Aguascalientes","municipality":"Aguascalientes","setelement":"Aguascalientes Centro"},{"postalCode":"20010","state":"Aguascalientes","municipality":"Aguascalientes","setelement":"Colinas del Rio"},{"postalCode":"20010","state":"Aguascalientes","municipality":"Aguascalientes","setelement":"Olivares Santana"},{"postalCode":"20010","state":"Aguascalientes","municipality":"Aguascalientes","setelement":"Las Brisas"},{"postalCode":"20010","state":"Aguascalientes","municipality":"Aguascalientes","setelement":"Ramon Romo Franco"},{"postalCode":"20010","state":"Aguascalientes","municipality":"Aguascalientes","setelement":"San Cayetano"},{"postalCode":"20016","state":"Aguascalientes","municipality":"Aguascalientes","setelement":"Colinas de San Ignacio"},{"postalCode":"20016","state":"Aguascalientes","municipality":"Aguascalientes","setelement":"La Fundición"},{"postalCode":"20016","state":"Aguascalientes","municipality":"Aguascalientes","setelement":"Fundición II"},{"postalCode":"20016","state":"Aguascalientes","municipality":"Aguascalientes","setelement":"Los Sauces"},{"postalCode":"20018","state":"Aguascalientes","municipality":"Aguascalientes","setelement":"Línea de Fuego"},{"postalCode":"20020","state":"Aguascalientes","municipality":"Aguascalientes","setelement":"Buenos Aires"},{"postalCode":"20020","state":"Aguascalientes","municipality":"Aguascalientes","setelement":"Circunvalación Norte"},{"postalCode":"20020","state":"Aguascalientes","municipality":"Aguascalientes","setelement":"Las Arboledas"},{"postalCode":"20020","state":"Aguascalientes","municipality":"Aguascalientes","setelement":"Villas de San Francisco"},{"postalCode":"20029","state":"Aguascalientes","municipality":"Aguascalientes","setelement":"Villas de La Universidad"},{"postalCode":"20030","state":"Aguascalientes","municipality":"Aguascalientes","setelement":"El Sol"},{"postalCode":"20030","state":"Aguascalientes","municipality":"Aguascalientes","setelement":"Gremial"},{"postalCode":"20030","state":"Aguascalientes","municipality":"Aguascalientes","setelement":"Industrial"},{"postalCode":"20040","state":"Aguascalientes","municipality":"Aguascalientes","setelement":"Altavista"},{"postalCode":"20040","state":"Aguascalientes","municipality":"Aguascalientes","setelement":"Curtidores"},{"postalCode":"20040","state":"Aguascalientes","municipality":"Aguascalientes","setelement":"La Concordia"},{"postalCode":"20040","state":"Aguascalientes","municipality":"Aguascalientes","setelement":"Miravalle"},{"postalCode":"20040","state":"Aguascalientes","municipality":"Aguascalientes","setelement":"Panorama"},{"postalCode":"20040","state":"Aguascalientes","municipality":"Aguascalientes","setelement":"Residencial Guadalupe"},{"postalCode":"20049","state":"Aguascalientes","municipality":"Aguascalientes","setelement":"Colinas del Poniente"},{"postalCode":"20050","state":"Aguascalientes","municipality":"Aguascalientes","setelement":"Bugambilias"},{"postalCode":"20050","state":"Aguascalientes","municipality":"Aguascalientes","setelement":"Del Carmen"},{"postalCode":"20050","state":"Aguascalientes","municipality":"Aguascalientes","setelement":"La Fe"},{"postalCode":"20050","state":"Aguascalientes","municipality":"Aguascalientes","setelement":"México"},{"postalCode":"20050","state":"Aguascalientes","municipality":"Aguascalientes","setelement":"Primavera"},{"postalCode":"20050","state":"Aguascalientes","municipality":"Aguascalientes","setelement":"San Pablo"},{"postalCode":"20059","state":"Aguascalientes","municipality":"Aguascalientes","setelement":"Guadalupe"},{"postalCode":"20059","state":"Aguascalientes","municipality":"Aguascalientes","setelement":"Heliodoro Garcia"},{"postalCode":"20060","state":"Aguascalientes","municipality":"Aguascalientes","setelement":"Gómez"},{"postalCode":"20060","state":"Aguascalientes","municipality":"Aguascalientes","setelement":"Moderno"},{"postalCode":"20064","state":"Aguascalientes","municipality":"Aguascalientes","setelement":"Valle del Rio San Pedro"},{"postalCode":"20070","state":"Aguascalientes","municipality":"Aguascalientes","setelement":"Guadalupe Posada"},{"postalCode":"20070","state":"Aguascalientes","municipality":"Aguascalientes","setelement":"San Marcos"},{"postalCode":"20070","state":"Aguascalientes","municipality":"Aguascalientes","setelement":"San Marcos"},{"postalCode":"20078","state":"Aguascalientes","municipality":"Aguascalientes","setelement":"San Marcos"},{"postalCode":"20080","state":"Aguascalientes","municipality":"Aguascalientes","setelement":"Modelo"},{"postalCode":"20080","state":"Aguascalientes","municipality":"Aguascalientes","setelement":"Residencial del Valle I"},{"postalCode":"20089","state":"Aguascalientes","municipality":"Aguascalientes","setelement":"Residencial del Valle II"},{"postalCode":"20100","state":"Aguascalientes","municipality":"Aguascalientes","setelement":"Rancho San Antonio"},{"postalCode":"20100","state":"Aguascalientes","municipality":"Aguascalientes","setelement":"La Herradura"},{"postalCode":"20100","state":"Aguascalientes","municipality":"Aguascalientes","setelement":"Club Campestre"},{"postalCode":"20100","state":"Aguascalientes","municipality":"Aguascalientes","setelement":"Jardines del Campestre"},{"postalCode":"20100","state":"Aguascalientes","municipality":"Aguascalientes","setelement":"Los Vergeles"},{"postalCode":"20100","state":"Aguascalientes","municipality":"Aguascalientes","setelement":"Ciudad Universitaria"},{"postalCode":"20110","state":"Aguascalientes","municipality":"Aguascalientes","setelement":"Talamantes Ponce"},{"postalCode":"20110","state":"Aguascalientes","municipality":"Aguascalientes","setelement":"Granjas del Campestre"},{"postalCode":"20110","state":"Aguascalientes","municipality":"Aguascalientes","setelement":"Puerto las Hadas"},{"postalCode":"20110","state":"Aguascalientes","municipality":"Aguascalientes","setelement":"Valle del Campestre"},{"postalCode":"20110","state":"Aguascalientes","municipality":"Aguascalientes","setelement":"Villas de Montenegro"},{"postalCode":"20110","state":"Aguascalientes","municipality":"Aguascalientes","setelement":"Las Cavas"},{"postalCode":"20110","state":"Aguascalientes","municipality":"Aguascalientes","setelement":"La Enramada"},{"postalCode":"20115","state":"Aguascalientes","municipality":"Aguascalientes","setelement":"Trojes de Oriente"},{"postalCode":"20115","state":"Aguascalientes","municipality":"Aguascalientes","setelement":"Valle de las Trojes"},{"postalCode":"20115","state":"Aguascalientes","municipality":"Aguascalientes","setelement":"Villas de San Nicolás"},{"postalCode":"20115","state":"Aguascalientes","municipality":"Aguascalientes","setelement":"San Telmo"},{"postalCode":"20115","state":"Aguascalientes","municipality":"Aguascalientes","setelement":"La Paloma"},{"postalCode":"20115","state":"Aguascalientes","municipality":"Aguascalientes","setelement":"Barrio de Santiago"},{"postalCode":"20115","state":"Aguascalientes","municipality":"Aguascalientes","setelement":"Villa de las Trojes"},{"postalCode":"20115","state":"Aguascalientes","municipality":"Aguascalientes","setelement":"Valle de Santa Teresa"},{"postalCode":"20116","state":"Aguascalientes","municipality":"Aguascalientes","setelement":"La Troje"},{"postalCode":"20116","state":"Aguascalientes","municipality":"Aguascalientes","setelement":"Trojes de Alonso"},{"postalCode":"20116","state":"Aguascalientes","municipality":"Aguascalientes","setelement":"San Telmo Residencial"},{"postalCode":"20116","state":"Aguascalientes","municipality":"Aguascalientes","setelement":"Santa Fe"},{"postalCode":"20117","state":"Aguascalientes","municipality":"Aguascalientes","setelement":"Aguascalientes 2000"},{"postalCode":"20118","state":"Aguascalientes","municipality":"Aguascalientes","setelement":"Las Trojes"},{"postalCode":"20118","state":"Aguascalientes","municipality":"Aguascalientes","setelement":"Misión del Campanario"},{"postalCode":"20118","state":"Aguascalientes","municipality":"Aguascalientes","setelement":"Trojes de Cristal"},{"postalCode":"20118","state":"Aguascalientes","municipality":"Aguascalientes","setelement":"Trojes del Sol"},{"postalCode":"20118","state":"Aguascalientes","municipality":"Aguascalientes","setelement":"Residencial Santa Clara"},{"postalCode":"20118","state":"Aguascalientes","municipality":"Aguascalientes","setelement":"Misión de Santiago"},{"postalCode":"20118","state":"Aguascalientes","municipality":"Aguascalientes","setelement":"Andora Residencial"},{"postalCode":"20118","state":"Aguascalientes","municipality":"Aguascalientes","setelement":"Cadaqués Residencial"},{"postalCode":"20118","state":"Aguascalientes","municipality":"Aguascalientes","setelement":"Valle del Campanario"},{"postalCode":"20118","state":"Aguascalientes","municipality":"Aguascalientes","setelement":"Las Misiones"},{"postalCode":"20118","state":"Aguascalientes","municipality":"Aguascalientes","setelement":"Los Jarales"},{"postalCode":"20118","state":"Aguascalientes","municipality":"Aguascalientes","setelement":"Cerrada El Molino"},{"postalCode":"20118","state":"Aguascalientes","municipality":"Aguascalientes","setelement":"Valle Real"},{"postalCode":"20118","state":"Aguascalientes","municipality":"Aguascalientes","setelement":"Terzetto"},{"postalCode":"20118","state":"Aguascalientes","municipality":"Aguascalientes","setelement":"Cerrada de La Misión"},{"postalCode":"20118","state":"Aguascalientes","municipality":"Aguascalientes","setelement":"Cerrada del Valle"},{"postalCode":"20118","state":"Aguascalientes","municipality":"Aguascalientes","setelement":"Cerrada de la Mezquitera"},{"postalCode":"20119","state":"Aguascalientes","municipality":"Aguascalientes","setelement":"Lomas del Campestre 2a Sección"},{"postalCode":"20119","state":"Aguascalientes","municipality":"Aguascalientes","setelement":"Villas del Campestre"},{"postalCode":"20119","state":"Aguascalientes","municipality":"Aguascalientes","setelement":"Los Calicantos"},{"postalCode":"20120","state":"Aguascalientes","municipality":"Aguascalientes","setelement":"Jardines de la Concepción"},{"postalCode":"20120","state":"Aguascalientes","municipality":"Aguascalientes","setelement":"Los Bosques"},{"postalCode":"20120","state":"Aguascalientes","municipality":"Aguascalientes","setelement":"Rinconada los Bosques"},{"postalCode":"20123","state":"Aguascalientes","municipality":"Aguascalientes","setelement":"La Perla Norte"},{"postalCode":"20123","state":"Aguascalientes","municipality":"Aguascalientes","setelement":"Arroyo El Molino"},{"postalCode":"20124","state":"Aguascalientes","municipality":"Aguascalientes","setelement":"Galerías"},{"postalCode":"20124","state":"Aguascalientes","municipality":"Aguascalientes","setelement":"Residencial Altaria"},{"postalCode":"20126","state":"Aguascalientes","municipality":"Aguascalientes","setelement":"Constitución"},{"postalCode":"20126","state":"Aguascalientes","municipality":"Aguascalientes","setelement":"Libertad"},{"postalCode":"20126","state":"Aguascalientes","municipality":"Aguascalientes","setelement":"Pozo Bravo Norte"},{"postalCode":"20126","state":"Aguascalientes","municipality":"Aguascalientes","setelement":"Soberana Convención Revolucionaria"},{"postalCode":"20126","state":"Aguascalientes","municipality":"Aguascalientes","setelement":"Villa Montaña"},{"postalCode":"20126","state":"Aguascalientes","municipality":"Aguascalientes","setelement":"Villas de Don Antonio"},{"postalCode":"20126","state":"Aguascalientes","municipality":"Aguascalientes","setelement":"Los Ángeles"},{"postalCode":"20126","state":"Aguascalientes","municipality":"Aguascalientes","setelement":"Capittala"},{"postalCode":"20126","state":"Aguascalientes","municipality":"Aguascalientes","setelement":"Recinto de la Macarena"},{"postalCode":"20126","state":"Aguascalientes","municipality":"Aguascalientes","setelement":"La Soledad"},{"postalCode":"20126","state":"Aguascalientes","municipality":"Aguascalientes","setelement":"Los Naranjos"},{"postalCode":"20126","state":"Aguascalientes","municipality":"Aguascalientes","setelement":"Villa de Nuestra Señora de La Asunción Sector Guadalupe"},{"postalCode":"20126","state":"Aguascalientes","municipality":"Aguascalientes","setelement":"Villa Teresa"},{"postalCode":"20126","state":"Aguascalientes","municipality":"Aguascalientes","setelement":"Cartagena 1947"},{"postalCode":"20126","state":"Aguascalientes","municipality":"Aguascalientes","setelement":"Villas de La Convención"},{"postalCode":"20126","state":"Aguascalientes","municipality":"Aguascalientes","setelement":"Lomas de La Asunción"},{"postalCode":"20126","state":"Aguascalientes","municipality":"Aguascalientes","setelement":"Villa de Nuestra Señora de La Asunción Sector Encino"},{"postalCode":"20126","state":"Aguascalientes","municipality":"Aguascalientes","setelement":"Villa de Nuestra Señora de La Asunción Sector Alameda"},{"postalCode":"20126","state":"Aguascalientes","municipality":"Aguascalientes","setelement":"San José de Pozo Bravo"},{"postalCode":"20126","state":"Aguascalientes","municipality":"Aguascalientes","setelement":"Villa de Nuestra Señora de La Asunción Sector San Marcos"},{"postalCode":"20126","state":"Aguascalientes","municipality":"Aguascalientes","setelement":"Villa de Nuestra Señora de La Asunción Sector Estación"},{"postalCode":"20126","state":"Aguascalientes","municipality":"Aguascalientes","setelement":"Las Plazas"},{"postalCode":"20126","state":"Aguascalientes","municipality":"Aguascalientes","setelement":"El Rosedal"},{"postalCode":"20126","state":"Aguascalientes","municipality":"Aguascalientes","setelement":"Natura"},{"postalCode":"20126","state":"Aguascalientes","municipality":"Aguascalientes","setelement":"Montebello Della Stanza"},{"postalCode":"20126","state":"Aguascalientes","municipality":"Aguascalientes","setelement":"Villa Notre Dame"},{"postalCode":"20126","state":"Aguascalientes","municipality":"Aguascalientes","setelement":"Privada Guadalupe"},{"postalCode":"20126","state":"Aguascalientes","municipality":"Aguascalientes","setelement":"Rinconada Pozo Bravo"},{"postalCode":"20126","state":"Aguascalientes","municipality":"Aguascalientes","setelement":"Pozo Bravo Sur"},{"postalCode":"20126","state":"Aguascalientes","municipality":"Aguascalientes","setelement":"Villa Loma Dorada"},{"postalCode":"20126","state":"Aguascalientes","municipality":"Aguascalientes","setelement":"Jardines de Montebello"},{"postalCode":"20126","state":"Aguascalientes","municipality":"Aguascalientes","setelement":"Villas del Río"},{"postalCode":"20126","state":"Aguascalientes","municipality":"Aguascalientes","setelement":"El Puertecito"},{"postalCode":"20126","state":"Aguascalientes","municipality":"Aguascalientes","setelement":"Rinconada del Puertecito"},{"postalCode":"20127","state":"Aguascalientes","municipality":"Aguascalientes","setelement":"Bosques del Prado Norte"},{"postalCode":"20128","state":"Aguascalientes","municipality":"Aguascalientes","setelement":"Sartenejo"},{"postalCode":"20129","state":"Aguascalientes","municipality":"Aguascalientes","setelement":"Lomas del Campestre 1a Sección"},{"postalCode":"20130","state":"Aguascalientes","municipality":"Aguascalientes","setelement":"Bosques del Prado Sur"},{"postalCode":"20130","state":"Aguascalientes","municipality":"Aguascalientes","setelement":"El Roble"},{"postalCode":"20130","state":"Aguascalientes","municipality":"Aguascalientes","setelement":"Fátima"},{"postalCode":"20130","state":"Aguascalientes","municipality":"Aguascalientes","setelement":"Independencia de México"},{"postalCode":"20130","state":"Aguascalientes","municipality":"Aguascalientes","setelement":"Nueva Rinconada"},{"postalCode":"20130","state":"Aguascalientes","municipality":"Aguascalientes","setelement":"Primo Verdad"},{"postalCode":"20130","state":"Aguascalientes","municipality":"Aguascalientes","setelement":"San José del Arenal"},{"postalCode":"20130","state":"Aguascalientes","municipality":"Aguascalientes","setelement":"Unidad Ganadera"},{"postalCode":"20130","state":"Aguascalientes","municipality":"Aguascalientes","setelement":"San Xavier"},{"postalCode":"20130","state":"Aguascalientes","municipality":"Aguascalientes","setelement":"Residencial del Real"},{"postalCode":"20130","state":"Aguascalientes","municipality":"Aguascalientes","setelement":"Puerta Navarra"},{"postalCode":"20130","state":"Aguascalientes","municipality":"Aguascalientes","setelement":"Residencial Campestre Club de Golf"},{"postalCode":"20130","state":"Aguascalientes","municipality":"Aguascalientes","setelement":"Palma Real"},{"postalCode":"20130","state":"Aguascalientes","municipality":"Aguascalientes","setelement":"Muralia"},{"postalCode":"20135","state":"Aguascalientes","municipality":"Aguascalientes","setelement":"Agropecuario"},{"postalCode":"20135","state":"Aguascalientes","municipality":"Aguascalientes","setelement":"Centro Distribuidor de Básicos"},{"postalCode":"20136","state":"Aguascalientes","municipality":"Aguascalientes","setelement":"La Rinconada"},{"postalCode":"20137","state":"Aguascalientes","municipality":"Aguascalientes","setelement":"El Plateado"},{"postalCode":"20138","state":"Aguascalientes","municipality":"Aguascalientes","setelement":"Residencial Pulgas Pandas Norte"},{"postalCode":"20138","state":"Aguascalientes","municipality":"Aguascalientes","setelement":"Residencial Pulgas Pandas Sur"},{"postalCode":"20138","state":"Aguascalientes","municipality":"Aguascalientes","setelement":"Villas del Vergel"},{"postalCode":"20138","state":"Aguascalientes","municipality":"Aguascalientes","setelement":"Cerrada San Miguel"},{"postalCode":"20140","state":"Aguascalientes","municipality":"Aguascalientes","setelement":"Andrea"},{"postalCode":"20140","state":"Aguascalientes","municipality":"Aguascalientes","setelement":"Las Hadas"},{"postalCode":"20140","state":"Aguascalientes","municipality":"Aguascalientes","setelement":"Morelos"},{"postalCode":"20146","state":"Aguascalientes","municipality":"Aguascalientes","setelement":"Los Arcos"},{"postalCode":"20149","state":"Aguascalientes","municipality":"Aguascalientes","setelement":"Industrial"},{"postalCode":"20150","state":"Aguascalientes","municipality":"Aguascalientes","setelement":"Buenavista"},{"postalCode":"20150","state":"Aguascalientes","municipality":"Aguascalientes","setelement":"C.T.M."},{"postalCode":"20150","state":"Aguascalientes","municipality":"Aguascalientes","setelement":"La Estrella"},{"postalCode":"20150","state":"Aguascalientes","municipality":"Aguascalientes","setelement":"Macias Arellano"},{"postalCode":"20150","state":"Aguascalientes","municipality":"Aguascalientes","setelement":"Trento"},{"postalCode":"20150","state":"Aguascalientes","municipality":"Aguascalientes","setelement":"Nueva Andalucia Coto Residencial"},{"postalCode":"20150","state":"Aguascalientes","municipality":"Aguascalientes","setelement":"Váltica"},{"postalCode":"20150","state":"Aguascalientes","municipality":"Aguascalientes","setelement":"Lomas del Cobano"},{"postalCode":"20157","state":"Aguascalientes","municipality":"Aguascalientes","setelement":"La Higuerilla"},{"postalCode":"20157","state":"Aguascalientes","municipality":"Aguascalientes","setelement":"Parras"},{"postalCode":"20158","state":"Aguascalientes","municipality":"Aguascalientes","setelement":"El Cobano"},{"postalCode":"20158","state":"Aguascalientes","municipality":"Aguascalientes","setelement":"Hacienda el Cobano"},{"postalCode":"20158","state":"Aguascalientes","municipality":"Aguascalientes","setelement":"Trojes del Cobano"},{"postalCode":"20158","state":"Aguascalientes","municipality":"Aguascalientes","setelement":"Villas del Cobano"},{"postalCode":"20159","state":"Aguascalientes","municipality":"Aguascalientes","setelement":"Alianza Ferrocarrilera"},{"postalCode":"20159","state":"Aguascalientes","municipality":"Aguascalientes","setelement":"Bosques del Prado Oriente"},{"postalCode":"20160","state":"Aguascalientes","municipality":"Aguascalientes","setelement":"Francisco Guel Jimenez"},{"postalCode":"20160","state":"Aguascalientes","municipality":"Aguascalientes","setelement":"Las Viñas INFONAVIT"},{"postalCode":"20164","state":"Aguascalientes","municipality":"Aguascalientes","setelement":"Santa Anita 4a Sección"},{"postalCode":"20169","state":"Aguascalientes","municipality":"Aguascalientes","setelement":"Santa Anita"},{"postalCode":"20169","state":"Aguascalientes","municipality":"Aguascalientes","setelement":"Santa Anita 2a Sección"},{"postalCode":"20170","state":"Aguascalientes","municipality":"Aguascalientes","setelement":"El Maguey"},{"postalCode":"20170","state":"Aguascalientes","municipality":"Aguascalientes","setelement":"Las Cumbres"},{"postalCode":"20170","state":"Aguascalientes","municipality":"Aguascalientes","setelement":"Lic Benito Juárez"},{"postalCode":"20170","state":"Aguascalientes","municipality":"Aguascalientes","setelement":"Nazario Ortiz Garza"},{"postalCode":"20170","state":"Aguascalientes","municipality":"Aguascalientes","setelement":"Rodolfo Landeros Gallegos"},{"postalCode":"20170","state":"Aguascalientes","municipality":"Aguascalientes","setelement":"S.T.E.M.A."},{"postalCode":"20170","state":"Aguascalientes","municipality":"Aguascalientes","setelement":"Zona Militar"},{"postalCode":"20170","state":"Aguascalientes","municipality":"Aguascalientes","setelement":"Villa Bonita"},{"postalCode":"20172","state":"Aguascalientes","municipality":"Aguascalientes","setelement":"Lic Benito Palomino Dena"},{"postalCode":"20172","state":"Aguascalientes","municipality":"Aguascalientes","setelement":"Anexo Benito Palomino Dena (Cumbres II)"},{"postalCode":"20172","state":"Aguascalientes","municipality":"Aguascalientes","setelement":"La Florida l"},{"postalCode":"20172","state":"Aguascalientes","municipality":"Aguascalientes","setelement":"La Florida ll"},{"postalCode":"20172","state":"Aguascalientes","municipality":"Aguascalientes","setelement":"Claustros Loma Dorada"},{"postalCode":"20172","state":"Aguascalientes","municipality":"Aguascalientes","setelement":"Cumbres III"},{"postalCode":"20174","state":"Aguascalientes","municipality":"Aguascalientes","setelement":"Lomas de Bellavista"},{"postalCode":"20174","state":"Aguascalientes","municipality":"Aguascalientes","setelement":"Lomas de las Fuentes"},{"postalCode":"20174","state":"Aguascalientes","municipality":"Aguascalientes","setelement":"Colinas de Oriente"},{"postalCode":"20174","state":"Aguascalientes","municipality":"Aguascalientes","setelement":"Vista de las Cumbres"},{"postalCode":"20174","state":"Aguascalientes","municipality":"Aguascalientes","setelement":"Los Laureles"},{"postalCode":"20174","state":"Aguascalientes","municipality":"Aguascalientes","setelement":"Mirador de las Culturas"},{"postalCode":"20174","state":"Aguascalientes","municipality":"Aguascalientes","setelement":"El Rocío"},{"postalCode":"20174","state":"Aguascalientes","municipality":"Aguascalientes","setelement":"Villas de la Loma"},{"postalCode":"20174","state":"Aguascalientes","municipality":"Aguascalientes","setelement":"Los Pericos"},{"postalCode":"20174","state":"Aguascalientes","municipality":"Aguascalientes","setelement":"Paseos del Sol"},{"postalCode":"20174","state":"Aguascalientes","municipality":"Aguascalientes","setelement":"Miradores de Santa Elena"},{"postalCode":"20174","state":"Aguascalientes","municipality":"Aguascalientes","setelement":"Villas de las Fuentes"},{"postalCode":"20175","state":"Aguascalientes","municipality":"Aguascalientes","setelement":"La Hojarasca"},{"postalCode":"20175","state":"Aguascalientes","municipality":"Aguascalientes","setelement":"Ejido las Cumbres"},{"postalCode":"20175","state":"Aguascalientes","municipality":"Aguascalientes","setelement":"J Refugio Esparza Reyes"},{"postalCode":"20175","state":"Aguascalientes","municipality":"Aguascalientes","setelement":"Rinconadas las Cumbres"},{"postalCode":"20175","state":"Aguascalientes","municipality":"Aguascalientes","setelement":"Lomas de Oriente"},{"postalCode":"20177","state":"Aguascalientes","municipality":"Aguascalientes","setelement":"C.N.O.P. Oriente"},{"postalCode":"20179","state":"Aguascalientes","municipality":"Aguascalientes","setelement":"Las Cumbres"},{"postalCode":"20179","state":"Aguascalientes","municipality":"Aguascalientes","setelement":"Luis Ortega Douglas"},{"postalCode":"20179","state":"Aguascalientes","municipality":"Aguascalientes","setelement":"Pensadores Mexicanos"},{"postalCode":"20179","state":"Aguascalientes","municipality":"Aguascalientes","setelement":"Pintores Mexicanos"},{"postalCode":"20179","state":"Aguascalientes","municipality":"Aguascalientes","setelement":"Progreso"},{"postalCode":"20179","state":"Aguascalientes","municipality":"Aguascalientes","setelement":"Santa Regina"},{"postalCode":"20179","state":"Aguascalientes","municipality":"Aguascalientes","setelement":"Cerro Alto"},{"postalCode":"20179","state":"Aguascalientes","municipality":"Aguascalientes","setelement":"Santa Margarita"},{"postalCode":"20180","state":"Aguascalientes","municipality":"Aguascalientes","setelement":"Del Trabajo"},{"postalCode":"20180","state":"Aguascalientes","municipality":"Aguascalientes","setelement":"Ferronales"},{"postalCode":"20180","state":"Aguascalientes","municipality":"Aguascalientes","setelement":"Luis Gómez Zepeda (ferronales)"},{"postalCode":"20180","state":"Aguascalientes","municipality":"Aguascalientes","setelement":"Lomas de Santa Anita"},{"postalCode":"20180","state":"Aguascalientes","municipality":"Aguascalientes","setelement":"Alameda"},{"postalCode":"20180","state":"Aguascalientes","municipality":"Aguascalientes","setelement":"Rinconada de La Alameda"},{"postalCode":"20180","state":"Aguascalientes","municipality":"Aguascalientes","setelement":"Bosques de La Alameda"},{"postalCode":"20180","state":"Aguascalientes","municipality":"Aguascalientes","setelement":"Nueva Alameda"},{"postalCode":"20190","state":"Aguascalientes","municipality":"Aguascalientes","setelement":"Héroes"},{"postalCode":"20190","state":"Aguascalientes","municipality":"Aguascalientes","setelement":"La Hacienda"},{"postalCode":"20190","state":"Aguascalientes","municipality":"Aguascalientes","setelement":"La Mancha"},{"postalCode":"20196","state":"Aguascalientes","municipality":"Aguascalientes","setelement":"Ojocaliente"},{"postalCode":"20196","state":"Aguascalientes","municipality":"Aguascalientes","setelement":"Ojocaliente INEGI"},{"postalCode":"20196","state":"Aguascalientes","municipality":"Aguascalientes","setelement":"Solidaridad 1a Sección"},{"postalCode":"20196","state":"Aguascalientes","municipality":"Aguascalientes","setelement":"Sol Naciente"},{"postalCode":"20196","state":"Aguascalientes","municipality":"Aguascalientes","setelement":"Villa de las Norias"},{"postalCode":"20196","state":"Aguascalientes","municipality":"Aguascalientes","setelement":"Camino Real"},{"postalCode":"20196","state":"Aguascalientes","municipality":"Aguascalientes","setelement":"Ribera del Sol"},{"postalCode":"20196","state":"Aguascalientes","municipality":"Aguascalientes","setelement":"Ambrosía"},{"postalCode":"20196","state":"Aguascalientes","municipality":"Aguascalientes","setelement":"José Guadalupe Peralta Gámez"},{"postalCode":"20196","state":"Aguascalientes","municipality":"Aguascalientes","setelement":"Haciendas de Aguascalientes"},{"postalCode":"20196","state":"Aguascalientes","municipality":"Aguascalientes","setelement":"Villerías"},{"postalCode":"20196","state":"Aguascalientes","municipality":"Aguascalientes","setelement":"Vistas de Oriente"},{"postalCode":"20196","state":"Aguascalientes","municipality":"Aguascalientes","setelement":"Real de Haciendas"},{"postalCode":"20196","state":"Aguascalientes","municipality":"Aguascalientes","setelement":"Valle de los Cactus"},{"postalCode":"20196","state":"Aguascalientes","municipality":"Aguascalientes","setelement":"Colinas de San Patricio"},{"postalCode":"20196","state":"Aguascalientes","municipality":"Aguascalientes","setelement":"Balcones de Oriente"},{"postalCode":"20196","state":"Aguascalientes","municipality":"Aguascalientes","setelement":"Terra Nova"},{"postalCode":"20196","state":"Aguascalientes","municipality":"Aguascalientes","setelement":"José Guadalupe Posada"},{"postalCode":"20196","state":"Aguascalientes","municipality":"Aguascalientes","setelement":"Comunidad el Rocío"},{"postalCode":"20196","state":"Aguascalientes","municipality":"Aguascalientes","setelement":"Valle del Bicentenario"},{"postalCode":"20196","state":"Aguascalientes","municipality":"Aguascalientes","setelement":"Paseo de los Cactus"},{"postalCode":"20196","state":"Aguascalientes","municipality":"Aguascalientes","setelement":"Balcones del Valle"},{"postalCode":"20196","state":"Aguascalientes","municipality":"Aguascalientes","setelement":"Real del Sol"},{"postalCode":"20198","state":"Aguascalientes","municipality":"Aguascalientes","setelement":"Ex Hacienda Ojocaliente"},{"postalCode":"20198","state":"Aguascalientes","municipality":"Aguascalientes","setelement":"Ejido Ojocaliente"},{"postalCode":"20198","state":"Aguascalientes","municipality":"Aguascalientes","setelement":"Misión Alameda"},{"postalCode":"20199","state":"Aguascalientes","municipality":"Aguascalientes","setelement":"El Riego"},{"postalCode":"20199","state":"Aguascalientes","municipality":"Aguascalientes","setelement":"Fidel Velázquez"},{"postalCode":"20199","state":"Aguascalientes","municipality":"Aguascalientes","setelement":"Municipio Libre"},{"postalCode":"20200","state":"Aguascalientes","municipality":"Aguascalientes","setelement":"Bellavista"},{"postalCode":"20200","state":"Aguascalientes","municipality":"Aguascalientes","setelement":"Loma Bonita"},{"postalCode":"20200","state":"Aguascalientes","municipality":"Aguascalientes","setelement":"Nueva Castilla"},{"postalCode":"20200","state":"Aguascalientes","municipality":"Aguascalientes","setelement":"Xenia Residencial"},{"postalCode":"20200","state":"Aguascalientes","municipality":"Aguascalientes","setelement":"Vergel de la Cantera"},{"postalCode":"20200","state":"Aguascalientes","municipality":"Aguascalientes","setelement":"Balandra"},{"postalCode":"20200","state":"Aguascalientes","municipality":"Aguascalientes","setelement":"Villas de La Cantera"},{"postalCode":"20200","state":"Aguascalientes","municipality":"Aguascalientes","setelement":"Lic Manuel Gómez Morin"},{"postalCode":"20200","state":"Aguascalientes","municipality":"Aguascalientes","setelement":"Residencial San Nicolás"},{"postalCode":"20200","state":"Aguascalientes","municipality":"Aguascalientes","setelement":"Villas del Mediterráneo"},{"postalCode":"20200","state":"Aguascalientes","municipality":"Aguascalientes","setelement":"Ex Hacienda La Cantera"},{"postalCode":"20200","state":"Aguascalientes","municipality":"Aguascalientes","setelement":"José Vasconcelos Calderón"},{"postalCode":"20200","state":"Aguascalientes","municipality":"Aguascalientes","setelement":"Porta Canteras"},{"postalCode":"20200","state":"Aguascalientes","municipality":"Aguascalientes","setelement":"Veteranos de la Revolución"},{"postalCode":"20200","state":"Aguascalientes","municipality":"Aguascalientes","setelement":"Fuentes del Lago"},{"postalCode":"20200","state":"Aguascalientes","municipality":"Aguascalientes","setelement":"El Quelite"},{"postalCode":"20200","state":"Aguascalientes","municipality":"Aguascalientes","setelement":"Olinda"},{"postalCode":"20205","state":"Aguascalientes","municipality":"Aguascalientes","setelement":"Educación Álamos"},{"postalCode":"20205","state":"Aguascalientes","municipality":"Aguascalientes","setelement":"Nueva España"},{"postalCode":"20206","state":"Aguascalientes","municipality":"Aguascalientes","setelement":"Lic. José López Portillo"},{"postalCode":"20206","state":"Aguascalientes","municipality":"Aguascalientes","setelement":"La Barranquilla"},{"postalCode":"20206","state":"Aguascalientes","municipality":"Aguascalientes","setelement":"Barandales de San José"},{"postalCode":"20207","state":"Aguascalientes","municipality":"Aguascalientes","setelement":"Canteras de San Javier"},{"postalCode":"20207","state":"Aguascalientes","municipality":"Aguascalientes","setelement":"Capital City"},{"postalCode":"20207","state":"Aguascalientes","municipality":"Aguascalientes","setelement":"Rinconada San José"},{"postalCode":"20208","state":"Aguascalientes","municipality":"Aguascalientes","setelement":"Canteras de San José"},{"postalCode":"20210","state":"Aguascalientes","municipality":"Aguascalientes","setelement":"Circunvalación Poniente"},{"postalCode":"20210","state":"Aguascalientes","municipality":"Aguascalientes","setelement":"España"},{"postalCode":"20210","state":"Aguascalientes","municipality":"Aguascalientes","setelement":"La Barranca de Guadalupe"},{"postalCode":"20210","state":"Aguascalientes","municipality":"Aguascalientes","setelement":"Pirules INFONAVIT"},{"postalCode":"20217","state":"Aguascalientes","municipality":"Aguascalientes","setelement":"Residencial los Pirules"},{"postalCode":"20218","state":"Aguascalientes","municipality":"Aguascalientes","setelement":"Canteras de Santa Imelda"},{"postalCode":"20218","state":"Aguascalientes","municipality":"Aguascalientes","setelement":"Francisco Villa"},{"postalCode":"20218","state":"Aguascalientes","municipality":"Aguascalientes","setelement":"Jardines del Lago"},{"postalCode":"20218","state":"Aguascalientes","municipality":"Aguascalientes","setelement":"Tahona Residencial"},{"postalCode":"20218","state":"Aguascalientes","municipality":"Aguascalientes","setelement":"San Martin de La Cantera"},{"postalCode":"20218","state":"Aguascalientes","municipality":"Aguascalientes","setelement":"Canteras de San Agustin"},{"postalCode":"20218","state":"Aguascalientes","municipality":"Aguascalientes","setelement":"Santa Imelda"},{"postalCode":"20218","state":"Aguascalientes","municipality":"Aguascalientes","setelement":"Los Eucaliptos 2a. Sección"},{"postalCode":"20218","state":"Aguascalientes","municipality":"Aguascalientes","setelement":"Los Eucaliptos"},{"postalCode":"20218","state":"Aguascalientes","municipality":"Aguascalientes","setelement":"San Agustín"},{"postalCode":"20219","state":"Aguascalientes","municipality":"Aguascalientes","setelement":"El Edén"},{"postalCode":"20219","state":"Aguascalientes","municipality":"Aguascalientes","setelement":"Parque Industrial el Vergel"},{"postalCode":"20219","state":"Aguascalientes","municipality":"Aguascalientes","setelement":"Misión Juan Pablo II"},{"postalCode":"20220","state":"Aguascalientes","municipality":"Aguascalientes","setelement":"Las Flores"},{"postalCode":"20220","state":"Aguascalientes","municipality":"Aguascalientes","setelement":"Vivienda Popular"},{"postalCode":"20229","state":"Aguascalientes","municipality":"Aguascalientes","setelement":"Las Torres"},{"postalCode":"20230","state":"Aguascalientes","municipality":"Aguascalientes","setelement":"Las Américas"},{"postalCode":"20230","state":"Aguascalientes","municipality":"Aguascalientes","setelement":"Obraje"},{"postalCode":"20230","state":"Aguascalientes","municipality":"Aguascalientes","setelement":"Santa Elena"},{"postalCode":"20234","state":"Aguascalientes","municipality":"Aguascalientes","setelement":"Agricultura"},{"postalCode":"20235","state":"Aguascalientes","municipality":"Aguascalientes","setelement":"El Dorado 1a Sección"},{"postalCode":"20235","state":"Aguascalientes","municipality":"Aguascalientes","setelement":"El Dorado 2a Sección"},{"postalCode":"20235","state":"Aguascalientes","municipality":"Aguascalientes","setelement":"Valle Dorado"},{"postalCode":"20235","state":"Aguascalientes","municipality":"Aguascalientes","setelement":"Villa Jardín"},{"postalCode":"20236","state":"Aguascalientes","municipality":"Aguascalientes","setelement":"Jardines de Santa Elena"},{"postalCode":"20237","state":"Aguascalientes","municipality":"Aguascalientes","setelement":"Hermanos Carreón"},{"postalCode":"20237","state":"Aguascalientes","municipality":"Aguascalientes","setelement":"Montebello"},{"postalCode":"20238","state":"Aguascalientes","municipality":"Aguascalientes","setelement":"Santa Elena 2a Sección"},{"postalCode":"20239","state":"Aguascalientes","municipality":"Aguascalientes","setelement":"La Fuente"},{"postalCode":"20240","state":"Aguascalientes","municipality":"Aguascalientes","setelement":"El Encino"},{"postalCode":"20240","state":"Aguascalientes","municipality":"Aguascalientes","setelement":"El Laurel"},{"postalCode":"20240","state":"Aguascalientes","municipality":"Aguascalientes","setelement":"La Luna"},{"postalCode":"20240","state":"Aguascalientes","municipality":"Aguascalientes","setelement":"La Salud"},{"postalCode":"20240","state":"Aguascalientes","municipality":"Aguascalientes","setelement":"Los Virreyes"},{"postalCode":"20240","state":"Aguascalientes","municipality":"Aguascalientes","setelement":"El Llanito"},{"postalCode":"20240","state":"Aguascalientes","municipality":"Aguascalientes","setelement":"Residencial el Encino"},{"postalCode":"20240","state":"Aguascalientes","municipality":"Aguascalientes","setelement":"Triana"},{"postalCode":"20240","state":"Aguascalientes","municipality":"Aguascalientes","setelement":"Residencial Cosío"},{"postalCode":"20240","state":"Aguascalientes","municipality":"Aguascalientes","setelement":"Triana"},{"postalCode":"20247","state":"Aguascalientes","municipality":"Aguascalientes","setelement":"San Fernando INFONAVIT"},{"postalCode":"20248","state":"Aguascalientes","municipality":"Aguascalientes","setelement":"Jardines de Triana"},{"postalCode":"20249","state":"Aguascalientes","municipality":"Aguascalientes","setelement":"Gámez"},{"postalCode":"20250","state":"Aguascalientes","municipality":"Aguascalientes","setelement":"Jesús Gómez Portugal"},{"postalCode":"20250","state":"Aguascalientes","municipality":"Aguascalientes","setelement":"Héroes de Aguascalientes"},{"postalCode":"20250","state":"Aguascalientes","municipality":"Aguascalientes","setelement":"Jardines de La Cruz"},{"postalCode":"20250","state":"Aguascalientes","municipality":"Aguascalientes","setelement":"La Huerta"},{"postalCode":"20250","state":"Aguascalientes","municipality":"Aguascalientes","setelement":"San Luis"},{"postalCode":"20250","state":"Aguascalientes","municipality":"Aguascalientes","setelement":"Villas de Kristal"},{"postalCode":"20255","state":"Aguascalientes","municipality":"Aguascalientes","setelement":"Bona Gens"},{"postalCode":"20255","state":"Aguascalientes","municipality":"Aguascalientes","setelement":"INFONAVIT Los Volcanes"},{"postalCode":"20256","state":"Aguascalientes","municipality":"Aguascalientes","setelement":"FOVISSSTE Ojocaliente I"},{"postalCode":"20256","state":"Aguascalientes","municipality":"Aguascalientes","setelement":"Ojocaliente FOVISSSTE II"},{"postalCode":"20256","state":"Aguascalientes","municipality":"Aguascalientes","setelement":"Ojocaliente las Torres"},{"postalCode":"20256","state":"Aguascalientes","municipality":"Aguascalientes","setelement":"Rinconada de La Cruz"},{"postalCode":"20256","state":"Aguascalientes","municipality":"Aguascalientes","setelement":"Villas de Ojocaliente"},{"postalCode":"20256","state":"Aguascalientes","municipality":"Aguascalientes","setelement":"Parque y Presa del Cedazo"},{"postalCode":"20257","state":"Aguascalientes","municipality":"Aguascalientes","setelement":"Lázaro Cárdenas"},{"postalCode":"20259","state":"Aguascalientes","municipality":"Aguascalientes","setelement":"La Estación"},{"postalCode":"20259","state":"Aguascalientes","municipality":"Aguascalientes","setelement":"La Purísima"},{"postalCode":"20260","state":"Aguascalientes","municipality":"Aguascalientes","setelement":"IV Centenario"},{"postalCode":"20260","state":"Aguascalientes","municipality":"Aguascalientes","setelement":"Jesús Terán Peredo"},{"postalCode":"20260","state":"Aguascalientes","municipality":"Aguascalientes","setelement":"Vivienda Militar"},{"postalCode":"20260","state":"Aguascalientes","municipality":"Aguascalientes","setelement":"Ojo de Agua"},{"postalCode":"20260","state":"Aguascalientes","municipality":"Aguascalientes","setelement":"Sidusa"},{"postalCode":"20260","state":"Aguascalientes","municipality":"Aguascalientes","setelement":"Rinconada El Cedazo"},{"postalCode":"20263","state":"Aguascalientes","municipality":"Aguascalientes","setelement":"Cobano de Palmitas"},{"postalCode":"20263","state":"Aguascalientes","municipality":"Aguascalientes","setelement":"San Jorge"},{"postalCode":"20263","state":"Aguascalientes","municipality":"Aguascalientes","setelement":"La Lomita"},{"postalCode":"20263","state":"Aguascalientes","municipality":"Aguascalientes","setelement":"Villa las Palmas"},{"postalCode":"20263","state":"Aguascalientes","municipality":"Aguascalientes","setelement":"Bajío de las Palmas"},{"postalCode":"20263","state":"Aguascalientes","municipality":"Aguascalientes","setelement":"Lomas del Gachupín"},{"postalCode":"20263","state":"Aguascalientes","municipality":"Aguascalientes","setelement":"El Cedazo"},{"postalCode":"20263","state":"Aguascalientes","municipality":"Aguascalientes","setelement":"San Ángel"},{"postalCode":"20263","state":"Aguascalientes","municipality":"Aguascalientes","setelement":"Villa Taurina"},{"postalCode":"20263","state":"Aguascalientes","municipality":"Aguascalientes","setelement":"Agua Clara"},{"postalCode":"20263","state":"Aguascalientes","municipality":"Aguascalientes","setelement":"Balcones de Ojocaliente"},{"postalCode":"20263","state":"Aguascalientes","municipality":"Aguascalientes","setelement":"Cielo Claro"},{"postalCode":"20263","state":"Aguascalientes","municipality":"Aguascalientes","setelement":"Lomas del Chapulín"},{"postalCode":"20263","state":"Aguascalientes","municipality":"Aguascalientes","setelement":"Ojo de Agua de Palmitas"},{"postalCode":"20263","state":"Aguascalientes","municipality":"Aguascalientes","setelement":"Salto de Ojocaliente"},{"postalCode":"20263","state":"Aguascalientes","municipality":"Aguascalientes","setelement":"Solidaridad 2a Sección"},{"postalCode":"20263","state":"Aguascalientes","municipality":"Aguascalientes","setelement":"Solidaridad 3a Sección"},{"postalCode":"20263","state":"Aguascalientes","municipality":"Aguascalientes","setelement":"Tierra Buena"},{"postalCode":"20263","state":"Aguascalientes","municipality":"Aguascalientes","setelement":"Rinconada San Antonio I"},{"postalCode":"20263","state":"Aguascalientes","municipality":"Aguascalientes","setelement":"Cima del Chapulín"},{"postalCode":"20264","state":"Aguascalientes","municipality":"Aguascalientes","setelement":"Morelos INFONAVIT"},{"postalCode":"20264","state":"Aguascalientes","municipality":"Aguascalientes","setelement":"Vista del Sol 2a Sección"},{"postalCode":"20264","state":"Aguascalientes","municipality":"Aguascalientes","setelement":"Vista del Sol 3a Sección"},{"postalCode":"20265","state":"Aguascalientes","municipality":"Aguascalientes","setelement":"Ojo de Agua INFONAVIT"},{"postalCode":"20266","state":"Aguascalientes","municipality":"Aguascalientes","setelement":"Jardines del Sol"},{"postalCode":"20266","state":"Aguascalientes","municipality":"Aguascalientes","setelement":"La Cruz"},{"postalCode":"20266","state":"Aguascalientes","municipality":"Aguascalientes","setelement":"Misión de Santa Fe"},{"postalCode":"20266","state":"Aguascalientes","municipality":"Aguascalientes","setelement":"Vista del Sol 1a Sección"},{"postalCode":"20267","state":"Aguascalientes","municipality":"Aguascalientes","setelement":"S.T.E.M.A."},{"postalCode":"20267","state":"Aguascalientes","municipality":"Aguascalientes","setelement":"Jardines de La Convención"},{"postalCode":"20267","state":"Aguascalientes","municipality":"Aguascalientes","setelement":"Ojo de Agua FOVISSSTE 1a Sección"},{"postalCode":"20267","state":"Aguascalientes","municipality":"Aguascalientes","setelement":"Lic Primo Verdad INEGI"},{"postalCode":"20268","state":"Aguascalientes","municipality":"Aguascalientes","setelement":"Fuentes de La Asunción"},{"postalCode":"20269","state":"Aguascalientes","municipality":"Aguascalientes","setelement":"Jardines de La Luz"},{"postalCode":"20270","state":"Aguascalientes","municipality":"Aguascalientes","setelement":"Mesonero"},{"postalCode":"20270","state":"Aguascalientes","municipality":"Aguascalientes","setelement":"Bulevar"},{"postalCode":"20270","state":"Aguascalientes","municipality":"Aguascalientes","setelement":"El Caminero"},{"postalCode":"20270","state":"Aguascalientes","municipality":"Aguascalientes","setelement":"Jardines de Aguascalientes"},{"postalCode":"20270","state":"Aguascalientes","municipality":"Aguascalientes","setelement":"Jardines de La Asunción"},{"postalCode":"20270","state":"Aguascalientes","municipality":"Aguascalientes","setelement":"Las Canoas"},{"postalCode":"20270","state":"Aguascalientes","municipality":"Aguascalientes","setelement":"Lindavista"},{"postalCode":"20270","state":"Aguascalientes","municipality":"Aguascalientes","setelement":"México"},{"postalCode":"20270","state":"Aguascalientes","municipality":"Aguascalientes","setelement":"Los Cedros"},{"postalCode":"20276","state":"Aguascalientes","municipality":"Aguascalientes","setelement":"Jardines de las Bugambilias"},{"postalCode":"20276","state":"Aguascalientes","municipality":"Aguascalientes","setelement":"Jardines del Parque"},{"postalCode":"20276","state":"Aguascalientes","municipality":"Aguascalientes","setelement":"Jardines de Alejandría"},{"postalCode":"20277","state":"Aguascalientes","municipality":"Aguascalientes","setelement":"Pirámides"},{"postalCode":"20277","state":"Aguascalientes","municipality":"Aguascalientes","setelement":"Residencial del Parque"},{"postalCode":"20277","state":"Aguascalientes","municipality":"Aguascalientes","setelement":"Rinconada del Parque"},{"postalCode":"20278","state":"Aguascalientes","municipality":"Aguascalientes","setelement":"Jardines de las Fuentes"},{"postalCode":"20280","state":"Aguascalientes","municipality":"Aguascalientes","setelement":"Conjunto San Francisco"},{"postalCode":"20280","state":"Aguascalientes","municipality":"Aguascalientes","setelement":"Villas de San José"},{"postalCode":"20280","state":"Aguascalientes","municipality":"Aguascalientes","setelement":"Casasolida"},{"postalCode":"20280","state":"Aguascalientes","municipality":"Aguascalientes","setelement":"Central de Abastos"},{"postalCode":"20280","state":"Aguascalientes","municipality":"Aguascalientes","setelement":"Jardines del Sur"},{"postalCode":"20280","state":"Aguascalientes","municipality":"Aguascalientes","setelement":"Martinez Dominguez"},{"postalCode":"20280","state":"Aguascalientes","municipality":"Aguascalientes","setelement":"Prados de Villasunción"},{"postalCode":"20280","state":"Aguascalientes","municipality":"Aguascalientes","setelement":"Prados del Sur"},{"postalCode":"20280","state":"Aguascalientes","municipality":"Aguascalientes","setelement":"San Francisco del Arenal"},{"postalCode":"20280","state":"Aguascalientes","municipality":"Aguascalientes","setelement":"San Pedro"},{"postalCode":"20280","state":"Aguascalientes","municipality":"Aguascalientes","setelement":"Torres de San Francisco"},{"postalCode":"20280","state":"Aguascalientes","municipality":"Aguascalientes","setelement":"Trojes del Sur"},{"postalCode":"20280","state":"Aguascalientes","municipality":"Aguascalientes","setelement":"Australis"},{"postalCode":"20283","state":"Aguascalientes","municipality":"Aguascalientes","setelement":"Kerarta"},{"postalCode":"20283","state":"Aguascalientes","municipality":"Aguascalientes","setelement":"Parque Industrial Siglo XXI"},{"postalCode":"20284","state":"Aguascalientes","municipality":"Aguascalientes","setelement":"La Casita"},{"postalCode":"20284","state":"Aguascalientes","municipality":"Aguascalientes","setelement":"La Estancia"},{"postalCode":"20284","state":"Aguascalientes","municipality":"Aguascalientes","setelement":"INFONAVIT Potreros del Oeste"},{"postalCode":"20284","state":"Aguascalientes","municipality":"Aguascalientes","setelement":"Villas de Santa Rosa"},{"postalCode":"20284","state":"Aguascalientes","municipality":"Aguascalientes","setelement":"Villas del Oeste"},{"postalCode":"20284","state":"Aguascalientes","municipality":"Aguascalientes","setelement":"Vistas del Sur"},{"postalCode":"20284","state":"Aguascalientes","municipality":"Aguascalientes","setelement":"Rinconada del Sur"},{"postalCode":"20284","state":"Aguascalientes","municipality":"Aguascalientes","setelement":"Villas del Encino"},{"postalCode":"20285","state":"Aguascalientes","municipality":"Aguascalientes","setelement":"Versalles 1a Sección"},{"postalCode":"20285","state":"Aguascalientes","municipality":"Aguascalientes","setelement":"Versalles 2a Sección"},{"postalCode":"20286","state":"Aguascalientes","municipality":"Aguascalientes","setelement":"Bosque Real"},{"postalCode":"20286","state":"Aguascalientes","municipality":"Aguascalientes","setelement":"Rancho Santa Mónica"},{"postalCode":"20286","state":"Aguascalientes","municipality":"Aguascalientes","setelement":"Vicente Guerrero"},{"postalCode":"20286","state":"Aguascalientes","municipality":"Aguascalientes","setelement":"Villas del Pilar 1a Sección"},{"postalCode":"20286","state":"Aguascalientes","municipality":"Aguascalientes","setelement":"Barlovento"},{"postalCode":"20286","state":"Aguascalientes","municipality":"Aguascalientes","setelement":"Abadía"},{"postalCode":"20286","state":"Aguascalientes","municipality":"Aguascalientes","setelement":"Mangata"},{"postalCode":"20286","state":"Aguascalientes","municipality":"Aguascalientes","setelement":"Caranday"},{"postalCode":"20286","state":"Aguascalientes","municipality":"Aguascalientes","setelement":"Amura"},{"postalCode":"20286","state":"Aguascalientes","municipality":"Aguascalientes","setelement":"Villas San Antonio"},{"postalCode":"20286","state":"Aguascalientes","municipality":"Aguascalientes","setelement":"Providencia"},{"postalCode":"20286","state":"Aguascalientes","municipality":"Aguascalientes","setelement":"Rinconada Santa Mónica"},{"postalCode":"20286","state":"Aguascalientes","municipality":"Aguascalientes","setelement":"Paseos de Santa Mónica"},{"postalCode":"20287","state":"Aguascalientes","municipality":"Aguascalientes","setelement":"Insurgentes"},{"postalCode":"20288","state":"Aguascalientes","municipality":"Aguascalientes","setelement":"Bulevares 1a. Sección"},{"postalCode":"20288","state":"Aguascalientes","municipality":"Aguascalientes","setelement":"Bulevares 2a. Sección"},{"postalCode":"20289","state":"Aguascalientes","municipality":"Aguascalientes","setelement":"Pilar Blanco INFONAVIT"},{"postalCode":"20290","state":"Aguascalientes","municipality":"Aguascalientes","setelement":"Ciudad Industrial"},{"postalCode":"20290","state":"Aguascalientes","municipality":"Aguascalientes","setelement":"Vista Alegre"},{"postalCode":"20290","state":"Aguascalientes","municipality":"Aguascalientes","setelement":"Parque Industrial ALTEC"},{"postalCode":"20296","state":"Aguascalientes","municipality":"Aguascalientes","setelement":"Rústicos Calpulli"},{"postalCode":"20296","state":"Aguascalientes","municipality":"Aguascalientes","setelement":"Reserva San Matías"},{"postalCode":"20296","state":"Aguascalientes","municipality":"Aguascalientes","setelement":"Villas de Bonaterra"},{"postalCode":"20296","state":"Aguascalientes","municipality":"Aguascalientes","setelement":"San Francisco de los Arteaga"},{"postalCode":"20296","state":"Aguascalientes","municipality":"Aguascalientes","setelement":"Residencial San Javier"},{"postalCode":"20296","state":"Aguascalientes","municipality":"Aguascalientes","setelement":"Villa Sur"},{"postalCode":"20297","state":"Aguascalientes","municipality":"Aguascalientes","setelement":"Casa Blanca"},{"postalCode":"20297","state":"Aguascalientes","municipality":"Aguascalientes","setelement":"Jardines de Casablanca"},{"postalCode":"20297","state":"Aguascalientes","municipality":"Aguascalientes","setelement":"Jardines de Casanueva"},{"postalCode":"20298","state":"Aguascalientes","municipality":"Aguascalientes","setelement":"Laureles del Sur"},{"postalCode":"20298","state":"Aguascalientes","municipality":"Aguascalientes","setelement":"Lomas del Mirador"},{"postalCode":"20298","state":"Aguascalientes","municipality":"Aguascalientes","setelement":"Misión de Santa Lucía"},{"postalCode":"20298","state":"Aguascalientes","municipality":"Aguascalientes","setelement":"Lomas de Vistabella 2a. Sección"},{"postalCode":"20298","state":"Aguascalientes","municipality":"Aguascalientes","setelement":"Lotes de Arellano"},{"postalCode":"20298","state":"Aguascalientes","municipality":"Aguascalientes","setelement":"Condominio La terraza"},{"postalCode":"20298","state":"Aguascalientes","municipality":"Aguascalientes","setelement":"Valle del Cedazo"},{"postalCode":"20298","state":"Aguascalientes","municipality":"Aguascalientes","setelement":"Paseos de San Antonio"},{"postalCode":"20298","state":"Aguascalientes","municipality":"Aguascalientes","setelement":"Hacienda San Marcos"},{"postalCode":"20298","state":"Aguascalientes","municipality":"Aguascalientes","setelement":"Emiliano Zapata"},{"postalCode":"20298","state":"Aguascalientes","municipality":"Aguascalientes","setelement":"Morelos I"},{"postalCode":"20298","state":"Aguascalientes","municipality":"Aguascalientes","setelement":"Morelos 2a Sección"},{"postalCode":"20298","state":"Aguascalientes","municipality":"Aguascalientes","setelement":"Solidaridad 4a Sección"},{"postalCode":"20298","state":"Aguascalientes","municipality":"Aguascalientes","setelement":"Residencial Hacienda San Martín"},{"postalCode":"20298","state":"Aguascalientes","municipality":"Aguascalientes","setelement":"Viñedos del Sur"},{"postalCode":"20298","state":"Aguascalientes","municipality":"Aguascalientes","setelement":"Reserva Villa Sur"},{"postalCode":"20298","state":"Aguascalientes","municipality":"Aguascalientes","setelement":"Villas de Ajedrez"},{"postalCode":"20298","state":"Aguascalientes","municipality":"Aguascalientes","setelement":"Lomas de Vistabella"},{"postalCode":"20298","state":"Aguascalientes","municipality":"Aguascalientes","setelement":"San Sebastián"},{"postalCode":"20298","state":"Aguascalientes","municipality":"Aguascalientes","setelement":"Lomas del Sur"},{"postalCode":"20298","state":"Aguascalientes","municipality":"Aguascalientes","setelement":"Lomas de Nueva York"},{"postalCode":"20299","state":"Aguascalientes","municipality":"Aguascalientes","setelement":"Lomas del Ajedrez"},{"postalCode":"20299","state":"Aguascalientes","municipality":"Aguascalientes","setelement":"Mujeres Ilustres"},{"postalCode":"20299","state":"Aguascalientes","municipality":"Aguascalientes","setelement":"Periodistas"},{"postalCode":"20299","state":"Aguascalientes","municipality":"Aguascalientes","setelement":"Villa del Chapulín"},{"postalCode":"20299","state":"Aguascalientes","municipality":"Aguascalientes","setelement":"Los Dolores"},{"postalCode":"20299","state":"Aguascalientes","municipality":"Aguascalientes","setelement":"Fundadores"},{"postalCode":"20299","state":"Aguascalientes","municipality":"Aguascalientes","setelement":"Lomas de San Jorge"},{"postalCode":"20299","state":"Aguascalientes","municipality":"Aguascalientes","setelement":"Reencuentro"},{"postalCode":"20299","state":"Aguascalientes","municipality":"Aguascalientes","setelement":"Villalta"},{"postalCode":"20299","state":"Aguascalientes","municipality":"Aguascalientes","setelement":"Lunaria"},{"postalCode":"20300","state":"Aguascalientes","municipality":"San Francisco de los Romo","setelement":"Panamericano"},{"postalCode":"20300","state":"Aguascalientes","municipality":"San Francisco de los Romo","setelement":"San Francisco de los Romos Centro"},{"postalCode":"20303","state":"Aguascalientes","municipality":"San Francisco de los Romo","setelement":"El Tirón (El Progreso)"},{"postalCode":"20303","state":"Aguascalientes","municipality":"San Francisco de los Romo","setelement":"Hidalgo"},{"postalCode":"20303","state":"Aguascalientes","municipality":"San Francisco de los Romo","setelement":"La Aurora"},{"postalCode":"20303","state":"Aguascalientes","municipality":"San Francisco de los Romo","setelement":"La Guadalupana"},{"postalCode":"20303","state":"Aguascalientes","municipality":"San Francisco de los Romo","setelement":"La Perla"},{"postalCode":"20303","state":"Aguascalientes","municipality":"San Francisco de los Romo","setelement":"Los Cedros"},{"postalCode":"20303","state":"Aguascalientes","municipality":"San Francisco de los Romo","setelement":"María"},{"postalCode":"20303","state":"Aguascalientes","municipality":"San Francisco de los Romo","setelement":"Revolución"},{"postalCode":"20303","state":"Aguascalientes","municipality":"San Francisco de los Romo","setelement":"San Francisco"},{"postalCode":"20303","state":"Aguascalientes","municipality":"San Francisco de los Romo","setelement":"San José Buenavista"},{"postalCode":"20303","state":"Aguascalientes","municipality":"San Francisco de los Romo","setelement":"Cerrada San Francisco"},{"postalCode":"20304","state":"Aguascalientes","municipality":"San Francisco de los Romo","setelement":"Fracción de la Trinidad II"},{"postalCode":"20304","state":"Aguascalientes","municipality":"San Francisco de los Romo","setelement":"La Escondida (El Salero)"},{"postalCode":"20304","state":"Aguascalientes","municipality":"San Francisco de los Romo","setelement":"Monserrat"},{"postalCode":"20304","state":"Aguascalientes","municipality":"San Francisco de los Romo","setelement":"San José del Barranco"},{"postalCode":"20304","state":"Aguascalientes","municipality":"San Francisco de los Romo","setelement":"San Juan"},{"postalCode":"20304","state":"Aguascalientes","municipality":"San Francisco de los Romo","setelement":"28 de Abril"},{"postalCode":"20304","state":"Aguascalientes","municipality":"San Francisco de los Romo","setelement":"Santa Bárbara"},{"postalCode":"20304","state":"Aguascalientes","municipality":"San Francisco de los Romo","setelement":"El Cardonal"},{"postalCode":"20304","state":"Aguascalientes","municipality":"San Francisco de los Romo","setelement":"Santa Fe"},{"postalCode":"20305","state":"Aguascalientes","municipality":"San Francisco de los Romo","setelement":"El Barranco"},{"postalCode":"20305","state":"Aguascalientes","municipality":"San Francisco de los Romo","setelement":"El Gigante"},{"postalCode":"20305","state":"Aguascalientes","municipality":"San Francisco de los Romo","setelement":"El Refugio"},{"postalCode":"20305","state":"Aguascalientes","municipality":"San Francisco de los Romo","setelement":"Santa Elena (Elena)"},{"postalCode":"20305","state":"Aguascalientes","municipality":"San Francisco de los Romo","setelement":"La Gloria"},{"postalCode":"20305","state":"Aguascalientes","municipality":"San Francisco de los Romo","setelement":"La Paz"},{"postalCode":"20305","state":"Aguascalientes","municipality":"San Francisco de los Romo","setelement":"La Providencia"},{"postalCode":"20305","state":"Aguascalientes","municipality":"San Francisco de los Romo","setelement":"La Trinidad"},{"postalCode":"20305","state":"Aguascalientes","municipality":"San Francisco de los Romo","setelement":"La Unión"},{"postalCode":"20305","state":"Aguascalientes","municipality":"San Francisco de los Romo","setelement":"Las Carmelitas"},{"postalCode":"20305","state":"Aguascalientes","municipality":"San Francisco de los Romo","setelement":"Los Lirios"},{"postalCode":"20305","state":"Aguascalientes","municipality":"San Francisco de los Romo","setelement":"Sociedad Plan de los Sabinos"},{"postalCode":"20305","state":"Aguascalientes","municipality":"San Francisco de los Romo","setelement":"San Ángel"},{"postalCode":"20305","state":"Aguascalientes","municipality":"San Francisco de los Romo","setelement":"San Pedro Victoria de Arriba"},{"postalCode":"20305","state":"Aguascalientes","municipality":"San Francisco de los Romo","setelement":"Santa Anita"},{"postalCode":"20305","state":"Aguascalientes","municipality":"San Francisco de los Romo","setelement":"Zacatenco"},{"postalCode":"20306","state":"Aguascalientes","municipality":"San Francisco de los Romo","setelement":"Los Corrales (Los Corrales Blancos)"},{"postalCode":"20306","state":"Aguascalientes","municipality":"San Francisco de los Romo","setelement":"El Chamizal"},{"postalCode":"20306","state":"Aguascalientes","municipality":"San Francisco de los Romo","setelement":"Mary"},{"postalCode":"20306","state":"Aguascalientes","municipality":"San Francisco de los Romo","setelement":"Villa de Guadalupe"},{"postalCode":"20306","state":"Aguascalientes","municipality":"San Francisco de los Romo","setelement":"San Pablo"},{"postalCode":"20310","state":"Aguascalientes","municipality":"Aguascalientes","setelement":"Los Negritos"},{"postalCode":"20310","state":"Aguascalientes","municipality":"Aguascalientes","setelement":"Coyotes"},{"postalCode":"20310","state":"Aguascalientes","municipality":"Aguascalientes","setelement":"Viñedos Valle Redondo"},{"postalCode":"20310","state":"Aguascalientes","municipality":"Aguascalientes","setelement":"La Loma de los Negritos"},{"postalCode":"20310","state":"Aguascalientes","municipality":"Aguascalientes","setelement":"Viñedos San Felipe"},{"postalCode":"20313","state":"Aguascalientes","municipality":"Aguascalientes","setelement":"Cuauhtémoc (Las Palomas)"},{"postalCode":"20313","state":"Aguascalientes","municipality":"Aguascalientes","setelement":"Hacienda Nueva"},{"postalCode":"20314","state":"Aguascalientes","municipality":"Aguascalientes","setelement":"El Cariñán"},{"postalCode":"20316","state":"Aguascalientes","municipality":"Aguascalientes","setelement":"Santa Cruz de la Presa"},{"postalCode":"20316","state":"Aguascalientes","municipality":"Aguascalientes","setelement":"Lomas del Picacho"},{"postalCode":"20319","state":"Aguascalientes","municipality":"Aguascalientes","setelement":"CERESO (Para Varones y Mujeres)"},{"postalCode":"20320","state":"Aguascalientes","municipality":"Aguascalientes","setelement":"Estación Cañada Honda"},{"postalCode":"20320","state":"Aguascalientes","municipality":"Aguascalientes","setelement":"General José María Morelos y Pavón (Cañada Honda)"},{"postalCode":"20320","state":"Aguascalientes","municipality":"Aguascalientes","setelement":"Las Cañadas"},{"postalCode":"20323","state":"Aguascalientes","municipality":"Aguascalientes","setelement":"Santa María de Gallardo"},{"postalCode":"20324","state":"Aguascalientes","municipality":"Aguascalientes","setelement":"Jaltomate"},{"postalCode":"20326","state":"Aguascalientes","municipality":"Aguascalientes","setelement":"Loretta"},{"postalCode":"20326","state":"Aguascalientes","municipality":"Aguascalientes","setelement":"Parque Industrial Tecnopolo 2 (PITP2)"},{"postalCode":"20326","state":"Aguascalientes","municipality":"Aguascalientes","setelement":"La Aurora"},{"postalCode":"20326","state":"Aguascalientes","municipality":"Aguascalientes","setelement":"Bosque Sereno"},{"postalCode":"20326","state":"Aguascalientes","municipality":"Aguascalientes","setelement":"Cavalia"},{"postalCode":"20326","state":"Aguascalientes","municipality":"Aguascalientes","setelement":"Quinta los Olivos"},{"postalCode":"20326","state":"Aguascalientes","municipality":"Aguascalientes","setelement":"Misión de San Jerónimo"},{"postalCode":"20326","state":"Aguascalientes","municipality":"Aguascalientes","setelement":"Privada Los Olivos"},{"postalCode":"20326","state":"Aguascalientes","municipality":"Aguascalientes","setelement":"Residencial Punta del Cielo"},{"postalCode":"20326","state":"Aguascalientes","municipality":"Aguascalientes","setelement":"Portón San Ignacio"},{"postalCode":"20326","state":"Aguascalientes","municipality":"Aguascalientes","setelement":"Valle de San Ignacio (El Filso)"},{"postalCode":"20326","state":"Aguascalientes","municipality":"Aguascalientes","setelement":"San Ignacio"},{"postalCode":"20326","state":"Aguascalientes","municipality":"Aguascalientes","setelement":"La Trinidad"},{"postalCode":"20326","state":"Aguascalientes","municipality":"Aguascalientes","setelement":"Tamarindos"},{"postalCode":"20326","state":"Aguascalientes","municipality":"Aguascalientes","setelement":"Xaramá Entorno Residencial"},{"postalCode":"20326","state":"Aguascalientes","municipality":"Aguascalientes","setelement":"Puesta del Sol"},{"postalCode":"20326","state":"Aguascalientes","municipality":"Aguascalientes","setelement":"La Soledad"},{"postalCode":"20326","state":"Aguascalientes","municipality":"Aguascalientes","setelement":"La Rioja"},{"postalCode":"20326","state":"Aguascalientes","municipality":"Aguascalientes","setelement":"Rinconada de San Ignacio"},{"postalCode":"20326","state":"Aguascalientes","municipality":"Aguascalientes","setelement":"Ex-Hacienda de San Ignacio"},{"postalCode":"20326","state":"Aguascalientes","municipality":"Aguascalientes","setelement":"La Perla"},{"postalCode":"20326","state":"Aguascalientes","municipality":"Aguascalientes","setelement":"San Ignacio II"},{"postalCode":"20326","state":"Aguascalientes","municipality":"Aguascalientes","setelement":"San Ignacio III"},{"postalCode":"20328","state":"Aguascalientes","municipality":"Aguascalientes","setelement":"Los Fresnos"},{"postalCode":"20328","state":"Aguascalientes","municipality":"Aguascalientes","setelement":"Terranza"},{"postalCode":"20328","state":"Aguascalientes","municipality":"Aguascalientes","setelement":"Pocitos"},{"postalCode":"20328","state":"Aguascalientes","municipality":"Aguascalientes","setelement":"Parque Industrial Tecnopolo Pocitos"},{"postalCode":"20329","state":"Aguascalientes","municipality":"Aguascalientes","setelement":"Privanza Andaluz"},{"postalCode":"20329","state":"Aguascalientes","municipality":"Aguascalientes","setelement":"Residencial Las Quintas"},{"postalCode":"20329","state":"Aguascalientes","municipality":"Aguascalientes","setelement":"La Querencia"},{"postalCode":"20329","state":"Aguascalientes","municipality":"Aguascalientes","setelement":"Rincón Andaluz"},{"postalCode":"20329","state":"Aguascalientes","municipality":"Aguascalientes","setelement":"La Plazuela"},{"postalCode":"20329","state":"Aguascalientes","municipality":"Aguascalientes","setelement":"Torres Residencial Campestre Santamaría"},{"postalCode":"20329","state":"Aguascalientes","municipality":"Aguascalientes","setelement":"La Punta Campestre"},{"postalCode":"20329","state":"Aguascalientes","municipality":"Aguascalientes","setelement":"Contadero"},{"postalCode":"20329","state":"Aguascalientes","municipality":"Aguascalientes","setelement":"La Joya"},{"postalCode":"20329","state":"Aguascalientes","municipality":"Aguascalientes","setelement":"Río Viejo"},{"postalCode":"20330","state":"Aguascalientes","municipality":"El Llano","setelement":"Crucero Ojo de Agua de Crucitas"},{"postalCode":"20330","state":"Aguascalientes","municipality":"El Llano","setelement":"Palo Alto"},{"postalCode":"20330","state":"Aguascalientes","municipality":"El Llano","setelement":"De Triana"},{"postalCode":"20330","state":"Aguascalientes","municipality":"El Llano","setelement":"Palo Alto Centro"},{"postalCode":"20330","state":"Aguascalientes","municipality":"El Llano","setelement":"Pobre"},{"postalCode":"20330","state":"Aguascalientes","municipality":"El Llano","setelement":"De Afuera"},{"postalCode":"20330","state":"Aguascalientes","municipality":"El Llano","setelement":"De Abajo"},{"postalCode":"20330","state":"Aguascalientes","municipality":"El Llano","setelement":"El Progreso"},{"postalCode":"20330","state":"Aguascalientes","municipality":"El Llano","setelement":"El Salto"},{"postalCode":"20330","state":"Aguascalientes","municipality":"El Llano","setelement":"El Saucito"},{"postalCode":"20333","state":"Aguascalientes","municipality":"El Llano","setelement":"El Milagro"},{"postalCode":"20333","state":"Aguascalientes","municipality":"El Llano","setelement":"Las Flores (El Cotón)"},{"postalCode":"20333","state":"Aguascalientes","municipality":"El Llano","setelement":"Licenciado Jesús Terán (El Muerto)"},{"postalCode":"20333","state":"Aguascalientes","municipality":"El Llano","setelement":"San Francisco de los Viveros"},{"postalCode":"20333","state":"Aguascalientes","municipality":"El Llano","setelement":"Sandovales (San Miguel de los Sandovales)"},{"postalCode":"20333","state":"Aguascalientes","municipality":"El Llano","setelement":"San Francisco de los Pedroza"},{"postalCode":"20333","state":"Aguascalientes","municipality":"El Llano","setelement":"El Barreno (Ampliación San Francisco)"},{"postalCode":"20333","state":"Aguascalientes","municipality":"El Llano","setelement":"El Mocho"},{"postalCode":"20333","state":"Aguascalientes","municipality":"El Llano","setelement":"San Gerónimo"},{"postalCode":"20333","state":"Aguascalientes","municipality":"El Llano","setelement":"San José (San Antonio de Montoya)"},{"postalCode":"20333","state":"Aguascalientes","municipality":"El Llano","setelement":"El Cotón"},{"postalCode":"20334","state":"Aguascalientes","municipality":"El Llano","setelement":"El Novillo"},{"postalCode":"20334","state":"Aguascalientes","municipality":"El Llano","setelement":"La Luz"},{"postalCode":"20335","state":"Aguascalientes","municipality":"El Llano","setelement":"El Puertecito"},{"postalCode":"20335","state":"Aguascalientes","municipality":"El Llano","setelement":"Ojo de Agua de Crucitas"},{"postalCode":"20336","state":"Aguascalientes","municipality":"El Llano","setelement":"El Terremoto"},{"postalCode":"20336","state":"Aguascalientes","municipality":"El Llano","setelement":"Francisco Sarabia (La Reforma)"},{"postalCode":"20336","state":"Aguascalientes","municipality":"El Llano","setelement":"Los Conos"},{"postalCode":"20336","state":"Aguascalientes","municipality":"El Llano","setelement":"Montoya"},{"postalCode":"20336","state":"Aguascalientes","municipality":"El Llano","setelement":"Santa Rosa (El Huizache)"},{"postalCode":"20337","state":"Aguascalientes","municipality":"El Llano","setelement":"El Retoño"},{"postalCode":"20337","state":"Aguascalientes","municipality":"El Llano","setelement":"La Tinaja"},{"postalCode":"20337","state":"Aguascalientes","municipality":"El Llano","setelement":"El Rosario"},{"postalCode":"20338","state":"Aguascalientes","municipality":"El Llano","setelement":"El Copetillo"},{"postalCode":"20338","state":"Aguascalientes","municipality":"El Llano","setelement":"El Tildío"},{"postalCode":"20338","state":"Aguascalientes","municipality":"El Llano","setelement":"La Unión (La Paz)"},{"postalCode":"20338","state":"Aguascalientes","municipality":"El Llano","setelement":"Rancho Nuevo"},{"postalCode":"20338","state":"Aguascalientes","municipality":"El Llano","setelement":"El Chonguillo (El Chonguito)"},{"postalCode":"20338","state":"Aguascalientes","municipality":"El Llano","setelement":"El Copetillo (El Moquete)"},{"postalCode":"20338","state":"Aguascalientes","municipality":"El Llano","setelement":"Tanque el Coyote (El Coyote)"},{"postalCode":"20338","state":"Aguascalientes","municipality":"El Llano","setelement":"Mirasoles"},{"postalCode":"20339","state":"Aguascalientes","municipality":"El Llano","setelement":"San José (San José de los Rodríguez)"},{"postalCode":"20339","state":"Aguascalientes","municipality":"El Llano","setelement":"El Centenario"},{"postalCode":"20339","state":"Aguascalientes","municipality":"El Llano","setelement":"Santa Rita"},{"postalCode":"20339","state":"Aguascalientes","municipality":"El Llano","setelement":"La Primavera"},{"postalCode":"20339","state":"Aguascalientes","municipality":"El Llano","setelement":"Lomas del Refugio (La Loma)"},{"postalCode":"20339","state":"Aguascalientes","municipality":"El Llano","setelement":"Santa Elena"},{"postalCode":"20339","state":"Aguascalientes","municipality":"El Llano","setelement":"El Llano [CERESO]"},{"postalCode":"20339","state":"Aguascalientes","municipality":"El Llano","setelement":"Granja Temixco"},{"postalCode":"20339","state":"Aguascalientes","municipality":"El Llano","setelement":"El Paraíso (Santa Rita)"},{"postalCode":"20339","state":"Aguascalientes","municipality":"El Llano","setelement":"Santa Rita Uno (Santa Rita)"},{"postalCode":"20339","state":"Aguascalientes","municipality":"El Llano","setelement":"San Lorenzo"},{"postalCode":"20339","state":"Aguascalientes","municipality":"El Llano","setelement":"Santa Clara (Las Mieleras)"},{"postalCode":"20339","state":"Aguascalientes","municipality":"El Llano","setelement":"San Agustín de los Díaz"},{"postalCode":"20339","state":"Aguascalientes","municipality":"El Llano","setelement":"La Lucita"},{"postalCode":"20339","state":"Aguascalientes","municipality":"El Llano","setelement":"La Calavera"},{"postalCode":"20339","state":"Aguascalientes","municipality":"El Llano","setelement":"San Antonio de la Rosa"},{"postalCode":"20339","state":"Aguascalientes","municipality":"El Llano","setelement":"San Ramón"},{"postalCode":"20340","state":"Aguascalientes","municipality":"Aguascalientes","setelement":"Parque Industrial de Logística Automotriz (PILA)"},{"postalCode":"20340","state":"Aguascalientes","municipality":"Aguascalientes","setelement":"Arellano"},{"postalCode":"20340","state":"Aguascalientes","municipality":"Aguascalientes","setelement":"Buenavista de Peñuelas"},{"postalCode":"20340","state":"Aguascalientes","municipality":"Aguascalientes","setelement":"Peñuelas (El Cienegal)"},{"postalCode":"20340","state":"Aguascalientes","municipality":"Aguascalientes","setelement":"El Cedazo (Cedazo de San Antonio)"},{"postalCode":"20341","state":"Aguascalientes","municipality":"Aguascalientes","setelement":"El Salto de los Salado"},{"postalCode":"20342","state":"Aguascalientes","municipality":"Aguascalientes","setelement":"San Francisco"},{"postalCode":"20342","state":"Aguascalientes","municipality":"Aguascalientes","setelement":"San Gerardo"},{"postalCode":"20342","state":"Aguascalientes","municipality":"Aguascalientes","setelement":"Santa Gertrudis"},{"postalCode":"20343","state":"Aguascalientes","municipality":"Aguascalientes","setelement":"San José"},{"postalCode":"20344","state":"Aguascalientes","municipality":"Aguascalientes","setelement":"La Rinconada (La Escondida)"},{"postalCode":"20344","state":"Aguascalientes","municipality":"Aguascalientes","setelement":"Villa Licenciado Jesús Terán (Calvillito)"},{"postalCode":"20345","state":"Aguascalientes","municipality":"Aguascalientes","setelement":"Montoro (Mesa del Salto)"},{"postalCode":"20346","state":"Aguascalientes","municipality":"Aguascalientes","setelement":"Los Caños"},{"postalCode":"20347","state":"Aguascalientes","municipality":"Aguascalientes","setelement":"Dolores"},{"postalCode":"20347","state":"Aguascalientes","municipality":"Aguascalientes","setelement":"El Turicate"},{"postalCode":"20348","state":"Aguascalientes","municipality":"Aguascalientes","setelement":"San Antonio de Peñuelas"},{"postalCode":"20349","state":"Aguascalientes","municipality":"Aguascalientes","setelement":"Aguascalientes (Lic. Jesús Terán Peredo)"},{"postalCode":"20350","state":"Aguascalientes","municipality":"San Francisco de los Romo","setelement":"Los Capricornios (La Biznaga)"},{"postalCode":"20350","state":"Aguascalientes","municipality":"San Francisco de los Romo","setelement":"Loretito (Charco del Toro)"},{"postalCode":"20350","state":"Aguascalientes","municipality":"San Francisco de los Romo","setelement":"Macario J Gómez"},{"postalCode":"20350","state":"Aguascalientes","municipality":"San Francisco de los Romo","setelement":"Medio Kilo"},{"postalCode":"20355","state":"Aguascalientes","municipality":"San Francisco de los Romo","setelement":"La Concepción"},{"postalCode":"20355","state":"Aguascalientes","municipality":"San Francisco de los Romo","setelement":"Viñedos River"},{"postalCode":"20355","state":"Aguascalientes","municipality":"San Francisco de los Romo","setelement":"Parque Industrial San Francisco"},{"postalCode":"20355","state":"Aguascalientes","municipality":"San Francisco de los Romo","setelement":"Paseos de la Providencia"},{"postalCode":"20355","state":"Aguascalientes","municipality":"San Francisco de los Romo","setelement":"Urbi Villa del Vergel"},{"postalCode":"20356","state":"Aguascalientes","municipality":"San Francisco de los Romo","setelement":"Borrotes"},{"postalCode":"20356","state":"Aguascalientes","municipality":"San Francisco de los Romo","setelement":"Estación Chicalote"},{"postalCode":"20357","state":"Aguascalientes","municipality":"San Francisco de los Romo","setelement":"Arellano"},{"postalCode":"20357","state":"Aguascalientes","municipality":"San Francisco de los Romo","setelement":"Amapolas del Río"},{"postalCode":"20357","state":"Aguascalientes","municipality":"San Francisco de los Romo","setelement":"El Tepetate"},{"postalCode":"20357","state":"Aguascalientes","municipality":"San Francisco de los Romo","setelement":"Rancho Nuevo"},{"postalCode":"20358","state":"Aguascalientes","municipality":"San Francisco de los Romo","setelement":"Monteverde"},{"postalCode":"20358","state":"Aguascalientes","municipality":"San Francisco de los Romo","setelement":"Valle de Aguascalientes"},{"postalCode":"20358","state":"Aguascalientes","municipality":"San Francisco de los Romo","setelement":"Reserva Quetzales"},{"postalCode":"20358","state":"Aguascalientes","municipality":"San Francisco de los Romo","setelement":"Rancho Seco"},{"postalCode":"20358","state":"Aguascalientes","municipality":"San Francisco de los Romo","setelement":"Castelo San Francisco"},{"postalCode":"20358","state":"Aguascalientes","municipality":"San Francisco de los Romo","setelement":"Puertecito de la Virgen"},{"postalCode":"20358","state":"Aguascalientes","municipality":"San Francisco de los Romo","setelement":"Parque Industrial Valle de Aguascalientes"},{"postalCode":"20358","state":"Aguascalientes","municipality":"San Francisco de los Romo","setelement":"Ex-Viñedos Guadalupe"},{"postalCode":"20358","state":"Aguascalientes","municipality":"San Francisco de los Romo","setelement":"Villas de San Felipe"},{"postalCode":"20358","state":"Aguascalientes","municipality":"San Francisco de los Romo","setelement":"La Casita"},{"postalCode":"20358","state":"Aguascalientes","municipality":"San Francisco de los Romo","setelement":"La Ribera"},{"postalCode":"20358","state":"Aguascalientes","municipality":"San Francisco de los Romo","setelement":"Sendero de los Quetzales"},{"postalCode":"20363","state":"Aguascalientes","municipality":"Aguascalientes","setelement":"San Antonio de los Pedroza"},{"postalCode":"20363","state":"Aguascalientes","municipality":"Aguascalientes","setelement":"San José de la Ordeña"},{"postalCode":"20364","state":"Aguascalientes","municipality":"Aguascalientes","setelement":"San Nicolás de Arriba"},{"postalCode":"20364","state":"Aguascalientes","municipality":"Aguascalientes","setelement":"San Nicolás de en Medio"},{"postalCode":"20366","state":"Aguascalientes","municipality":"Aguascalientes","setelement":"La Herrada"},{"postalCode":"20366","state":"Aguascalientes","municipality":"Aguascalientes","setelement":"El Colorado (El Soyatal)"},{"postalCode":"20366","state":"Aguascalientes","municipality":"Aguascalientes","setelement":"El Conejal"},{"postalCode":"20367","state":"Aguascalientes","municipality":"Aguascalientes","setelement":"2 de Octubre"},{"postalCode":"20367","state":"Aguascalientes","municipality":"Aguascalientes","setelement":"Che Guevara"},{"postalCode":"20367","state":"Aguascalientes","municipality":"Aguascalientes","setelement":"Tanque el Trigo"},{"postalCode":"20367","state":"Aguascalientes","municipality":"Aguascalientes","setelement":"Norias de Ojocaliente"},{"postalCode":"20369","state":"Aguascalientes","municipality":"Aguascalientes","setelement":"El Malacate"},{"postalCode":"20370","state":"Aguascalientes","municipality":"Aguascalientes","setelement":"Puerto de Nieto"},{"postalCode":"20371","state":"Aguascalientes","municipality":"Aguascalientes","setelement":"Santa Cruz de la Presa (La Tlacuacha)"},{"postalCode":"20371","state":"Aguascalientes","municipality":"Aguascalientes","setelement":"Ciudad de los Niños"},{"postalCode":"20371","state":"Aguascalientes","municipality":"Aguascalientes","setelement":"La Cotorra"},{"postalCode":"20372","state":"Aguascalientes","municipality":"Aguascalientes","setelement":"Cabecita 3 Marías"},{"postalCode":"20372","state":"Aguascalientes","municipality":"Aguascalientes","setelement":"El Niágara"},{"postalCode":"20372","state":"Aguascalientes","municipality":"Aguascalientes","setelement":"Ex-Hacienda de Agostaderito"},{"postalCode":"20372","state":"Aguascalientes","municipality":"Aguascalientes","setelement":"Granjas Fátima"},{"postalCode":"20372","state":"Aguascalientes","municipality":"Aguascalientes","setelement":"Villa Campestre San José del Monte"},{"postalCode":"20373","state":"Aguascalientes","municipality":"Aguascalientes","setelement":"El Ocote"},{"postalCode":"20374","state":"Aguascalientes","municipality":"Aguascalientes","setelement":"La Huerta (La Cruz)"},{"postalCode":"20375","state":"Aguascalientes","municipality":"Aguascalientes","setelement":"El Tanque de los Jiménez"},{"postalCode":"20375","state":"Aguascalientes","municipality":"Aguascalientes","setelement":"Campestre Bosques de Las Lomas"},{"postalCode":"20376","state":"Aguascalientes","municipality":"Aguascalientes","setelement":"Centro de Arriba (El Taray)"},{"postalCode":"20377","state":"Aguascalientes","municipality":"Aguascalientes","setelement":"San Pedro Cieneguilla"},{"postalCode":"20378","state":"Aguascalientes","municipality":"Aguascalientes","setelement":"Cieneguilla (La Lumbrera)"},{"postalCode":"20378","state":"Aguascalientes","municipality":"Aguascalientes","setelement":"Cieneguilla"},{"postalCode":"20384","state":"Aguascalientes","municipality":"Aguascalientes","setelement":"El Hotelito"},{"postalCode":"20384","state":"Aguascalientes","municipality":"Aguascalientes","setelement":"Norias del Paso Hondo"},{"postalCode":"20384","state":"Aguascalientes","municipality":"Aguascalientes","setelement":"Norias del Paso Hondo"},{"postalCode":"20384","state":"Aguascalientes","municipality":"Aguascalientes","setelement":"Paso Hondo"},{"postalCode":"20386","state":"Aguascalientes","municipality":"Aguascalientes","setelement":"El Duraznillo"},{"postalCode":"20388","state":"Aguascalientes","municipality":"Aguascalientes","setelement":"Los Cuervos (Los Ojos de Agua)"},{"postalCode":"20388","state":"Aguascalientes","municipality":"Aguascalientes","setelement":"San Bartolo"},{"postalCode":"20389","state":"Aguascalientes","municipality":"Aguascalientes","setelement":"Los Durón"},{"postalCode":"20389","state":"Aguascalientes","municipality":"Aguascalientes","setelement":"Soledad de Abajo"},{"postalCode":"20389","state":"Aguascalientes","municipality":"Aguascalientes","setelement":"Matamoros"},{"postalCode":"20392","state":"Aguascalientes","municipality":"Aguascalientes","setelement":"Parque Industrial Gigante de los Arellano"},{"postalCode":"20392","state":"Aguascalientes","municipality":"Aguascalientes","setelement":"El Gigante (Arellano)"},{"postalCode":"20392","state":"Aguascalientes","municipality":"Aguascalientes","setelement":"Norias de Cedazo (Cedazo Norias de Montoro)"},{"postalCode":"20392","state":"Aguascalientes","municipality":"Aguascalientes","setelement":"Montoro"},{"postalCode":"20392","state":"Aguascalientes","municipality":"Aguascalientes","setelement":"Universidad Autónoma de Aguascalientes  Campus Sur"},{"postalCode":"20392","state":"Aguascalientes","municipality":"Aguascalientes","setelement":"Campestre el Potrerillo"},{"postalCode":"20393","state":"Aguascalientes","municipality":"Aguascalientes","setelement":"Parque Industrial FINSA Aguascalientes"},{"postalCode":"20394","state":"Aguascalientes","municipality":"Aguascalientes","setelement":"Lomas de Arellano"},{"postalCode":"20394","state":"Aguascalientes","municipality":"Aguascalientes","setelement":"Tanque de Guadalupe"},{"postalCode":"20394","state":"Aguascalientes","municipality":"Aguascalientes","setelement":"Cañada Grande de Cotorina"},{"postalCode":"20395","state":"Aguascalientes","municipality":"Aguascalientes","setelement":"Cotorina (Coyotes)"},{"postalCode":"20396","state":"Aguascalientes","municipality":"Aguascalientes","setelement":"El Refugio de Peñuelas"},{"postalCode":"20396","state":"Aguascalientes","municipality":"Aguascalientes","setelement":"Ex-Hacienda de Peñuelas"},{"postalCode":"20400","state":"Aguascalientes","municipality":"Rincón de Romos","setelement":"Rincón de Romos Centro"},{"postalCode":"20403","state":"Aguascalientes","municipality":"Rincón de Romos","setelement":"Rincón Real"},{"postalCode":"20403","state":"Aguascalientes","municipality":"Rincón de Romos","setelement":"Norte"},{"postalCode":"20403","state":"Aguascalientes","municipality":"Rincón de Romos","setelement":"Santa Elena"},{"postalCode":"20404","state":"Aguascalientes","municipality":"Rincón de Romos","setelement":"Valle del Real"},{"postalCode":"20404","state":"Aguascalientes","municipality":"Rincón de Romos","setelement":"José Luis Macias"},{"postalCode":"20404","state":"Aguascalientes","municipality":"Rincón de Romos","setelement":"Estancia de Chora"},{"postalCode":"20404","state":"Aguascalientes","municipality":"Rincón de Romos","setelement":"Embajadores"},{"postalCode":"20405","state":"Aguascalientes","municipality":"Rincón de Romos","setelement":"El Chaveño"},{"postalCode":"20405","state":"Aguascalientes","municipality":"Rincón de Romos","setelement":"De Guadalupe"},{"postalCode":"20405","state":"Aguascalientes","municipality":"Rincón de Romos","setelement":"La Paz"},{"postalCode":"20406","state":"Aguascalientes","municipality":"Rincón de Romos","setelement":"Rinconada de las Piedras"},{"postalCode":"20406","state":"Aguascalientes","municipality":"Rincón de Romos","setelement":"Rinconada Alameda"},{"postalCode":"20406","state":"Aguascalientes","municipality":"Rincón de Romos","setelement":"De Chora"},{"postalCode":"20406","state":"Aguascalientes","municipality":"Rincón de Romos","setelement":"Santa Cruz"},{"postalCode":"20406","state":"Aguascalientes","municipality":"Rincón de Romos","setelement":"Lázaro Cárdenas"},{"postalCode":"20406","state":"Aguascalientes","municipality":"Rincón de Romos","setelement":"Fraternidad"},{"postalCode":"20406","state":"Aguascalientes","municipality":"Rincón de Romos","setelement":"Cerro del Gato"},{"postalCode":"20410","state":"Aguascalientes","municipality":"Rincón de Romos","setelement":"Independencia"},{"postalCode":"20410","state":"Aguascalientes","municipality":"Rincón de Romos","setelement":"Magisterial"},{"postalCode":"20410","state":"Aguascalientes","municipality":"Rincón de Romos","setelement":"Magisterial II"},{"postalCode":"20410","state":"Aguascalientes","municipality":"Rincón de Romos","setelement":"Santa Anita"},{"postalCode":"20410","state":"Aguascalientes","municipality":"Rincón de Romos","setelement":"El Potrero"},{"postalCode":"20410","state":"Aguascalientes","municipality":"Rincón de Romos","setelement":"La Mezquitera"},{"postalCode":"20414","state":"Aguascalientes","municipality":"Rincón de Romos","setelement":"Villas de Jesús"},{"postalCode":"20415","state":"Aguascalientes","municipality":"Rincón de Romos","setelement":"Fundadores"},{"postalCode":"20415","state":"Aguascalientes","municipality":"Rincón de Romos","setelement":"San José"},{"postalCode":"20416","state":"Aguascalientes","municipality":"Rincón de Romos","setelement":"Presidentes de México"},{"postalCode":"20416","state":"Aguascalientes","municipality":"Rincón de Romos","setelement":"Solidaridad"},{"postalCode":"20417","state":"Aguascalientes","municipality":"Rincón de Romos","setelement":"Miguel Hidalgo"},{"postalCode":"20417","state":"Aguascalientes","municipality":"Rincón de Romos","setelement":"Popular"},{"postalCode":"20420","state":"Aguascalientes","municipality":"Rincón de Romos","setelement":"Pablo Escaleras"},{"postalCode":"20420","state":"Aguascalientes","municipality":"Rincón de Romos","setelement":"El Saucillo"},{"postalCode":"20420","state":"Aguascalientes","municipality":"Rincón de Romos","setelement":"Presa de San Elías (José Muñoz)"},{"postalCode":"20420","state":"Aguascalientes","municipality":"Rincón de Romos","setelement":"El Bajío"},{"postalCode":"20420","state":"Aguascalientes","municipality":"Rincón de Romos","setelement":"Mar Negro"},{"postalCode":"20420","state":"Aguascalientes","municipality":"Rincón de Romos","setelement":"Estación Rincón de Romos"},{"postalCode":"20420","state":"Aguascalientes","municipality":"Rincón de Romos","setelement":"Potrero El Tarasco"},{"postalCode":"20423","state":"Aguascalientes","municipality":"Rincón de Romos","setelement":"San Judas Tadeo (Santa Fe)"},{"postalCode":"20423","state":"Aguascalientes","municipality":"Rincón de Romos","setelement":"Candelaria"},{"postalCode":"20424","state":"Aguascalientes","municipality":"Rincón de Romos","setelement":"Puerta del Muerto (El 15)"},{"postalCode":"20424","state":"Aguascalientes","municipality":"Rincón de Romos","setelement":"California"},{"postalCode":"20424","state":"Aguascalientes","municipality":"Rincón de Romos","setelement":"Bajío del Yerbaníz"},{"postalCode":"20424","state":"Aguascalientes","municipality":"Rincón de Romos","setelement":"Tanque Blanco"},{"postalCode":"20425","state":"Aguascalientes","municipality":"Rincón de Romos","setelement":"San Jacinto"},{"postalCode":"20426","state":"Aguascalientes","municipality":"Rincón de Romos","setelement":"San Juan de la Natura"},{"postalCode":"20427","state":"Aguascalientes","municipality":"Rincón de Romos","setelement":"El Valle de las Delicias"},{"postalCode":"20427","state":"Aguascalientes","municipality":"Rincón de Romos","setelement":"16 de Septiembre"},{"postalCode":"20427","state":"Aguascalientes","municipality":"Rincón de Romos","setelement":"Los Morales"},{"postalCode":"20427","state":"Aguascalientes","municipality":"Rincón de Romos","setelement":"San Isidro el Labrador"},{"postalCode":"20430","state":"Aguascalientes","municipality":"Rincón de Romos","setelement":"La Misión"},{"postalCode":"20434","state":"Aguascalientes","municipality":"Rincón de Romos","setelement":"18 de Marzo"},{"postalCode":"20435","state":"Aguascalientes","municipality":"Rincón de Romos","setelement":"El Salitrillo"},{"postalCode":"20435","state":"Aguascalientes","municipality":"Rincón de Romos","setelement":"El Barzón"},{"postalCode":"20435","state":"Aguascalientes","municipality":"Rincón de Romos","setelement":"Las Norias"},{"postalCode":"20435","state":"Aguascalientes","municipality":"Rincón de Romos","setelement":"Lupita"},{"postalCode":"20436","state":"Aguascalientes","municipality":"Rincón de Romos","setelement":"El Milagro"},{"postalCode":"20437","state":"Aguascalientes","municipality":"Rincón de Romos","setelement":"Constitución"},{"postalCode":"20437","state":"Aguascalientes","municipality":"Rincón de Romos","setelement":"Héctor Hugo Olivares"},{"postalCode":"20437","state":"Aguascalientes","municipality":"Rincón de Romos","setelement":"Lindavista"},{"postalCode":"20437","state":"Aguascalientes","municipality":"Rincón de Romos","setelement":"Canal Grande"},{"postalCode":"20437","state":"Aguascalientes","municipality":"Rincón de Romos","setelement":"Pabellón de Hidalgo Centro"},{"postalCode":"20437","state":"Aguascalientes","municipality":"Rincón de Romos","setelement":"Estancia de Mosqueira"},{"postalCode":"20437","state":"Aguascalientes","municipality":"Rincón de Romos","setelement":"El Rosario"},{"postalCode":"20440","state":"Aguascalientes","municipality":"Rincón de Romos","setelement":"Morelos"},{"postalCode":"20444","state":"Aguascalientes","municipality":"Rincón de Romos","setelement":"Las Camas"},{"postalCode":"20444","state":"Aguascalientes","municipality":"Rincón de Romos","setelement":"Potrerillos"},{"postalCode":"20444","state":"Aguascalientes","municipality":"Rincón de Romos","setelement":"Túnel de Potrerillo"},{"postalCode":"20450","state":"Aguascalientes","municipality":"Rincón de Romos","setelement":"El Panal"},{"postalCode":"20450","state":"Aguascalientes","municipality":"Rincón de Romos","setelement":"Fresnillo"},{"postalCode":"20450","state":"Aguascalientes","municipality":"Rincón de Romos","setelement":"La Boquilla"},{"postalCode":"20450","state":"Aguascalientes","municipality":"Rincón de Romos","setelement":"Peña Blanca"},{"postalCode":"20454","state":"Aguascalientes","municipality":"Rincón de Romos","setelement":"El Ajiladero"},{"postalCode":"20460","state":"Aguascalientes","municipality":"Cosío","setelement":"Cosío Centro"},{"postalCode":"20462","state":"Aguascalientes","municipality":"Cosío","setelement":"Luis Donaldo Colosio"},{"postalCode":"20466","state":"Aguascalientes","municipality":"Cosío","setelement":"Villas del Potrerito"},{"postalCode":"20467","state":"Aguascalientes","municipality":"Cosío","setelement":"Popular"},{"postalCode":"20468","state":"Aguascalientes","municipality":"Cosío","setelement":"Santa Cruz"},{"postalCode":"20469","state":"Aguascalientes","municipality":"Cosío","setelement":"Mexiquito"},{"postalCode":"20469","state":"Aguascalientes","municipality":"Cosío","setelement":"Coplamar"},{"postalCode":"20469","state":"Aguascalientes","municipality":"Cosío","setelement":"Vista Hermosa"},{"postalCode":"20470","state":"Aguascalientes","municipality":"Cosío","setelement":"Soledad de Abajo [Estación de Adames]"},{"postalCode":"20470","state":"Aguascalientes","municipality":"Cosío","setelement":"Zacatequillas"},{"postalCode":"20470","state":"Aguascalientes","municipality":"Cosío","setelement":"Soledad de Arriba"},{"postalCode":"20472","state":"Aguascalientes","municipality":"Cosío","setelement":"El Durazno"},{"postalCode":"20472","state":"Aguascalientes","municipality":"Cosío","setelement":"La Punta"},{"postalCode":"20472","state":"Aguascalientes","municipality":"Cosío","setelement":"La Esperanza (El Salerito)"},{"postalCode":"20472","state":"Aguascalientes","municipality":"Cosío","setelement":"El Durazno"},{"postalCode":"20472","state":"Aguascalientes","municipality":"Cosío","setelement":"Los Nava"},{"postalCode":"20476","state":"Aguascalientes","municipality":"Cosío","setelement":"El Salero"},{"postalCode":"20478","state":"Aguascalientes","municipality":"Cosío","setelement":"El Refugio de Agua Zarca"},{"postalCode":"20478","state":"Aguascalientes","municipality":"Cosío","setelement":"El Refugio de Providencia (Providencia)"},{"postalCode":"20478","state":"Aguascalientes","municipality":"Cosío","setelement":"Guadalupito"},{"postalCode":"20478","state":"Aguascalientes","municipality":"Cosío","setelement":"Santa María de la Paz"},{"postalCode":"20500","state":"Aguascalientes","municipality":"San José de Gracia","setelement":"San José de Gracia"},{"postalCode":"20500","state":"Aguascalientes","municipality":"San José de Gracia","setelement":"El Jocoqui"},{"postalCode":"20502","state":"Aguascalientes","municipality":"San José de Gracia","setelement":"Cieneguita"},{"postalCode":"20503","state":"Aguascalientes","municipality":"San José de Gracia","setelement":"El Toril"},{"postalCode":"20504","state":"Aguascalientes","municipality":"San José de Gracia","setelement":"Santa Elena de la Cruz (Capadero)"},{"postalCode":"20504","state":"Aguascalientes","municipality":"San José de Gracia","setelement":"Las Amarillas"},{"postalCode":"20508","state":"Aguascalientes","municipality":"San José de Gracia","setelement":"Túnel de Potrerillo"},{"postalCode":"20508","state":"Aguascalientes","municipality":"San José de Gracia","setelement":"Tortugas"},{"postalCode":"20508","state":"Aguascalientes","municipality":"San José de Gracia","setelement":"Potrerillo"},{"postalCode":"20510","state":"Aguascalientes","municipality":"San José de Gracia","setelement":"Ciénega de Alcorcha"},{"postalCode":"20516","state":"Aguascalientes","municipality":"San José de Gracia","setelement":"Boca del Túnel de Potrerillo"},{"postalCode":"20520","state":"Aguascalientes","municipality":"San José de Gracia","setelement":"La Congoja"},{"postalCode":"20534","state":"Aguascalientes","municipality":"San José de Gracia","setelement":"El Cepo"},{"postalCode":"20538","state":"Aguascalientes","municipality":"San José de Gracia","setelement":"Antrialgo"},{"postalCode":"20538","state":"Aguascalientes","municipality":"San José de Gracia","setelement":"Sierra Hermosa (Los Alamitos)"},{"postalCode":"20540","state":"Aguascalientes","municipality":"San José de Gracia","setelement":"Paredes"},{"postalCode":"20545","state":"Aguascalientes","municipality":"San José de Gracia","setelement":"San Antonio de los Ríos"},{"postalCode":"20563","state":"Aguascalientes","municipality":"San José de Gracia","setelement":"Guajolotes (Huijolotes)"},{"postalCode":"20563","state":"Aguascalientes","municipality":"San José de Gracia","setelement":"Santa Rosa de Lima"},{"postalCode":"20564","state":"Aguascalientes","municipality":"San José de Gracia","setelement":"Rancho Viejo"},{"postalCode":"20567","state":"Aguascalientes","municipality":"San José de Gracia","setelement":"Potrero de los López"},{"postalCode":"20567","state":"Aguascalientes","municipality":"San José de Gracia","setelement":"Paso del Sauz"},{"postalCode":"20570","state":"Aguascalientes","municipality":"San José de Gracia","setelement":"El Tecongo"},{"postalCode":"20574","state":"Aguascalientes","municipality":"San José de Gracia","setelement":"Estancia de San Marcos"},{"postalCode":"20575","state":"Aguascalientes","municipality":"San José de Gracia","setelement":"El Taray"},{"postalCode":"20576","state":"Aguascalientes","municipality":"San José de Gracia","setelement":"Club Náutico San José"},{"postalCode":"20600","state":"Aguascalientes","municipality":"Tepezalá","setelement":"Tepezalá Centro"},{"postalCode":"20602","state":"Aguascalientes","municipality":"Tepezalá","setelement":"Cholula"},{"postalCode":"20603","state":"Aguascalientes","municipality":"Tepezalá","setelement":"San Rafael"},{"postalCode":"20604","state":"Aguascalientes","municipality":"Tepezalá","setelement":"Felipe González González"},{"postalCode":"20607","state":"Aguascalientes","municipality":"Tepezalá","setelement":"Del Socorro"},{"postalCode":"20607","state":"Aguascalientes","municipality":"Tepezalá","setelement":"Luis Ortega Douglas"},{"postalCode":"20607","state":"Aguascalientes","municipality":"Tepezalá","setelement":"Los Arcos"},{"postalCode":"20610","state":"Aguascalientes","municipality":"Tepezalá","setelement":"El Chayote"},{"postalCode":"20610","state":"Aguascalientes","municipality":"Tepezalá","setelement":"El Barranco"},{"postalCode":"20614","state":"Aguascalientes","municipality":"Tepezalá","setelement":"Los Alamitos"},{"postalCode":"20614","state":"Aguascalientes","municipality":"Tepezalá","setelement":"Luz de San Antonio (La Luz)"},{"postalCode":"20614","state":"Aguascalientes","municipality":"Tepezalá","setelement":"Ampliación los Hornos (el Lagunazo)"},{"postalCode":"20615","state":"Aguascalientes","municipality":"Tepezalá","setelement":"El Progreso (La Tira)"},{"postalCode":"20615","state":"Aguascalientes","municipality":"Tepezalá","setelement":"El Porvenir"},{"postalCode":"20615","state":"Aguascalientes","municipality":"Tepezalá","setelement":"El Carmen"},{"postalCode":"20616","state":"Aguascalientes","municipality":"Tepezalá","setelement":"San Antonio"},{"postalCode":"20620","state":"Aguascalientes","municipality":"Tepezalá","setelement":"Mesillas"},{"postalCode":"20622","state":"Aguascalientes","municipality":"Tepezalá","setelement":"Ojo de Agua de los Montes"},{"postalCode":"20634","state":"Aguascalientes","municipality":"Tepezalá","setelement":"La Victoria"},{"postalCode":"20635","state":"Aguascalientes","municipality":"Tepezalá","setelement":"El Águila"},{"postalCode":"20637","state":"Aguascalientes","municipality":"Tepezalá","setelement":"Los Tres Reyes"},{"postalCode":"20637","state":"Aguascalientes","municipality":"Tepezalá","setelement":"El Gigante"},{"postalCode":"20650","state":"Aguascalientes","municipality":"Tepezalá","setelement":"Puerto de la Concepción"},{"postalCode":"20656","state":"Aguascalientes","municipality":"Tepezalá","setelement":"Carboneras"},{"postalCode":"20656","state":"Aguascalientes","municipality":"Tepezalá","setelement":"El Refugio"},{"postalCode":"20657","state":"Aguascalientes","municipality":"Tepezalá","setelement":"Arroyo Hondo"},{"postalCode":"20658","state":"Aguascalientes","municipality":"Tepezalá","setelement":"Berrendos"},{"postalCode":"20658","state":"Aguascalientes","municipality":"Tepezalá","setelement":"El Tepozán"},{"postalCode":"20659","state":"Aguascalientes","municipality":"Tepezalá","setelement":"Caldera"},{"postalCode":"20663","state":"Aguascalientes","municipality":"Pabellón de Arteaga","setelement":"El Refugio"},{"postalCode":"20663","state":"Aguascalientes","municipality":"Pabellón de Arteaga","setelement":"El Gigante"},{"postalCode":"20665","state":"Aguascalientes","municipality":"Pabellón de Arteaga","setelement":"Emiliano Zapata"},{"postalCode":"20665","state":"Aguascalientes","municipality":"Pabellón de Arteaga","setelement":"El Pedernal Segundo"},{"postalCode":"20665","state":"Aguascalientes","municipality":"Pabellón de Arteaga","setelement":"San Agustín de los Puentes"},{"postalCode":"20665","state":"Aguascalientes","municipality":"Pabellón de Arteaga","setelement":"El Pilar"},{"postalCode":"20665","state":"Aguascalientes","municipality":"Pabellón de Arteaga","setelement":"Los Contreras"},{"postalCode":"20666","state":"Aguascalientes","municipality":"Pabellón de Arteaga","setelement":"El Garabato"},{"postalCode":"20666","state":"Aguascalientes","municipality":"Pabellón de Arteaga","setelement":"Campestre San Carlos"},{"postalCode":"20667","state":"Aguascalientes","municipality":"Pabellón de Arteaga","setelement":"Santiago"},{"postalCode":"20667","state":"Aguascalientes","municipality":"Pabellón de Arteaga","setelement":"El Canal"},{"postalCode":"20668","state":"Aguascalientes","municipality":"Pabellón de Arteaga","setelement":"El Pedregal"},{"postalCode":"20668","state":"Aguascalientes","municipality":"Pabellón de Arteaga","setelement":"El Milagro"},{"postalCode":"20668","state":"Aguascalientes","municipality":"Pabellón de Arteaga","setelement":"Puerta del Milagro"},{"postalCode":"20668","state":"Aguascalientes","municipality":"Pabellón de Arteaga","setelement":"San Luis de Letras"},{"postalCode":"20668","state":"Aguascalientes","municipality":"Pabellón de Arteaga","setelement":"Miguel Alemán [Secadora]"},{"postalCode":"20668","state":"Aguascalientes","municipality":"Pabellón de Arteaga","setelement":"Ampliación Ejido Garabato"},{"postalCode":"20670","state":"Aguascalientes","municipality":"Pabellón de Arteaga","setelement":"Pabellón de Arteaga Centro"},{"postalCode":"20673","state":"Aguascalientes","municipality":"Pabellón de Arteaga","setelement":"FOVISSSTE"},{"postalCode":"20673","state":"Aguascalientes","municipality":"Pabellón de Arteaga","setelement":"Jardines de Pabellón"},{"postalCode":"20673","state":"Aguascalientes","municipality":"Pabellón de Arteaga","setelement":"Subdivisión Haciendas de Pabellón"},{"postalCode":"20673","state":"Aguascalientes","municipality":"Pabellón de Arteaga","setelement":"Barrio Industrial"},{"postalCode":"20674","state":"Aguascalientes","municipality":"Pabellón de Arteaga","setelement":"Río San Pedro"},{"postalCode":"20674","state":"Aguascalientes","municipality":"Pabellón de Arteaga","setelement":"Francisco Villa"},{"postalCode":"20674","state":"Aguascalientes","municipality":"Pabellón de Arteaga","setelement":"Villas de Pabellón"},{"postalCode":"20674","state":"Aguascalientes","municipality":"Pabellón de Arteaga","setelement":"Trojes de San Pedro"},{"postalCode":"20675","state":"Aguascalientes","municipality":"Pabellón de Arteaga","setelement":"Carboneras"},{"postalCode":"20675","state":"Aguascalientes","municipality":"Pabellón de Arteaga","setelement":"Palo Alto"},{"postalCode":"20676","state":"Aguascalientes","municipality":"Pabellón de Arteaga","setelement":"5 de Mayo"},{"postalCode":"20676","state":"Aguascalientes","municipality":"Pabellón de Arteaga","setelement":"Cosmos"},{"postalCode":"20676","state":"Aguascalientes","municipality":"Pabellón de Arteaga","setelement":"Popular"},{"postalCode":"20677","state":"Aguascalientes","municipality":"Pabellón de Arteaga","setelement":"Plutarco Elías Calles"},{"postalCode":"20677","state":"Aguascalientes","municipality":"Pabellón de Arteaga","setelement":"Progreso Sur"},{"postalCode":"20678","state":"Aguascalientes","municipality":"Pabellón de Arteaga","setelement":"Vergel del Valle"},{"postalCode":"20678","state":"Aguascalientes","municipality":"Pabellón de Arteaga","setelement":"Valle del Vivero"},{"postalCode":"20678","state":"Aguascalientes","municipality":"Pabellón de Arteaga","setelement":"Subdivisión Villa de Guadalupe"},{"postalCode":"20678","state":"Aguascalientes","municipality":"Pabellón de Arteaga","setelement":"Valle del Vivero II"},{"postalCode":"20678","state":"Aguascalientes","municipality":"Pabellón de Arteaga","setelement":"Bosques de Pabellón"},{"postalCode":"20678","state":"Aguascalientes","municipality":"Pabellón de Arteaga","setelement":"Progreso Norte"},{"postalCode":"20680","state":"Aguascalientes","municipality":"Pabellón de Arteaga","setelement":"Las Ánimas"},{"postalCode":"20680","state":"Aguascalientes","municipality":"Pabellón de Arteaga","setelement":"Santa Isabel"},{"postalCode":"20680","state":"Aguascalientes","municipality":"Pabellón de Arteaga","setelement":"Las Ánimas"},{"postalCode":"20683","state":"Aguascalientes","municipality":"Pabellón de Arteaga","setelement":"El Mezquite (Ojo de Agua del Mezquite)"},{"postalCode":"20683","state":"Aguascalientes","municipality":"Pabellón de Arteaga","setelement":"El Mezquite"},{"postalCode":"20683","state":"Aguascalientes","municipality":"Pabellón de Arteaga","setelement":"El Mezquite"},{"postalCode":"20683","state":"Aguascalientes","municipality":"Pabellón de Arteaga","setelement":"Los Lira"},{"postalCode":"20684","state":"Aguascalientes","municipality":"Pabellón de Arteaga","setelement":"Ojo Zarco"},{"postalCode":"20684","state":"Aguascalientes","municipality":"Pabellón de Arteaga","setelement":"Ojo Zarco"},{"postalCode":"20684","state":"Aguascalientes","municipality":"Pabellón de Arteaga","setelement":"Ojo Zarco (La Loma)"},{"postalCode":"20684","state":"Aguascalientes","municipality":"Pabellón de Arteaga","setelement":"El Rayo"},{"postalCode":"20686","state":"Aguascalientes","municipality":"Pabellón de Arteaga","setelement":"Gámez Orozco (Puerta de Carboneras)"},{"postalCode":"20686","state":"Aguascalientes","municipality":"Pabellón de Arteaga","setelement":"San Pedro"},{"postalCode":"20687","state":"Aguascalientes","municipality":"Pabellón de Arteaga","setelement":"El Cerrito"},{"postalCode":"20700","state":"Aguascalientes","municipality":"Asientos","setelement":"Guadalupe"},{"postalCode":"20700","state":"Aguascalientes","municipality":"Asientos","setelement":"Loma Bonita"},{"postalCode":"20700","state":"Aguascalientes","municipality":"Asientos","setelement":"Agua Nueva"},{"postalCode":"20700","state":"Aguascalientes","municipality":"Asientos","setelement":"Álamos"},{"postalCode":"20700","state":"Aguascalientes","municipality":"Asientos","setelement":"La Sierra"},{"postalCode":"20700","state":"Aguascalientes","municipality":"Asientos","setelement":"Arboledas"},{"postalCode":"20700","state":"Aguascalientes","municipality":"Asientos","setelement":"El Tule"},{"postalCode":"20700","state":"Aguascalientes","municipality":"Asientos","setelement":"Villa Juárez Centro"},{"postalCode":"20700","state":"Aguascalientes","municipality":"Asientos","setelement":"La Loma"},{"postalCode":"20700","state":"Aguascalientes","municipality":"Asientos","setelement":"El Rascón"},{"postalCode":"20704","state":"Aguascalientes","municipality":"Asientos","setelement":"Viudas de Poniente"},{"postalCode":"20705","state":"Aguascalientes","municipality":"Asientos","setelement":"Charco Azul"},{"postalCode":"20706","state":"Aguascalientes","municipality":"Asientos","setelement":"El Llavero"},{"postalCode":"20708","state":"Aguascalientes","municipality":"Asientos","setelement":"Amarillas de Esparza"},{"postalCode":"20709","state":"Aguascalientes","municipality":"Asientos","setelement":"Jilotepec"},{"postalCode":"20709","state":"Aguascalientes","municipality":"Asientos","setelement":"La Dichosa"},{"postalCode":"20709","state":"Aguascalientes","municipality":"Asientos","setelement":"San Vicente"},{"postalCode":"20710","state":"Aguascalientes","municipality":"Asientos","setelement":"Asientos Centro"},{"postalCode":"20710","state":"Aguascalientes","municipality":"Asientos","setelement":"Santa Cruz"},{"postalCode":"20712","state":"Aguascalientes","municipality":"Asientos","setelement":"De Peñitas"},{"postalCode":"20712","state":"Aguascalientes","municipality":"Asientos","setelement":"Real Minero"},{"postalCode":"20713","state":"Aguascalientes","municipality":"Asientos","setelement":"Los Tepetates"},{"postalCode":"20713","state":"Aguascalientes","municipality":"Asientos","setelement":"Del CECYTE"},{"postalCode":"20714","state":"Aguascalientes","municipality":"Asientos","setelement":"De Guadalupe"},{"postalCode":"20715","state":"Aguascalientes","municipality":"Asientos","setelement":"INFONAVIT"},{"postalCode":"20715","state":"Aguascalientes","municipality":"Asientos","setelement":"Del Tepozán"},{"postalCode":"20715","state":"Aguascalientes","municipality":"Asientos","setelement":"Juventud"},{"postalCode":"20720","state":"Aguascalientes","municipality":"Asientos","setelement":"Guadalupe de Atlas"},{"postalCode":"20720","state":"Aguascalientes","municipality":"Asientos","setelement":"Bimbaletes Aguascalientes (El Álamo)"},{"postalCode":"20720","state":"Aguascalientes","municipality":"Asientos","setelement":"Bimbaletes Atlas (Tanque de la Vieja)"},{"postalCode":"20720","state":"Aguascalientes","municipality":"Asientos","setelement":"Crisóstomos"},{"postalCode":"20720","state":"Aguascalientes","municipality":"Asientos","setelement":"Estación San Gil"},{"postalCode":"20720","state":"Aguascalientes","municipality":"Asientos","setelement":"La Divina Providencia"},{"postalCode":"20720","state":"Aguascalientes","municipality":"Asientos","setelement":"Alvarado"},{"postalCode":"20720","state":"Aguascalientes","municipality":"Asientos","setelement":"Licenciado Adolfo López Mateos"},{"postalCode":"20720","state":"Aguascalientes","municipality":"Asientos","setelement":"Sociedad los Posada"},{"postalCode":"20720","state":"Aguascalientes","municipality":"Asientos","setelement":"Sector de Producción Número 3"},{"postalCode":"20720","state":"Aguascalientes","municipality":"Asientos","setelement":"Sector de Producción Número 2"},{"postalCode":"20721","state":"Aguascalientes","municipality":"Asientos","setelement":"Plutarco Elías Calles"},{"postalCode":"20722","state":"Aguascalientes","municipality":"Asientos","setelement":"Ciénega Grande"},{"postalCode":"20723","state":"Aguascalientes","municipality":"Asientos","setelement":"Noria del Borrego (Norias)"},{"postalCode":"20723","state":"Aguascalientes","municipality":"Asientos","setelement":"Jarillas"},{"postalCode":"20724","state":"Aguascalientes","municipality":"Asientos","setelement":"Gómez Portugal"},{"postalCode":"20727","state":"Aguascalientes","municipality":"Asientos","setelement":"Pino Suárez (Rancho Viejo)"},{"postalCode":"20729","state":"Aguascalientes","municipality":"Asientos","setelement":"Clavellinas"},{"postalCode":"20730","state":"Aguascalientes","municipality":"Asientos","setelement":"Molinos"},{"postalCode":"20734","state":"Aguascalientes","municipality":"Asientos","setelement":"Los Encinos"},{"postalCode":"20734","state":"Aguascalientes","municipality":"Asientos","setelement":"Lázaro Cárdenas"},{"postalCode":"20736","state":"Aguascalientes","municipality":"Asientos","setelement":"La Gloria"},{"postalCode":"20737","state":"Aguascalientes","municipality":"Asientos","setelement":"Santuario del Tepozán"},{"postalCode":"20739","state":"Aguascalientes","municipality":"Asientos","setelement":"La Soledad"},{"postalCode":"20739","state":"Aguascalientes","municipality":"Asientos","setelement":"San Pedro"},{"postalCode":"20740","state":"Aguascalientes","municipality":"Asientos","setelement":"El Polvo"},{"postalCode":"20741","state":"Aguascalientes","municipality":"Asientos","setelement":"Caldera"},{"postalCode":"20742","state":"Aguascalientes","municipality":"Asientos","setelement":"Licenciado Adolfo López Mateos"},{"postalCode":"20742","state":"Aguascalientes","municipality":"Asientos","setelement":"Charco Prieto (El Palomar)"},{"postalCode":"20742","state":"Aguascalientes","municipality":"Asientos","setelement":"El Fénix"},{"postalCode":"20744","state":"Aguascalientes","municipality":"Asientos","setelement":"San Antonio de los Martínez"},{"postalCode":"20746","state":"Aguascalientes","municipality":"Asientos","setelement":"Gorriones"},{"postalCode":"20748","state":"Aguascalientes","municipality":"Asientos","setelement":"Ojo de Agua de Rosales"},{"postalCode":"20749","state":"Aguascalientes","municipality":"Asientos","setelement":"Tepetatillo"},{"postalCode":"20750","state":"Aguascalientes","municipality":"Asientos","setelement":"San José del Río"},{"postalCode":"20768","state":"Aguascalientes","municipality":"Asientos","setelement":"El Águila [Rancho]"},{"postalCode":"20770","state":"Aguascalientes","municipality":"Asientos","setelement":"Emancipación (Borunda)"},{"postalCode":"20773","state":"Aguascalientes","municipality":"Asientos","setelement":"Tanque Viejo"},{"postalCode":"20773","state":"Aguascalientes","municipality":"Asientos","setelement":"Las Adjuntas"},{"postalCode":"20773","state":"Aguascalientes","municipality":"Asientos","setelement":"La Tinajuela"},{"postalCode":"20780","state":"Aguascalientes","municipality":"Asientos","setelement":"San Rafael de Ocampo"},{"postalCode":"20780","state":"Aguascalientes","municipality":"Asientos","setelement":"San José del Tulillo"},{"postalCode":"20782","state":"Aguascalientes","municipality":"Asientos","setelement":"San Isidro"},{"postalCode":"20785","state":"Aguascalientes","municipality":"Asientos","setelement":"El Chonguillo"},{"postalCode":"20790","state":"Aguascalientes","municipality":"Asientos","setelement":"Francisco Villa"},{"postalCode":"20795","state":"Aguascalientes","municipality":"Asientos","setelement":"La Esperanza"},{"postalCode":"20795","state":"Aguascalientes","municipality":"Asientos","setelement":"Ojo de Agua de los Sauces"},{"postalCode":"20795","state":"Aguascalientes","municipality":"Asientos","setelement":"Pilotos"},{"postalCode":"20796","state":"Aguascalientes","municipality":"Asientos","setelement":"Tanque de Guadalupe"},{"postalCode":"20796","state":"Aguascalientes","municipality":"Asientos","setelement":"Las Joyas"},{"postalCode":"20796","state":"Aguascalientes","municipality":"Asientos","setelement":"El Epazote"},{"postalCode":"20796","state":"Aguascalientes","municipality":"Asientos","setelement":"Las Fraguas"},{"postalCode":"20796","state":"Aguascalientes","municipality":"Asientos","setelement":"El Salitre"},{"postalCode":"20796","state":"Aguascalientes","municipality":"Asientos","setelement":"El Bajío de los Campos"},{"postalCode":"20799","state":"Aguascalientes","municipality":"Asientos","setelement":"Las Negritas"},{"postalCode":"20800","state":"Aguascalientes","municipality":"Calvillo","setelement":"Calvillo Centro"},{"postalCode":"20802","state":"Aguascalientes","municipality":"Calvillo","setelement":"Unión Antorchista"},{"postalCode":"20802","state":"Aguascalientes","municipality":"Calvillo","setelement":"El Mirador"},{"postalCode":"20802","state":"Aguascalientes","municipality":"Calvillo","setelement":"Independencia"},{"postalCode":"20802","state":"Aguascalientes","municipality":"Calvillo","setelement":"López Mateos"},{"postalCode":"20802","state":"Aguascalientes","municipality":"Calvillo","setelement":"Las Paseras"},{"postalCode":"20802","state":"Aguascalientes","municipality":"Calvillo","setelement":"Vista Hermosa"},{"postalCode":"20802","state":"Aguascalientes","municipality":"Calvillo","setelement":"Campo Militar 14 CINE"},{"postalCode":"20802","state":"Aguascalientes","municipality":"Calvillo","setelement":"El Guayabo"},{"postalCode":"20802","state":"Aguascalientes","municipality":"Calvillo","setelement":"Sección Benito Juárez"},{"postalCode":"20802","state":"Aguascalientes","municipality":"Calvillo","setelement":"Sección Cerritos"},{"postalCode":"20802","state":"Aguascalientes","municipality":"Calvillo","setelement":"Sección Loma de Fundadores"},{"postalCode":"20802","state":"Aguascalientes","municipality":"Calvillo","setelement":"Vista Hermosa 2a. Sección"},{"postalCode":"20803","state":"Aguascalientes","municipality":"Calvillo","setelement":"Benito Juárez"},{"postalCode":"20803","state":"Aguascalientes","municipality":"Calvillo","setelement":"Lomas de Huejúcar"},{"postalCode":"20803","state":"Aguascalientes","municipality":"Calvillo","setelement":"San Nicolás"},{"postalCode":"20803","state":"Aguascalientes","municipality":"Calvillo","setelement":"El Llano (El Llano de San Rafael)"},{"postalCode":"20803","state":"Aguascalientes","municipality":"Calvillo","setelement":"San Rafael"},{"postalCode":"20803","state":"Aguascalientes","municipality":"Calvillo","setelement":"Rincón de Baltazares"},{"postalCode":"20803","state":"Aguascalientes","municipality":"Calvillo","setelement":"José Landeros"},{"postalCode":"20804","state":"Aguascalientes","municipality":"Calvillo","setelement":"Ejidal"},{"postalCode":"20804","state":"Aguascalientes","municipality":"Calvillo","setelement":"Liberal"},{"postalCode":"20804","state":"Aguascalientes","municipality":"Calvillo","setelement":"Rincón de Baltazares"},{"postalCode":"20804","state":"Aguascalientes","municipality":"Calvillo","setelement":"Valle de Santiago"},{"postalCode":"20804","state":"Aguascalientes","municipality":"Calvillo","setelement":"Arroyo de Los Caballos"},{"postalCode":"20804","state":"Aguascalientes","municipality":"Calvillo","setelement":"Del Carmen"},{"postalCode":"20804","state":"Aguascalientes","municipality":"Calvillo","setelement":"Azteca"},{"postalCode":"20804","state":"Aguascalientes","municipality":"Calvillo","setelement":"Morelos"},{"postalCode":"20805","state":"Aguascalientes","municipality":"Calvillo","setelement":"Cerrito Alto"},{"postalCode":"20805","state":"Aguascalientes","municipality":"Calvillo","setelement":"Emiliano Zapata"},{"postalCode":"20805","state":"Aguascalientes","municipality":"Calvillo","setelement":"Las Flores"},{"postalCode":"20805","state":"Aguascalientes","municipality":"Calvillo","setelement":"Martínez"},{"postalCode":"20805","state":"Aguascalientes","municipality":"Calvillo","setelement":"Valle de Huejúcar"},{"postalCode":"20805","state":"Aguascalientes","municipality":"Calvillo","setelement":"Los Angeles"},{"postalCode":"20805","state":"Aguascalientes","municipality":"Calvillo","setelement":"Chicago"},{"postalCode":"20810","state":"Aguascalientes","municipality":"Calvillo","setelement":"El Terrero de la Labor"},{"postalCode":"20810","state":"Aguascalientes","municipality":"Calvillo","setelement":"Palo Alto"},{"postalCode":"20810","state":"Aguascalientes","municipality":"Calvillo","setelement":"Junta de los Ríos"},{"postalCode":"20816","state":"Aguascalientes","municipality":"Calvillo","setelement":"El Sauz de la Labor"},{"postalCode":"20816","state":"Aguascalientes","municipality":"Calvillo","setelement":"El Zapote de la Labor"},{"postalCode":"20816","state":"Aguascalientes","municipality":"Calvillo","setelement":"Las Cuevas de la Labor"},{"postalCode":"20816","state":"Aguascalientes","municipality":"Calvillo","setelement":"Las Rubias"},{"postalCode":"20816","state":"Aguascalientes","municipality":"Calvillo","setelement":"Piedras Chinas"},{"postalCode":"20816","state":"Aguascalientes","municipality":"Calvillo","setelement":"El Jagüey"},{"postalCode":"20816","state":"Aguascalientes","municipality":"Calvillo","setelement":"Los Lazos"},{"postalCode":"20816","state":"Aguascalientes","municipality":"Calvillo","setelement":"Puerta de Fragua (Presa la Codorniz)"},{"postalCode":"20820","state":"Aguascalientes","municipality":"Calvillo","setelement":"La Pochota"},{"postalCode":"20820","state":"Aguascalientes","municipality":"Calvillo","setelement":"El Mirador"},{"postalCode":"20820","state":"Aguascalientes","municipality":"Calvillo","setelement":"San Tadeo"},{"postalCode":"20820","state":"Aguascalientes","municipality":"Calvillo","setelement":"El Potrerito"},{"postalCode":"20820","state":"Aguascalientes","municipality":"Calvillo","setelement":"La Teresa"},{"postalCode":"20820","state":"Aguascalientes","municipality":"Calvillo","setelement":"Mezquitillos"},{"postalCode":"20820","state":"Aguascalientes","municipality":"Calvillo","setelement":"La Primavera"},{"postalCode":"20820","state":"Aguascalientes","municipality":"Calvillo","setelement":"Jardines de San Isidro (Colonia Limón)"},{"postalCode":"20820","state":"Aguascalientes","municipality":"Calvillo","setelement":"Solidaridad"},{"postalCode":"20823","state":"Aguascalientes","municipality":"Calvillo","setelement":"Los Arellano"},{"postalCode":"20823","state":"Aguascalientes","municipality":"Calvillo","setelement":"Presa Ordeña Vieja"},{"postalCode":"20823","state":"Aguascalientes","municipality":"Calvillo","setelement":"El Tepozán"},{"postalCode":"20830","state":"Aguascalientes","municipality":"Calvillo","setelement":"El Morancillo (Los Arcos)"},{"postalCode":"20830","state":"Aguascalientes","municipality":"Calvillo","setelement":"Chiquihuitero (San Isidro)"},{"postalCode":"20830","state":"Aguascalientes","municipality":"Calvillo","setelement":"La Panadera"},{"postalCode":"20830","state":"Aguascalientes","municipality":"Calvillo","setelement":"Las Víboras (Viborillas)"},{"postalCode":"20830","state":"Aguascalientes","municipality":"Calvillo","setelement":"Villas del Laurel"},{"postalCode":"20832","state":"Aguascalientes","municipality":"Calvillo","setelement":"El Maguey"},{"postalCode":"20832","state":"Aguascalientes","municipality":"Calvillo","setelement":"El Sauz"},{"postalCode":"20832","state":"Aguascalientes","municipality":"Calvillo","setelement":"La Joya"},{"postalCode":"20834","state":"Aguascalientes","municipality":"Calvillo","setelement":"Potrero de los López"},{"postalCode":"20834","state":"Aguascalientes","municipality":"Calvillo","setelement":"Las Huertas"},{"postalCode":"20834","state":"Aguascalientes","municipality":"Calvillo","setelement":"La Pila"},{"postalCode":"20834","state":"Aguascalientes","municipality":"Calvillo","setelement":"La Alberca"},{"postalCode":"20834","state":"Aguascalientes","municipality":"Calvillo","setelement":"La Españita"},{"postalCode":"20834","state":"Aguascalientes","municipality":"Calvillo","setelement":"Los Baños"},{"postalCode":"20834","state":"Aguascalientes","municipality":"Calvillo","setelement":"Los Esparza"},{"postalCode":"20834","state":"Aguascalientes","municipality":"Calvillo","setelement":"La Placita"},{"postalCode":"20834","state":"Aguascalientes","municipality":"Calvillo","setelement":"La Casa Grande"},{"postalCode":"20834","state":"Aguascalientes","municipality":"Calvillo","setelement":"Azoteyita"},{"postalCode":"20834","state":"Aguascalientes","municipality":"Calvillo","setelement":"Bajío de Colomos"},{"postalCode":"20834","state":"Aguascalientes","municipality":"Calvillo","setelement":"El Llano de López"},{"postalCode":"20834","state":"Aguascalientes","municipality":"Calvillo","setelement":"Colomos"},{"postalCode":"20834","state":"Aguascalientes","municipality":"Calvillo","setelement":"Catana"},{"postalCode":"20834","state":"Aguascalientes","municipality":"Calvillo","setelement":"El Cuervero (Cuerveros)"},{"postalCode":"20834","state":"Aguascalientes","municipality":"Calvillo","setelement":"Malpaso"},{"postalCode":"20834","state":"Aguascalientes","municipality":"Calvillo","setelement":"Ojocaliente"},{"postalCode":"20834","state":"Aguascalientes","municipality":"Calvillo","setelement":"Potrero de los López"},{"postalCode":"20834","state":"Aguascalientes","municipality":"Calvillo","setelement":"Tepezalilla de Abajo"},{"postalCode":"20834","state":"Aguascalientes","municipality":"Calvillo","setelement":"La Fragua"},{"postalCode":"20834","state":"Aguascalientes","municipality":"Calvillo","setelement":"El Jaralito"},{"postalCode":"20834","state":"Aguascalientes","municipality":"Calvillo","setelement":"La Fortuna"},{"postalCode":"20834","state":"Aguascalientes","municipality":"Calvillo","setelement":"Los Arcos"},{"postalCode":"20834","state":"Aguascalientes","municipality":"Calvillo","setelement":"Magisterial"},{"postalCode":"20835","state":"Aguascalientes","municipality":"Calvillo","setelement":"Río Gil"},{"postalCode":"20835","state":"Aguascalientes","municipality":"Calvillo","setelement":"Río Gil de Arriba"},{"postalCode":"20836","state":"Aguascalientes","municipality":"Calvillo","setelement":"El Capulín"},{"postalCode":"20836","state":"Aguascalientes","municipality":"Calvillo","setelement":"Montoro"},{"postalCode":"20836","state":"Aguascalientes","municipality":"Calvillo","setelement":"Mesa de los Pozos (La Laguna)"},{"postalCode":"20840","state":"Aguascalientes","municipality":"Calvillo","setelement":"Los Mirasoles"},{"postalCode":"20842","state":"Aguascalientes","municipality":"Calvillo","setelement":"Las Joyas"},{"postalCode":"20842","state":"Aguascalientes","municipality":"Calvillo","setelement":"San José de los Laureles"},{"postalCode":"20844","state":"Aguascalientes","municipality":"Calvillo","setelement":"Chimaltitán"},{"postalCode":"20850","state":"Aguascalientes","municipality":"Calvillo","setelement":"Crucero las Pilas"},{"postalCode":"20850","state":"Aguascalientes","municipality":"Calvillo","setelement":"Las Moras"},{"postalCode":"20850","state":"Aguascalientes","municipality":"Calvillo","setelement":"Mesa Grande"},{"postalCode":"20850","state":"Aguascalientes","municipality":"Calvillo","setelement":"El Refugio (Las Praderas)"},{"postalCode":"20850","state":"Aguascalientes","municipality":"Calvillo","setelement":"Pozo de los Artistas"},{"postalCode":"20852","state":"Aguascalientes","municipality":"Calvillo","setelement":"Ejido Calvillo (El Polvorín Sector Benito Juárez)"},{"postalCode":"20852","state":"Aguascalientes","municipality":"Calvillo","setelement":"Ejido Calvillo (Sector Emiliano Zapata)"},{"postalCode":"20852","state":"Aguascalientes","municipality":"Calvillo","setelement":"Los Adobes"},{"postalCode":"20852","state":"Aguascalientes","municipality":"Calvillo","setelement":"Arroyo Ojocalientillo"},{"postalCode":"20854","state":"Aguascalientes","municipality":"Calvillo","setelement":"Parque Industrial Calvillo"},{"postalCode":"20854","state":"Aguascalientes","municipality":"Calvillo","setelement":"El Tepetate de Arriba"},{"postalCode":"20854","state":"Aguascalientes","municipality":"Calvillo","setelement":"La Calixtina"},{"postalCode":"20854","state":"Aguascalientes","municipality":"Calvillo","setelement":"El Tepetate de Abajo"},{"postalCode":"20854","state":"Aguascalientes","municipality":"Calvillo","setelement":"Ojo de Agua"},{"postalCode":"20854","state":"Aguascalientes","municipality":"Calvillo","setelement":"Barranca del Roble"},{"postalCode":"20854","state":"Aguascalientes","municipality":"Calvillo","setelement":"El Taray"},{"postalCode":"20855","state":"Aguascalientes","municipality":"Calvillo","setelement":"Los Alisos"},{"postalCode":"20855","state":"Aguascalientes","municipality":"Calvillo","setelement":"El Garruño"},{"postalCode":"20856","state":"Aguascalientes","municipality":"Calvillo","setelement":"El Güencho"},{"postalCode":"20856","state":"Aguascalientes","municipality":"Calvillo","setelement":"Jaltiche de Arriba"},{"postalCode":"20856","state":"Aguascalientes","municipality":"Calvillo","setelement":"Mesa del Roble"},{"postalCode":"20860","state":"Aguascalientes","municipality":"Calvillo","setelement":"Cerro Blanco"},{"postalCode":"20860","state":"Aguascalientes","municipality":"Calvillo","setelement":"El Salitre"},{"postalCode":"20860","state":"Aguascalientes","municipality":"Calvillo","setelement":"Las Ánimas"},{"postalCode":"20860","state":"Aguascalientes","municipality":"Calvillo","setelement":"Las Pilas"},{"postalCode":"20860","state":"Aguascalientes","municipality":"Calvillo","setelement":"Michoacanejo"},{"postalCode":"20860","state":"Aguascalientes","municipality":"Calvillo","setelement":"El Tepalcate"},{"postalCode":"20862","state":"Aguascalientes","municipality":"Calvillo","setelement":"Norias Cuatas"},{"postalCode":"20862","state":"Aguascalientes","municipality":"Calvillo","setelement":"Salitrillo"},{"postalCode":"20862","state":"Aguascalientes","municipality":"Calvillo","setelement":"Jaltiche de Abajo"},{"postalCode":"20862","state":"Aguascalientes","municipality":"Calvillo","setelement":"La Media Luna"},{"postalCode":"20862","state":"Aguascalientes","municipality":"Calvillo","setelement":"La Rinconada"},{"postalCode":"20862","state":"Aguascalientes","municipality":"Calvillo","setelement":"Las Tinajas"},{"postalCode":"20864","state":"Aguascalientes","municipality":"Calvillo","setelement":"El Caracol"},{"postalCode":"20864","state":"Aguascalientes","municipality":"Calvillo","setelement":"El Terrero del Refugio"},{"postalCode":"20864","state":"Aguascalientes","municipality":"Calvillo","setelement":"Presa de los Serna"},{"postalCode":"20870","state":"Aguascalientes","municipality":"Calvillo","setelement":"El Papantón"},{"postalCode":"20870","state":"Aguascalientes","municipality":"Calvillo","setelement":"El Rodeo"},{"postalCode":"20870","state":"Aguascalientes","municipality":"Calvillo","setelement":"Los Patos"},{"postalCode":"20870","state":"Aguascalientes","municipality":"Calvillo","setelement":"San José"},{"postalCode":"20870","state":"Aguascalientes","municipality":"Calvillo","setelement":"Santos"},{"postalCode":"20870","state":"Aguascalientes","municipality":"Calvillo","setelement":"Vaquerías"},{"postalCode":"20870","state":"Aguascalientes","municipality":"Calvillo","setelement":"Barranca de Portales"},{"postalCode":"20872","state":"Aguascalientes","municipality":"Calvillo","setelement":"Peña Blanca"},{"postalCode":"20872","state":"Aguascalientes","municipality":"Calvillo","setelement":"El Tigre"},{"postalCode":"20872","state":"Aguascalientes","municipality":"Calvillo","setelement":"Miguel Hidalgo (El Huarache)"},{"postalCode":"20872","state":"Aguascalientes","municipality":"Calvillo","setelement":"Presa de los Bajíos"},{"postalCode":"20874","state":"Aguascalientes","municipality":"Calvillo","setelement":"El Ocote [Banco de Tierra]"},{"postalCode":"20874","state":"Aguascalientes","municipality":"Calvillo","setelement":"Las Trojes"},{"postalCode":"20874","state":"Aguascalientes","municipality":"Calvillo","setelement":"Tanque de los Serna"},{"postalCode":"20874","state":"Aguascalientes","municipality":"Calvillo","setelement":"La Ciénega"},{"postalCode":"20880","state":"Aguascalientes","municipality":"Calvillo","setelement":"La Labor"},{"postalCode":"20880","state":"Aguascalientes","municipality":"Calvillo","setelement":"Temazcal"},{"postalCode":"20880","state":"Aguascalientes","municipality":"Calvillo","setelement":"Paredes"},{"postalCode":"20880","state":"Aguascalientes","municipality":"Calvillo","setelement":"La Hiedra"},{"postalCode":"20880","state":"Aguascalientes","municipality":"Calvillo","setelement":"Ventanillas"},{"postalCode":"20880","state":"Aguascalientes","municipality":"Calvillo","setelement":"El Salitrillo"},{"postalCode":"20882","state":"Aguascalientes","municipality":"Calvillo","setelement":"Manguillas"},{"postalCode":"20900","state":"Aguascalientes","municipality":"Jesús María","setelement":"Santo Domingo"},{"postalCode":"20900","state":"Aguascalientes","municipality":"Jesús María","setelement":"Puerta Norte"},{"postalCode":"20900","state":"Aguascalientes","municipality":"Jesús María","setelement":"Residencial Misión de San José"},{"postalCode":"20900","state":"Aguascalientes","municipality":"Jesús María","setelement":"Residencial Campestre Ingles"},{"postalCode":"20900","state":"Aguascalientes","municipality":"Jesús María","setelement":"Camino Real"},{"postalCode":"20900","state":"Aguascalientes","municipality":"Jesús María","setelement":"Corral de Barrancos"},{"postalCode":"20900","state":"Aguascalientes","municipality":"Jesús María","setelement":"Maravillas"},{"postalCode":"20900","state":"Aguascalientes","municipality":"Jesús María","setelement":"Los Olivos"},{"postalCode":"20900","state":"Aguascalientes","municipality":"Jesús María","setelement":"Rinconada Maravillas"},{"postalCode":"20900","state":"Aguascalientes","municipality":"Jesús María","setelement":"Residencial Villa Campestre"},{"postalCode":"20900","state":"Aguascalientes","municipality":"Jesús María","setelement":"Valle Escondido"},{"postalCode":"20900","state":"Aguascalientes","municipality":"Jesús María","setelement":"Las Pérgolas"},{"postalCode":"20900","state":"Aguascalientes","municipality":"Jesús María","setelement":"La Nogalera"},{"postalCode":"20901","state":"Aguascalientes","municipality":"Jesús María","setelement":"El Maguey"},{"postalCode":"20901","state":"Aguascalientes","municipality":"Jesús María","setelement":"Las Jaulas"},{"postalCode":"20901","state":"Aguascalientes","municipality":"Jesús María","setelement":"La Loma de Valladolid"},{"postalCode":"20901","state":"Aguascalientes","municipality":"Jesús María","setelement":"La Chaveña"},{"postalCode":"20903","state":"Aguascalientes","municipality":"Jesús María","setelement":"Villas de Montecassino"},{"postalCode":"20903","state":"Aguascalientes","municipality":"Jesús María","setelement":"Residencial Santa Paulina"},{"postalCode":"20903","state":"Aguascalientes","municipality":"Jesús María","setelement":"Margaritas"},{"postalCode":"20903","state":"Aguascalientes","municipality":"Jesús María","setelement":"La Florida"},{"postalCode":"20904","state":"Aguascalientes","municipality":"Jesús María","setelement":"El Barreno"},{"postalCode":"20904","state":"Aguascalientes","municipality":"Jesús María","setelement":"Los Ramírez"},{"postalCode":"20904","state":"Aguascalientes","municipality":"Jesús María","setelement":"Los Vázquez"},{"postalCode":"20905","state":"Aguascalientes","municipality":"Jesús María","setelement":"Miravalle"},{"postalCode":"20905","state":"Aguascalientes","municipality":"Jesús María","setelement":"Paso Blanco"},{"postalCode":"20905","state":"Aguascalientes","municipality":"Jesús María","setelement":"Los Arenales"},{"postalCode":"20905","state":"Aguascalientes","municipality":"Jesús María","setelement":"La Lomita de Paso Blanco (Las Canoas)"},{"postalCode":"20905","state":"Aguascalientes","municipality":"Jesús María","setelement":"Los Sauces"},{"postalCode":"20907","state":"Aguascalientes","municipality":"Jesús María","setelement":"Viñedos Casa Leal"},{"postalCode":"20907","state":"Aguascalientes","municipality":"Jesús María","setelement":"Santa Elena"},{"postalCode":"20907","state":"Aguascalientes","municipality":"Jesús María","setelement":"Viñedos Eva (Fraccionamiento Paso Blanco)"},{"postalCode":"20907","state":"Aguascalientes","municipality":"Jesús María","setelement":"Viñedos Frutilandia"},{"postalCode":"20907","state":"Aguascalientes","municipality":"Jesús María","setelement":"Paseos de Aguascalientes"},{"postalCode":"20907","state":"Aguascalientes","municipality":"Jesús María","setelement":"Arboledas de Paso Blanco"},{"postalCode":"20907","state":"Aguascalientes","municipality":"Jesús María","setelement":"Centro Distribuidor de Básicos Viñedos San Marcos"},{"postalCode":"20907","state":"Aguascalientes","municipality":"Jesús María","setelement":"Paseos del Country"},{"postalCode":"20907","state":"Aguascalientes","municipality":"Jesús María","setelement":"Residencial Campo Real"},{"postalCode":"20907","state":"Aguascalientes","municipality":"Jesús María","setelement":"Jardines de Campo Real"},{"postalCode":"20908","state":"Aguascalientes","municipality":"Jesús María","setelement":"Mayorazgo San Cristóbal"},{"postalCode":"20908","state":"Aguascalientes","municipality":"Jesús María","setelement":"Belmondo"},{"postalCode":"20908","state":"Aguascalientes","municipality":"Jesús María","setelement":"Residencial Marcellana"},{"postalCode":"20908","state":"Aguascalientes","municipality":"Jesús María","setelement":"Rinconada Cuauhtémoc"},{"postalCode":"20908","state":"Aguascalientes","municipality":"Jesús María","setelement":"Catania Spazio"},{"postalCode":"20908","state":"Aguascalientes","municipality":"Jesús María","setelement":"Punta Norte"},{"postalCode":"20908","state":"Aguascalientes","municipality":"Jesús María","setelement":"Los Gavilanes"},{"postalCode":"20908","state":"Aguascalientes","municipality":"Jesús María","setelement":"Nura"},{"postalCode":"20908","state":"Aguascalientes","municipality":"Jesús María","setelement":"Santa Isabel Tola"},{"postalCode":"20908","state":"Aguascalientes","municipality":"Jesús María","setelement":"Bosques de los Ciprés"},{"postalCode":"20908","state":"Aguascalientes","municipality":"Jesús María","setelement":"Bosques del Paraíso I"},{"postalCode":"20908","state":"Aguascalientes","municipality":"Jesús María","setelement":"Bosques del Paraíso II"},{"postalCode":"20908","state":"Aguascalientes","municipality":"Jesús María","setelement":"Augusta"},{"postalCode":"20908","state":"Aguascalientes","municipality":"Jesús María","setelement":"Bosques del Paraíso VI"},{"postalCode":"20908","state":"Aguascalientes","municipality":"Jesús María","setelement":"Bosques del Paraíso III"},{"postalCode":"20908","state":"Aguascalientes","municipality":"Jesús María","setelement":"Bosques del Paraíso IV"},{"postalCode":"20908","state":"Aguascalientes","municipality":"Jesús María","setelement":"Vivanta"},{"postalCode":"20908","state":"Aguascalientes","municipality":"Jesús María","setelement":"Zibá"},{"postalCode":"20908","state":"Aguascalientes","municipality":"Jesús María","setelement":"Porta Vitta Residencial"},{"postalCode":"20908","state":"Aguascalientes","municipality":"Jesús María","setelement":"Tepetates"},{"postalCode":"20908","state":"Aguascalientes","municipality":"Jesús María","setelement":"Trojes de San Cristóbal"},{"postalCode":"20908","state":"Aguascalientes","municipality":"Jesús María","setelement":"Quintas de Monticello"},{"postalCode":"20908","state":"Aguascalientes","municipality":"Jesús María","setelement":"Viña Antigua"},{"postalCode":"20908","state":"Aguascalientes","municipality":"Jesús María","setelement":"Villas del Molino"},{"postalCode":"20908","state":"Aguascalientes","municipality":"Jesús María","setelement":"Porta Real"},{"postalCode":"20908","state":"Aguascalientes","municipality":"Jesús María","setelement":"Residencial Cedros"},{"postalCode":"20908","state":"Aguascalientes","municipality":"Jesús María","setelement":"Rancho San Miguel Residencial"},{"postalCode":"20908","state":"Aguascalientes","municipality":"Jesús María","setelement":"Alcázar Residencial"},{"postalCode":"20908","state":"Aguascalientes","municipality":"Jesús María","setelement":"Reserva San Cristóbal"},{"postalCode":"20908","state":"Aguascalientes","municipality":"Jesús María","setelement":"La Arborada"},{"postalCode":"20908","state":"Aguascalientes","municipality":"Jesús María","setelement":"Privanza de Gratamira"},{"postalCode":"20908","state":"Aguascalientes","municipality":"Jesús María","setelement":"Tierraverde (Habitat Gran Clase)"},{"postalCode":"20908","state":"Aguascalientes","municipality":"Jesús María","setelement":"Andares"},{"postalCode":"20909","state":"Aguascalientes","municipality":"Jesús María","setelement":"INFONAVIT Margaritas"},{"postalCode":"20909","state":"Aguascalientes","municipality":"Jesús María","setelement":"Villas del Sol"},{"postalCode":"20909","state":"Aguascalientes","municipality":"Jesús María","setelement":"Valle de Margaritas"},{"postalCode":"20909","state":"Aguascalientes","municipality":"Jesús María","setelement":"Saturnino Herran"},{"postalCode":"20909","state":"Aguascalientes","municipality":"Jesús María","setelement":"Los Vázquez"},{"postalCode":"20909","state":"Aguascalientes","municipality":"Jesús María","setelement":"Santa Fe Tecnopark"},{"postalCode":"20909","state":"Aguascalientes","municipality":"Jesús María","setelement":"Alea Park"},{"postalCode":"20909","state":"Aguascalientes","municipality":"Jesús María","setelement":"Jesús Gómez Portugal (Margaritas)"},{"postalCode":"20909","state":"Aguascalientes","municipality":"Jesús María","setelement":"El Zapato"},{"postalCode":"20909","state":"Aguascalientes","municipality":"Jesús María","setelement":"Paseos Gómez Portugal"},{"postalCode":"20909","state":"Aguascalientes","municipality":"Jesús María","setelement":"La Guayana (Rancho Seco)"},{"postalCode":"20909","state":"Aguascalientes","municipality":"Jesús María","setelement":"Paso de Argenta"},{"postalCode":"20910","state":"Aguascalientes","municipality":"Jesús María","setelement":"San Antonio de los Horcones"},{"postalCode":"20910","state":"Aguascalientes","municipality":"Jesús María","setelement":"Brownsville"},{"postalCode":"20913","state":"Aguascalientes","municipality":"Jesús María","setelement":"Valladolid"},{"postalCode":"20913","state":"Aguascalientes","municipality":"Jesús María","setelement":"El Refugio"},{"postalCode":"20913","state":"Aguascalientes","municipality":"Jesús María","setelement":"El Aurero"},{"postalCode":"20913","state":"Aguascalientes","municipality":"Jesús María","setelement":"Villas de Guadalupe (La Malobra)"},{"postalCode":"20913","state":"Aguascalientes","municipality":"Jesús María","setelement":"El Cenizo"},{"postalCode":"20914","state":"Aguascalientes","municipality":"Jesús María","setelement":"La Granjita (Los Palillos)"},{"postalCode":"20915","state":"Aguascalientes","municipality":"Jesús María","setelement":"Nueva"},{"postalCode":"20916","state":"Aguascalientes","municipality":"Jesús María","setelement":"Cartuja Residencial"},{"postalCode":"20916","state":"Aguascalientes","municipality":"Jesús María","setelement":"Parque Industrial Chichimeco"},{"postalCode":"20916","state":"Aguascalientes","municipality":"Jesús María","setelement":"El Chichimeco"},{"postalCode":"20916","state":"Aguascalientes","municipality":"Jesús María","setelement":"Paseos de las Haciendas"},{"postalCode":"20917","state":"Aguascalientes","municipality":"Jesús María","setelement":"Pedernal Segundo"},{"postalCode":"20920","state":"Aguascalientes","municipality":"Jesús María","setelement":"Jesús María Centro"},{"postalCode":"20922","state":"Aguascalientes","municipality":"Jesús María","setelement":"Bellavista"},{"postalCode":"20922","state":"Aguascalientes","municipality":"Jesús María","setelement":"La Troje"},{"postalCode":"20922","state":"Aguascalientes","municipality":"Jesús María","setelement":"El Calvario"},{"postalCode":"20922","state":"Aguascalientes","municipality":"Jesús María","setelement":"La Escalera"},{"postalCode":"20923","state":"Aguascalientes","municipality":"Jesús María","setelement":"Rinconada Jesús María"},{"postalCode":"20923","state":"Aguascalientes","municipality":"Jesús María","setelement":"Real Campestre"},{"postalCode":"20923","state":"Aguascalientes","municipality":"Jesús María","setelement":"La Villa Residencial"},{"postalCode":"20923","state":"Aguascalientes","municipality":"Jesús María","setelement":"Los Álamos"},{"postalCode":"20923","state":"Aguascalientes","municipality":"Jesús María","setelement":"La Misión"},{"postalCode":"20923","state":"Aguascalientes","municipality":"Jesús María","setelement":"Flores Magón"},{"postalCode":"20923","state":"Aguascalientes","municipality":"Jesús María","setelement":"La Cardona"},{"postalCode":"20923","state":"Aguascalientes","municipality":"Jesús María","setelement":"La Cuesta"},{"postalCode":"20923","state":"Aguascalientes","municipality":"Jesús María","setelement":"Los Arroyitos"},{"postalCode":"20923","state":"Aguascalientes","municipality":"Jesús María","setelement":"San Miguelito"},{"postalCode":"20923","state":"Aguascalientes","municipality":"Jesús María","setelement":"Rinconada San Miguelito"},{"postalCode":"20923","state":"Aguascalientes","municipality":"Jesús María","setelement":"Ruiseñores"},{"postalCode":"20923","state":"Aguascalientes","municipality":"Jesús María","setelement":"Residencial Jesús María"},{"postalCode":"20924","state":"Aguascalientes","municipality":"Jesús María","setelement":"Cielo Claro"},{"postalCode":"20924","state":"Aguascalientes","municipality":"Jesús María","setelement":"Agua Clara"},{"postalCode":"20924","state":"Aguascalientes","municipality":"Jesús María","setelement":"Jacarandas"},{"postalCode":"20924","state":"Aguascalientes","municipality":"Jesús María","setelement":"Deportiva"},{"postalCode":"20924","state":"Aguascalientes","municipality":"Jesús María","setelement":"Rancho San Pedro"},{"postalCode":"20924","state":"Aguascalientes","municipality":"Jesús María","setelement":"Palma Dorada"},{"postalCode":"20925","state":"Aguascalientes","municipality":"Jesús María","setelement":"Arroyo del Bosque"},{"postalCode":"20925","state":"Aguascalientes","municipality":"Jesús María","setelement":"Misantla"},{"postalCode":"20925","state":"Aguascalientes","municipality":"Jesús María","setelement":"Villas Tec"},{"postalCode":"20925","state":"Aguascalientes","municipality":"Jesús María","setelement":"La Loma de Maravillas"},{"postalCode":"20925","state":"Aguascalientes","municipality":"Jesús María","setelement":"Agua Zarca"},{"postalCode":"20925","state":"Aguascalientes","municipality":"Jesús María","setelement":"Benigno Chávez"},{"postalCode":"20925","state":"Aguascalientes","municipality":"Jesús María","setelement":"Lomas de Jesús María"},{"postalCode":"20925","state":"Aguascalientes","municipality":"Jesús María","setelement":"Vistas del Sáuz"},{"postalCode":"20925","state":"Aguascalientes","municipality":"Jesús María","setelement":"Puerta Grande"},{"postalCode":"20926","state":"Aguascalientes","municipality":"Jesús María","setelement":"Rincón del Pilar"},{"postalCode":"20926","state":"Aguascalientes","municipality":"Jesús María","setelement":"La Palma"},{"postalCode":"20926","state":"Aguascalientes","municipality":"Jesús María","setelement":"Quintas Miguel Jerónimo"},{"postalCode":"20926","state":"Aguascalientes","municipality":"Jesús María","setelement":"Las Palmas"},{"postalCode":"20926","state":"Aguascalientes","municipality":"Jesús María","setelement":"Porta Arvena"},{"postalCode":"20926","state":"Aguascalientes","municipality":"Jesús María","setelement":"Arboledas"},{"postalCode":"20926","state":"Aguascalientes","municipality":"Jesús María","setelement":"Chicahuales"},{"postalCode":"20926","state":"Aguascalientes","municipality":"Jesús María","setelement":"Lomas del Valle"},{"postalCode":"20926","state":"Aguascalientes","municipality":"Jesús María","setelement":"Martínez Andrade"},{"postalCode":"20926","state":"Aguascalientes","municipality":"Jesús María","setelement":"Solidaridad"},{"postalCode":"20926","state":"Aguascalientes","municipality":"Jesús María","setelement":"Vista Hermosa"},{"postalCode":"20926","state":"Aguascalientes","municipality":"Jesús María","setelement":"Manantiales del Pinar"},{"postalCode":"20926","state":"Aguascalientes","municipality":"Jesús María","setelement":"La Loma"},{"postalCode":"20926","state":"Aguascalientes","municipality":"Jesús María","setelement":"La Piedra"},{"postalCode":"20926","state":"Aguascalientes","municipality":"Jesús María","setelement":"Lomas de los Vergeles"},{"postalCode":"20926","state":"Aguascalientes","municipality":"Jesús María","setelement":"Rinconada Bugambilias"},{"postalCode":"20926","state":"Aguascalientes","municipality":"Jesús María","setelement":"Misión de Santa María"},{"postalCode":"20926","state":"Aguascalientes","municipality":"Jesús María","setelement":"Yalta Campestre"},{"postalCode":"20926","state":"Aguascalientes","municipality":"Jesús María","setelement":"Residencial Tres Arroyos"},{"postalCode":"20926","state":"Aguascalientes","municipality":"Jesús María","setelement":"Mirabrujas"},{"postalCode":"20926","state":"Aguascalientes","municipality":"Jesús María","setelement":"Tulipanes Residencial"},{"postalCode":"20927","state":"Aguascalientes","municipality":"Jesús María","setelement":"Pozo la Palma (La Viznaga)"},{"postalCode":"20927","state":"Aguascalientes","municipality":"Jesús María","setelement":"Ayuntamiento"},{"postalCode":"20927","state":"Aguascalientes","municipality":"Jesús María","setelement":"La Cañada"},{"postalCode":"20927","state":"Aguascalientes","municipality":"Jesús María","setelement":"Ampliación La Cañada"},{"postalCode":"20927","state":"Aguascalientes","municipality":"Jesús María","setelement":"Ojos de Agua"},{"postalCode":"20928","state":"Aguascalientes","municipality":"Jesús María","setelement":"Luis Donaldo Colosio"},{"postalCode":"20928","state":"Aguascalientes","municipality":"Jesús María","setelement":"Ejidal"},{"postalCode":"20928","state":"Aguascalientes","municipality":"Jesús María","setelement":"El Torito"},{"postalCode":"20928","state":"Aguascalientes","municipality":"Jesús María","setelement":"Las Palmas"},{"postalCode":"20928","state":"Aguascalientes","municipality":"Jesús María","setelement":"Plan Benito Juárez"},{"postalCode":"20928","state":"Aguascalientes","municipality":"Jesús María","setelement":"El Mezquital"},{"postalCode":"20928","state":"Aguascalientes","municipality":"Jesús María","setelement":"El Chaveño"},{"postalCode":"20928","state":"Aguascalientes","municipality":"Jesús María","setelement":"Buenavista"},{"postalCode":"20928","state":"Aguascalientes","municipality":"Jesús María","setelement":"Solar de Jonacatique"},{"postalCode":"20933","state":"Aguascalientes","municipality":"Jesús María","setelement":"Unión de Ladrilleros"},{"postalCode":"20934","state":"Aguascalientes","municipality":"Jesús María","setelement":"San Lorenzo"},{"postalCode":"20943","state":"Aguascalientes","municipality":"Jesús María","setelement":"Buenos Aires"},{"postalCode":"20943","state":"Aguascalientes","municipality":"Jesús María","setelement":"Los Muñoz"},{"postalCode":"20943","state":"Aguascalientes","municipality":"Jesús María","setelement":"Milpillas de Abajo"},{"postalCode":"20943","state":"Aguascalientes","municipality":"Jesús María","setelement":"Ex-hacienda de Milpillas"},{"postalCode":"20947","state":"Aguascalientes","municipality":"Jesús María","setelement":"Gracias a Dios"},{"postalCode":"20947","state":"Aguascalientes","municipality":"Jesús María","setelement":"El Zapote"},{"postalCode":"20953","state":"Aguascalientes","municipality":"Jesús María","setelement":"Agronómica (Las Tres Almas)"},{"postalCode":"20953","state":"Aguascalientes","municipality":"Jesús María","setelement":"Cañada el Rodeo"},{"postalCode":"20954","state":"Aguascalientes","municipality":"Jesús María","setelement":"El Conejo (Puerta del Llano)"},{"postalCode":"20955","state":"Aguascalientes","municipality":"Jesús María","setelement":"La Mesa del Contadero (El Contadero)"},{"postalCode":"20955","state":"Aguascalientes","municipality":"Jesús María","setelement":"San Rafael"},{"postalCode":"20956","state":"Aguascalientes","municipality":"Jesús María","setelement":"Piedras Negras"},{"postalCode":"20957","state":"Aguascalientes","municipality":"Jesús María","setelement":"Lomas de San Isidro"},{"postalCode":"20957","state":"Aguascalientes","municipality":"Jesús María","setelement":"Pedernal Primero"},{"postalCode":"20957","state":"Aguascalientes","municipality":"Jesús María","setelement":"El Rincón de la Virgen (El Rincón)"},{"postalCode":"20970","state":"Aguascalientes","municipality":"Jesús María","setelement":"Tapias Viejas"},{"postalCode":"20970","state":"Aguascalientes","municipality":"Jesús María","setelement":"Puente de Villalpando (El Puente)"},{"postalCode":"20974","state":"Aguascalientes","municipality":"Jesús María","setelement":"Puentes Cuates"},{"postalCode":"20983","state":"Aguascalientes","municipality":"Jesús María","setelement":"Real del Molino"},{"postalCode":"20983","state":"Aguascalientes","municipality":"Jesús María","setelement":"Mezquital del Country"},{"postalCode":"20983","state":"Aguascalientes","municipality":"Jesús María","setelement":"El Llano"},{"postalCode":"20983","state":"Aguascalientes","municipality":"Jesús María","setelement":"Trojes del Pedregal"},{"postalCode":"20983","state":"Aguascalientes","municipality":"Jesús María","setelement":"Residencial Trojes del Norte"},{"postalCode":"20983","state":"Aguascalientes","municipality":"Jesús María","setelement":"Residencial Trojes del Norte II"},{"postalCode":"20983","state":"Aguascalientes","municipality":"Jesús María","setelement":"Residencial Antiguo Country"},{"postalCode":"20984","state":"Aguascalientes","municipality":"Jesús María","setelement":"Villa Natty Residencial"},{"postalCode":"20984","state":"Aguascalientes","municipality":"Jesús María","setelement":"Andrea"},{"postalCode":"20984","state":"Aguascalientes","municipality":"Jesús María","setelement":"Providencia"},{"postalCode":"20990","state":"Aguascalientes","municipality":"Jesús María","setelement":"General Ignacio Zaragoza (Venadero)"},{"postalCode":"20990","state":"Aguascalientes","municipality":"Jesús María","setelement":"Buenavista"},{"postalCode":"20994","state":"Aguascalientes","municipality":"Jesús María","setelement":"Cieneguitas"},{"postalCode":"20994","state":"Aguascalientes","municipality":"Jesús María","setelement":"Villas de Montegrande"},{"postalCode":"20994","state":"Aguascalientes","municipality":"Jesús María","setelement":"La Tomatina"},{"postalCode":"20995","state":"Aguascalientes","municipality":"Jesús María","setelement":"Agua Zarca"},{"postalCode":"20996","state":"Aguascalientes","municipality":"Jesús María","setelement":"Jesús María"},{"postalCode":"20996","state":"Aguascalientes","municipality":"Jesús María","setelement":"El Refugio de los Arquitos"},{"postalCode":"20996","state":"Aguascalientes","municipality":"Jesús María","setelement":"Los Arquitos"},{"postalCode":"20996","state":"Aguascalientes","municipality":"Jesús María","setelement":"El Chacho"},{"postalCode":"20996","state":"Aguascalientes","municipality":"Jesús María","setelement":"La Primavera"},{"postalCode":"20997","state":"Aguascalientes","municipality":"Jesús María","setelement":"La Providencia (Sector 6)"},{"postalCode":"20997","state":"Aguascalientes","municipality":"Jesús María","setelement":"Ruscello"},{"postalCode":"20997","state":"Aguascalientes","municipality":"Jesús María","setelement":"Q Campestre Residencial"}]