[{"postalCode":"23000","state":"Baja California Sur","municipality":"La Paz","setelement":"Zona Central"},{"postalCode":"23007","state":"Baja California Sur","municipality":"La Paz","setelement":"Palacio de Gobierno del Estado de Baja California Sur"},{"postalCode":"23009","state":"Baja California Sur","municipality":"La Paz","setelement":"Oficina Federal de Hacienda"},{"postalCode":"23010","state":"Baja California Sur","municipality":"La Paz","setelement":"Ciudad del Cielo"},{"postalCode":"23010","state":"Baja California Sur","municipality":"La Paz","setelement":"Colina del Sol"},{"postalCode":"23010","state":"Baja California Sur","municipality":"La Paz","setelement":"Lomas de Palmira"},{"postalCode":"23010","state":"Baja California Sur","municipality":"La Paz","setelement":"Agustín Olachea"},{"postalCode":"23017","state":"Baja California Sur","municipality":"La Paz","setelement":"Paseos del Cortes"},{"postalCode":"23018","state":"Baja California Sur","municipality":"La Paz","setelement":"Alfonso Sanchez Madariaga INFONAVIT"},{"postalCode":"23018","state":"Baja California Sur","municipality":"La Paz","setelement":"Pedregal del Cortes"},{"postalCode":"23018","state":"Baja California Sur","municipality":"La Paz","setelement":"Reforma"},{"postalCode":"23019","state":"Baja California Sur","municipality":"La Paz","setelement":"Policentro Palmira"},{"postalCode":"23019","state":"Baja California Sur","municipality":"La Paz","setelement":"Pedregal de la Paz"},{"postalCode":"23019","state":"Baja California Sur","municipality":"La Paz","setelement":"Punta Prieta"},{"postalCode":"23020","state":"Baja California Sur","municipality":"La Paz","setelement":"Colina de La Cruz"},{"postalCode":"23020","state":"Baja California Sur","municipality":"La Paz","setelement":"Esterito"},{"postalCode":"23020","state":"Baja California Sur","municipality":"La Paz","setelement":"Ladrillera"},{"postalCode":"23020","state":"Baja California Sur","municipality":"La Paz","setelement":"Guerrero"},{"postalCode":"23020","state":"Baja California Sur","municipality":"La Paz","setelement":"Manuel Rivera Anaya"},{"postalCode":"23026","state":"Baja California Sur","municipality":"La Paz","setelement":"Antonio Navarro Rubio"},{"postalCode":"23026","state":"Baja California Sur","municipality":"La Paz","setelement":"Ampliación Antonio Navarro Rubio"},{"postalCode":"23029","state":"Baja California Sur","municipality":"La Paz","setelement":"Zona Militar"},{"postalCode":"23030","state":"Baja California Sur","municipality":"La Paz","setelement":"Francisco Villa"},{"postalCode":"23030","state":"Baja California Sur","municipality":"La Paz","setelement":"Guadalupe Victoria"},{"postalCode":"23030","state":"Baja California Sur","municipality":"La Paz","setelement":"Independencia"},{"postalCode":"23030","state":"Baja California Sur","municipality":"La Paz","setelement":"Lienzo Charro"},{"postalCode":"23030","state":"Baja California Sur","municipality":"La Paz","setelement":"Loma Linda"},{"postalCode":"23030","state":"Baja California Sur","municipality":"La Paz","setelement":"Magisterial"},{"postalCode":"23030","state":"Baja California Sur","municipality":"La Paz","setelement":"San Pablo Guelatao"},{"postalCode":"23034","state":"Baja California Sur","municipality":"La Paz","setelement":"Lázaro Cárdenas"},{"postalCode":"23037","state":"Baja California Sur","municipality":"La Paz","setelement":"Jacinto Lopez"},{"postalCode":"23038","state":"Baja California Sur","municipality":"La Paz","setelement":"Loma Obrera"},{"postalCode":"23038","state":"Baja California Sur","municipality":"La Paz","setelement":"Valle de las Vinoramas"},{"postalCode":"23038","state":"Baja California Sur","municipality":"La Paz","setelement":"Los Paredones"},{"postalCode":"23038","state":"Baja California Sur","municipality":"La Paz","setelement":"Ampliación Lázaro Cárdenas"},{"postalCode":"23038","state":"Baja California Sur","municipality":"La Paz","setelement":"Villas de Guadalupe"},{"postalCode":"23038","state":"Baja California Sur","municipality":"La Paz","setelement":"Vista Hermosa"},{"postalCode":"23038","state":"Baja California Sur","municipality":"La Paz","setelement":"Laguna Azul"},{"postalCode":"23038","state":"Baja California Sur","municipality":"La Paz","setelement":"Ampliación Marquez de Leon"},{"postalCode":"23038","state":"Baja California Sur","municipality":"La Paz","setelement":"Marquez de Leon"},{"postalCode":"23039","state":"Baja California Sur","municipality":"La Paz","setelement":"La Escondida"},{"postalCode":"23040","state":"Baja California Sur","municipality":"La Paz","setelement":"Adolfo Ruiz Cortines"},{"postalCode":"23040","state":"Baja California Sur","municipality":"La Paz","setelement":"La Rinconada"},{"postalCode":"23040","state":"Baja California Sur","municipality":"La Paz","setelement":"Los Olivos"},{"postalCode":"23040","state":"Baja California Sur","municipality":"La Paz","setelement":"Perla"},{"postalCode":"23040","state":"Baja California Sur","municipality":"La Paz","setelement":"Petrolera"},{"postalCode":"23040","state":"Baja California Sur","municipality":"La Paz","setelement":"ISSSTE"},{"postalCode":"23050","state":"Baja California Sur","municipality":"La Paz","setelement":"Bella Vista"},{"postalCode":"23050","state":"Baja California Sur","municipality":"La Paz","setelement":"Benito Juárez Oriente"},{"postalCode":"23050","state":"Baja California Sur","municipality":"La Paz","setelement":"Roma"},{"postalCode":"23050","state":"Baja California Sur","municipality":"La Paz","setelement":"Rosaura Zapata"},{"postalCode":"23050","state":"Baja California Sur","municipality":"La Paz","setelement":"Tecnológico"},{"postalCode":"23050","state":"Baja California Sur","municipality":"La Paz","setelement":"Zona Industrial"},{"postalCode":"23050","state":"Baja California Sur","municipality":"La Paz","setelement":"Misiones de Loreto"},{"postalCode":"23050","state":"Baja California Sur","municipality":"La Paz","setelement":"El Carrizal"},{"postalCode":"23050","state":"Baja California Sur","municipality":"La Paz","setelement":"Cruz de Piedra"},{"postalCode":"23050","state":"Baja California Sur","municipality":"La Paz","setelement":"Bella Vista Plus"},{"postalCode":"23050","state":"Baja California Sur","municipality":"La Paz","setelement":"El Campanario"},{"postalCode":"23052","state":"Baja California Sur","municipality":"La Paz","setelement":"20 de Noviembre"},{"postalCode":"23054","state":"Baja California Sur","municipality":"La Paz","setelement":"Calafia"},{"postalCode":"23054","state":"Baja California Sur","municipality":"La Paz","setelement":"José María Morelos"},{"postalCode":"23054","state":"Baja California Sur","municipality":"La Paz","setelement":"Cihuatán (Costa Azul)"},{"postalCode":"23055","state":"Baja California Sur","municipality":"La Paz","setelement":"Jardines del Sur"},{"postalCode":"23055","state":"Baja California Sur","municipality":"La Paz","setelement":"Ampliación Jardines del Sur"},{"postalCode":"23056","state":"Baja California Sur","municipality":"La Paz","setelement":"Flores Magón"},{"postalCode":"23056","state":"Baja California Sur","municipality":"La Paz","setelement":"Popular Indeco"},{"postalCode":"23060","state":"Baja California Sur","municipality":"La Paz","setelement":"California"},{"postalCode":"23060","state":"Baja California Sur","municipality":"La Paz","setelement":"Barrio El Manglito"},{"postalCode":"23060","state":"Baja California Sur","municipality":"La Paz","setelement":"Inalámbrica"},{"postalCode":"23060","state":"Baja California Sur","municipality":"La Paz","setelement":"Pueblo Nuevo"},{"postalCode":"23060","state":"Baja California Sur","municipality":"La Paz","setelement":"Su Casa"},{"postalCode":"23060","state":"Baja California Sur","municipality":"La Paz","setelement":"San Pablo"},{"postalCode":"23060","state":"Baja California Sur","municipality":"La Paz","setelement":"Primero de Mayo"},{"postalCode":"23060","state":"Baja California Sur","municipality":"La Paz","setelement":"Quinta Esmeralda"},{"postalCode":"23060","state":"Baja California Sur","municipality":"La Paz","setelement":"Lomas de Cataviña"},{"postalCode":"23070","state":"Baja California Sur","municipality":"La Paz","setelement":"Emiliano Zapata"},{"postalCode":"23070","state":"Baja California Sur","municipality":"La Paz","setelement":"INFONAVIT"},{"postalCode":"23070","state":"Baja California Sur","municipality":"La Paz","setelement":"Las Palmas"},{"postalCode":"23070","state":"Baja California Sur","municipality":"La Paz","setelement":"Oro Blanco"},{"postalCode":"23070","state":"Baja California Sur","municipality":"La Paz","setelement":"Residencial las Garzas"},{"postalCode":"23070","state":"Baja California Sur","municipality":"La Paz","setelement":"Jardines de la Paz"},{"postalCode":"23070","state":"Baja California Sur","municipality":"La Paz","setelement":"Sendero las Flores"},{"postalCode":"23070","state":"Baja California Sur","municipality":"La Paz","setelement":"Pescadores"},{"postalCode":"23070","state":"Baja California Sur","municipality":"La Paz","setelement":"Las Grullas"},{"postalCode":"23070","state":"Baja California Sur","municipality":"La Paz","setelement":"Indeco"},{"postalCode":"23075","state":"Baja California Sur","municipality":"La Paz","setelement":"Balandra"},{"postalCode":"23075","state":"Baja California Sur","municipality":"La Paz","setelement":"Privada Las Garzas"},{"postalCode":"23075","state":"Baja California Sur","municipality":"La Paz","setelement":"Revolución"},{"postalCode":"23075","state":"Baja California Sur","municipality":"La Paz","setelement":"Molino Harinero II"},{"postalCode":"23075","state":"Baja California Sur","municipality":"La Paz","setelement":"Molino Harinero"},{"postalCode":"23075","state":"Baja California Sur","municipality":"La Paz","setelement":"Borrego Cimarrón"},{"postalCode":"23075","state":"Baja California Sur","municipality":"La Paz","setelement":"3 de Mayo"},{"postalCode":"23075","state":"Baja California Sur","municipality":"La Paz","setelement":"Agustín Arriola"},{"postalCode":"23075","state":"Baja California Sur","municipality":"La Paz","setelement":"3 de Mayo II"},{"postalCode":"23075","state":"Baja California Sur","municipality":"La Paz","setelement":"Miguel Canseco"},{"postalCode":"23075","state":"Baja California Sur","municipality":"La Paz","setelement":"Revolución II"},{"postalCode":"23075","state":"Baja California Sur","municipality":"La Paz","setelement":"Santa Mónica"},{"postalCode":"23076","state":"Baja California Sur","municipality":"La Paz","setelement":"Civilizadores II"},{"postalCode":"23076","state":"Baja California Sur","municipality":"La Paz","setelement":"Villa Santa María"},{"postalCode":"23076","state":"Baja California Sur","municipality":"La Paz","setelement":"Popular Garza V"},{"postalCode":"23076","state":"Baja California Sur","municipality":"La Paz","setelement":"Las Tunas"},{"postalCode":"23076","state":"Baja California Sur","municipality":"La Paz","setelement":"Residencial Santa Rita"},{"postalCode":"23076","state":"Baja California Sur","municipality":"La Paz","setelement":"Del Sol"},{"postalCode":"23076","state":"Baja California Sur","municipality":"La Paz","setelement":"Burocrática las Garzas"},{"postalCode":"23076","state":"Baja California Sur","municipality":"La Paz","setelement":"Los Cactus"},{"postalCode":"23076","state":"Baja California Sur","municipality":"La Paz","setelement":"Reforma"},{"postalCode":"23076","state":"Baja California Sur","municipality":"La Paz","setelement":"San Agustín"},{"postalCode":"23076","state":"Baja California Sur","municipality":"La Paz","setelement":"Las Islas"},{"postalCode":"23076","state":"Baja California Sur","municipality":"La Paz","setelement":"Civilizadores I"},{"postalCode":"23077","state":"Baja California Sur","municipality":"La Paz","setelement":"17 de Octubre"},{"postalCode":"23078","state":"Baja California Sur","municipality":"La Paz","setelement":"Embotelladores 83"},{"postalCode":"23078","state":"Baja California Sur","municipality":"La Paz","setelement":"Libertad"},{"postalCode":"23078","state":"Baja California Sur","municipality":"La Paz","setelement":"Unidad Donceles 28"},{"postalCode":"23078","state":"Baja California Sur","municipality":"La Paz","setelement":"Los Ángeles Residencial"},{"postalCode":"23078","state":"Baja California Sur","municipality":"La Paz","setelement":"Residencial Balandra"},{"postalCode":"23078","state":"Baja California Sur","municipality":"La Paz","setelement":"Clemente Guillen"},{"postalCode":"23079","state":"Baja California Sur","municipality":"La Paz","setelement":"Las Garzas"},{"postalCode":"23079","state":"Baja California Sur","municipality":"La Paz","setelement":"Rio Blanco"},{"postalCode":"23079","state":"Baja California Sur","municipality":"La Paz","setelement":"Domingo Carballo Félix"},{"postalCode":"23080","state":"Baja California Sur","municipality":"La Paz","setelement":"8 de Octubre 1a Sección"},{"postalCode":"23080","state":"Baja California Sur","municipality":"La Paz","setelement":"Rinconada el Cardonal"},{"postalCode":"23080","state":"Baja California Sur","municipality":"La Paz","setelement":"Campestre el Mezquitito"},{"postalCode":"23080","state":"Baja California Sur","municipality":"La Paz","setelement":"Los Bledales (La Ceibita)"},{"postalCode":"23080","state":"Baja California Sur","municipality":"La Paz","setelement":"28 de Octubre (Kilómetro 6)"},{"postalCode":"23080","state":"Baja California Sur","municipality":"La Paz","setelement":"1 de Mayo"},{"postalCode":"23080","state":"Baja California Sur","municipality":"La Paz","setelement":"Mezquitito"},{"postalCode":"23080","state":"Baja California Sur","municipality":"La Paz","setelement":"Universitario"},{"postalCode":"23080","state":"Baja California Sur","municipality":"La Paz","setelement":"Fuerza Aérea"},{"postalCode":"23080","state":"Baja California Sur","municipality":"La Paz","setelement":"Santa María"},{"postalCode":"23080","state":"Baja California Sur","municipality":"La Paz","setelement":"BANOBRAS"},{"postalCode":"23080","state":"Baja California Sur","municipality":"La Paz","setelement":"Sudcalifornia"},{"postalCode":"23080","state":"Baja California Sur","municipality":"La Paz","setelement":"Agua Escondida"},{"postalCode":"23083","state":"Baja California Sur","municipality":"La Paz","setelement":"Misiones II"},{"postalCode":"23083","state":"Baja California Sur","municipality":"La Paz","setelement":"San Isidro Coto Residencial"},{"postalCode":"23083","state":"Baja California Sur","municipality":"La Paz","setelement":"Solidaridad Mezquitito"},{"postalCode":"23083","state":"Baja California Sur","municipality":"La Paz","setelement":"San Fernando"},{"postalCode":"23083","state":"Baja California Sur","municipality":"La Paz","setelement":"Misiones"},{"postalCode":"23084","state":"Baja California Sur","municipality":"La Paz","setelement":"Las Californias"},{"postalCode":"23084","state":"Baja California Sur","municipality":"La Paz","setelement":"INVI El Mezquitito"},{"postalCode":"23084","state":"Baja California Sur","municipality":"La Paz","setelement":"La Estancia"},{"postalCode":"23084","state":"Baja California Sur","municipality":"La Paz","setelement":"Vista Dorada"},{"postalCode":"23084","state":"Baja California Sur","municipality":"La Paz","setelement":"Puerta Real Residencial"},{"postalCode":"23084","state":"Baja California Sur","municipality":"La Paz","setelement":"Ampliación El Progreso"},{"postalCode":"23084","state":"Baja California Sur","municipality":"La Paz","setelement":"El Progreso"},{"postalCode":"23084","state":"Baja California Sur","municipality":"La Paz","setelement":"Diana Laura"},{"postalCode":"23084","state":"Baja California Sur","municipality":"La Paz","setelement":"Los Tabachines"},{"postalCode":"23084","state":"Baja California Sur","municipality":"La Paz","setelement":"El Progreso"},{"postalCode":"23084","state":"Baja California Sur","municipality":"La Paz","setelement":"VIVAH El Progreso"},{"postalCode":"23084","state":"Baja California Sur","municipality":"La Paz","setelement":"La Cañada"},{"postalCode":"23084","state":"Baja California Sur","municipality":"La Paz","setelement":"El Dorado"},{"postalCode":"23084","state":"Baja California Sur","municipality":"La Paz","setelement":"Las Palmas"},{"postalCode":"23084","state":"Baja California Sur","municipality":"La Paz","setelement":"El Palmar II"},{"postalCode":"23084","state":"Baja California Sur","municipality":"La Paz","setelement":"Península Sur"},{"postalCode":"23084","state":"Baja California Sur","municipality":"La Paz","setelement":"Terranova"},{"postalCode":"23084","state":"Baja California Sur","municipality":"La Paz","setelement":"Valle del Mezquite"},{"postalCode":"23085","state":"Baja California Sur","municipality":"La Paz","setelement":"La Cima Residencial"},{"postalCode":"23085","state":"Baja California Sur","municipality":"La Paz","setelement":"Los Bledales"},{"postalCode":"23085","state":"Baja California Sur","municipality":"La Paz","setelement":"El Calandrio"},{"postalCode":"23085","state":"Baja California Sur","municipality":"La Paz","setelement":"Santa Fe"},{"postalCode":"23085","state":"Baja California Sur","municipality":"La Paz","setelement":"8 de Octubre 2a Sección"},{"postalCode":"23085","state":"Baja California Sur","municipality":"La Paz","setelement":"Azul Marino"},{"postalCode":"23085","state":"Baja California Sur","municipality":"La Paz","setelement":"San Miguel"},{"postalCode":"23085","state":"Baja California Sur","municipality":"La Paz","setelement":"Correcaminos"},{"postalCode":"23085","state":"Baja California Sur","municipality":"La Paz","setelement":"Coromuel"},{"postalCode":"23085","state":"Baja California Sur","municipality":"La Paz","setelement":"Los Álamos"},{"postalCode":"23085","state":"Baja California Sur","municipality":"La Paz","setelement":"Altezza Residencial"},{"postalCode":"23085","state":"Baja California Sur","municipality":"La Paz","setelement":"Quintas San Patricio"},{"postalCode":"23085","state":"Baja California Sur","municipality":"La Paz","setelement":"Altamira Residencial"},{"postalCode":"23085","state":"Baja California Sur","municipality":"La Paz","setelement":"Hispania Residencial"},{"postalCode":"23085","state":"Baja California Sur","municipality":"La Paz","setelement":"Antares Residencial"},{"postalCode":"23085","state":"Baja California Sur","municipality":"La Paz","setelement":"Altavela"},{"postalCode":"23085","state":"Baja California Sur","municipality":"La Paz","setelement":"Mar de Cortez"},{"postalCode":"23085","state":"Baja California Sur","municipality":"La Paz","setelement":"Paseos del Sol"},{"postalCode":"23085","state":"Baja California Sur","municipality":"La Paz","setelement":"Leonardo Rodriguez"},{"postalCode":"23085","state":"Baja California Sur","municipality":"La Paz","setelement":"Universidad Autónoma de Baja California Sur"},{"postalCode":"23085","state":"Baja California Sur","municipality":"La Paz","setelement":"Calandrio"},{"postalCode":"23085","state":"Baja California Sur","municipality":"La Paz","setelement":"El Pescador"},{"postalCode":"23085","state":"Baja California Sur","municipality":"La Paz","setelement":"Miramar"},{"postalCode":"23085","state":"Baja California Sur","municipality":"La Paz","setelement":"Las Américas"},{"postalCode":"23085","state":"Baja California Sur","municipality":"La Paz","setelement":"Virreyes"},{"postalCode":"23085","state":"Baja California Sur","municipality":"La Paz","setelement":"Villas de San Lorenzo"},{"postalCode":"23085","state":"Baja California Sur","municipality":"La Paz","setelement":"Paraíso del Sol"},{"postalCode":"23085","state":"Baja California Sur","municipality":"La Paz","setelement":"Villas del Encanto"},{"postalCode":"23085","state":"Baja California Sur","municipality":"La Paz","setelement":"San Miguel II"},{"postalCode":"23085","state":"Baja California Sur","municipality":"La Paz","setelement":"Arbolares"},{"postalCode":"23085","state":"Baja California Sur","municipality":"La Paz","setelement":"San Carlos III"},{"postalCode":"23085","state":"Baja California Sur","municipality":"La Paz","setelement":"Brisas de las Olas"},{"postalCode":"23085","state":"Baja California Sur","municipality":"La Paz","setelement":"Rinconada las Californias"},{"postalCode":"23085","state":"Baja California Sur","municipality":"La Paz","setelement":"San Rafael"},{"postalCode":"23086","state":"Baja California Sur","municipality":"La Paz","setelement":"Ángel Cesar Mendoza Aramburo"},{"postalCode":"23088","state":"Baja California Sur","municipality":"La Paz","setelement":"Del Mar Residencial"},{"postalCode":"23088","state":"Baja California Sur","municipality":"La Paz","setelement":"Perla del Golfo"},{"postalCode":"23088","state":"Baja California Sur","municipality":"La Paz","setelement":"Arcoiris II"},{"postalCode":"23088","state":"Baja California Sur","municipality":"La Paz","setelement":"Arcoiris III"},{"postalCode":"23088","state":"Baja California Sur","municipality":"La Paz","setelement":"Cola de la Ballena"},{"postalCode":"23088","state":"Baja California Sur","municipality":"La Paz","setelement":"Real del Sol"},{"postalCode":"23088","state":"Baja California Sur","municipality":"La Paz","setelement":"Vista Real"},{"postalCode":"23088","state":"Baja California Sur","municipality":"La Paz","setelement":"Bella California"},{"postalCode":"23088","state":"Baja California Sur","municipality":"La Paz","setelement":"Lomas del Cardón"},{"postalCode":"23088","state":"Baja California Sur","municipality":"La Paz","setelement":"Campestre el Cardón"},{"postalCode":"23088","state":"Baja California Sur","municipality":"La Paz","setelement":"Bella California III"},{"postalCode":"23088","state":"Baja California Sur","municipality":"La Paz","setelement":"La Fuente"},{"postalCode":"23088","state":"Baja California Sur","municipality":"La Paz","setelement":"Arcoiris"},{"postalCode":"23088","state":"Baja California Sur","municipality":"La Paz","setelement":"Ayuntamiento"},{"postalCode":"23088","state":"Baja California Sur","municipality":"La Paz","setelement":"El Camino Real"},{"postalCode":"23088","state":"Baja California Sur","municipality":"La Paz","setelement":"Agua Clara"},{"postalCode":"23088","state":"Baja California Sur","municipality":"La Paz","setelement":"Calafia"},{"postalCode":"23088","state":"Baja California Sur","municipality":"La Paz","setelement":"El Zacatal"},{"postalCode":"23088","state":"Baja California Sur","municipality":"La Paz","setelement":"Ampliación Ayuntamiento"},{"postalCode":"23089","state":"Baja California Sur","municipality":"La Paz","setelement":"Zona Antiguo Aeropuerto"},{"postalCode":"23089","state":"Baja California Sur","municipality":"La Paz","setelement":"El Palmar IV"},{"postalCode":"23089","state":"Baja California Sur","municipality":"La Paz","setelement":"La Pasión C"},{"postalCode":"23089","state":"Baja California Sur","municipality":"La Paz","setelement":"San José"},{"postalCode":"23089","state":"Baja California Sur","municipality":"La Paz","setelement":"El Maurel Residencial"},{"postalCode":"23089","state":"Baja California Sur","municipality":"La Paz","setelement":"Jerico"},{"postalCode":"23089","state":"Baja California Sur","municipality":"La Paz","setelement":"Los Pinos"},{"postalCode":"23089","state":"Baja California Sur","municipality":"La Paz","setelement":"El Cardoncito II"},{"postalCode":"23089","state":"Baja California Sur","municipality":"La Paz","setelement":"INVI Chametla"},{"postalCode":"23089","state":"Baja California Sur","municipality":"La Paz","setelement":"Valle Dorado"},{"postalCode":"23089","state":"Baja California Sur","municipality":"La Paz","setelement":"Villas de California"},{"postalCode":"23089","state":"Baja California Sur","municipality":"La Paz","setelement":"Fuerza Aérea"},{"postalCode":"23089","state":"Baja California Sur","municipality":"La Paz","setelement":"Villas de La Paz"},{"postalCode":"23089","state":"Baja California Sur","municipality":"La Paz","setelement":"Parque Industrial"},{"postalCode":"23089","state":"Baja California Sur","municipality":"La Paz","setelement":"El Palmar I"},{"postalCode":"23089","state":"Baja California Sur","municipality":"La Paz","setelement":"Villas del Cortes"},{"postalCode":"23089","state":"Baja California Sur","municipality":"La Paz","setelement":"Olas Altas"},{"postalCode":"23089","state":"Baja California Sur","municipality":"La Paz","setelement":"La Pitahaya"},{"postalCode":"23089","state":"Baja California Sur","municipality":"La Paz","setelement":"El Cardoncito"},{"postalCode":"23089","state":"Baja California Sur","municipality":"La Paz","setelement":"Los Cardones"},{"postalCode":"23090","state":"Baja California Sur","municipality":"La Paz","setelement":"El Conchalito"},{"postalCode":"23090","state":"Baja California Sur","municipality":"La Paz","setelement":"Benito Juárez"},{"postalCode":"23090","state":"Baja California Sur","municipality":"La Paz","setelement":"Campestre"},{"postalCode":"23090","state":"Baja California Sur","municipality":"La Paz","setelement":"Jardines de La Paz"},{"postalCode":"23090","state":"Baja California Sur","municipality":"La Paz","setelement":"Puesta del Sol"},{"postalCode":"23090","state":"Baja California Sur","municipality":"La Paz","setelement":"San José"},{"postalCode":"23090","state":"Baja California Sur","municipality":"La Paz","setelement":"Casa Blanca"},{"postalCode":"23090","state":"Baja California Sur","municipality":"La Paz","setelement":"Inalapa"},{"postalCode":"23090","state":"Baja California Sur","municipality":"La Paz","setelement":"Bahia de la Paz"},{"postalCode":"23090","state":"Baja California Sur","municipality":"La Paz","setelement":"Batallón de Infantería de Marina No. 4"},{"postalCode":"23090","state":"Baja California Sur","municipality":"La Paz","setelement":"Solidaridad"},{"postalCode":"23090","state":"Baja California Sur","municipality":"La Paz","setelement":"Los Girasoles"},{"postalCode":"23090","state":"Baja California Sur","municipality":"La Paz","setelement":"Arcos del Sol"},{"postalCode":"23090","state":"Baja California Sur","municipality":"La Paz","setelement":"Arcos del Sol I"},{"postalCode":"23090","state":"Baja California Sur","municipality":"La Paz","setelement":"La Esperanza"},{"postalCode":"23090","state":"Baja California Sur","municipality":"La Paz","setelement":"San Marino"},{"postalCode":"23090","state":"Baja California Sur","municipality":"La Paz","setelement":"La Esperanza 2"},{"postalCode":"23090","state":"Baja California Sur","municipality":"La Paz","setelement":"La Esperanza 3"},{"postalCode":"23090","state":"Baja California Sur","municipality":"La Paz","setelement":"Cactus Harinera"},{"postalCode":"23090","state":"Baja California Sur","municipality":"La Paz","setelement":"Tulipanes"},{"postalCode":"23090","state":"Baja California Sur","municipality":"La Paz","setelement":"Capullo"},{"postalCode":"23090","state":"Baja California Sur","municipality":"La Paz","setelement":"Privadas del Sol"},{"postalCode":"23090","state":"Baja California Sur","municipality":"La Paz","setelement":"Bugambilias"},{"postalCode":"23090","state":"Baja California Sur","municipality":"La Paz","setelement":"San Antonio El Zacatal"},{"postalCode":"23090","state":"Baja California Sur","municipality":"La Paz","setelement":"Marina Sol"},{"postalCode":"23090","state":"Baja California Sur","municipality":"La Paz","setelement":"Atardeceres"},{"postalCode":"23094","state":"Baja California Sur","municipality":"La Paz","setelement":"Sector La Selva Fidepaz"},{"postalCode":"23094","state":"Baja California Sur","municipality":"La Paz","setelement":"Las Flores"},{"postalCode":"23094","state":"Baja California Sur","municipality":"La Paz","setelement":"Ballenas"},{"postalCode":"23094","state":"Baja California Sur","municipality":"La Paz","setelement":"Las Quintas"},{"postalCode":"23094","state":"Baja California Sur","municipality":"La Paz","setelement":"Los Cántaros"},{"postalCode":"23094","state":"Baja California Sur","municipality":"La Paz","setelement":"Los Peces"},{"postalCode":"23095","state":"Baja California Sur","municipality":"La Paz","setelement":"La Sirena"},{"postalCode":"23095","state":"Baja California Sur","municipality":"La Paz","setelement":"Sector Santa Rita"},{"postalCode":"23095","state":"Baja California Sur","municipality":"La Paz","setelement":"Balandra Puesta del Sol"},{"postalCode":"23095","state":"Baja California Sur","municipality":"La Paz","setelement":"Nueva Puesta del Sol"},{"postalCode":"23096","state":"Baja California Sur","municipality":"La Paz","setelement":"Guaycura"},{"postalCode":"23096","state":"Baja California Sur","municipality":"La Paz","setelement":"Playa de Santa Rita"},{"postalCode":"23097","state":"Baja California Sur","municipality":"La Paz","setelement":"Los Pericues"},{"postalCode":"23097","state":"Baja California Sur","municipality":"La Paz","setelement":"Mineros (Perla ROFOMEX)"},{"postalCode":"23097","state":"Baja California Sur","municipality":"La Paz","setelement":"Misioneros"},{"postalCode":"23097","state":"Baja California Sur","municipality":"La Paz","setelement":"Ciudad del Recreo"},{"postalCode":"23097","state":"Baja California Sur","municipality":"La Paz","setelement":"Pueblo Nuevo"},{"postalCode":"23097","state":"Baja California Sur","municipality":"La Paz","setelement":"Villas del Mar"},{"postalCode":"23097","state":"Baja California Sur","municipality":"La Paz","setelement":"Plan Hidráulico"},{"postalCode":"23097","state":"Baja California Sur","municipality":"La Paz","setelement":"Residencial Marina Sur"},{"postalCode":"23098","state":"Baja California Sur","municipality":"La Paz","setelement":"CCC y Perla de La Paz"},{"postalCode":"23098","state":"Baja California Sur","municipality":"La Paz","setelement":"Garzas Agrícolas"},{"postalCode":"23098","state":"Baja California Sur","municipality":"La Paz","setelement":"Las Garzas INFONAVIT"},{"postalCode":"23098","state":"Baja California Sur","municipality":"La Paz","setelement":"Sector Inalapa"},{"postalCode":"23098","state":"Baja California Sur","municipality":"La Paz","setelement":"Cácaros"},{"postalCode":"23098","state":"Baja California Sur","municipality":"La Paz","setelement":"María Conchita"},{"postalCode":"23098","state":"Baja California Sur","municipality":"La Paz","setelement":"Las Margaritas"},{"postalCode":"23098","state":"Baja California Sur","municipality":"La Paz","setelement":"Azaleas"},{"postalCode":"23099","state":"Baja California Sur","municipality":"La Paz","setelement":"Las Arboledas"},{"postalCode":"23099","state":"Baja California Sur","municipality":"La Paz","setelement":"Residencial Loreto"},{"postalCode":"23099","state":"Baja California Sur","municipality":"La Paz","setelement":"Independencia"},{"postalCode":"23099","state":"Baja California Sur","municipality":"La Paz","setelement":"Estrella"},{"postalCode":"23099","state":"Baja California Sur","municipality":"La Paz","setelement":"Santa María"},{"postalCode":"23100","state":"Baja California Sur","municipality":"La Paz","setelement":"San Bartolo"},{"postalCode":"23100","state":"Baja California Sur","municipality":"La Paz","setelement":"Las Golondrinas"},{"postalCode":"23106","state":"Baja California Sur","municipality":"La Paz","setelement":"El Palo Verde"},{"postalCode":"23130","state":"Baja California Sur","municipality":"La Paz","setelement":"Santa Rita"},{"postalCode":"23133","state":"Baja California Sur","municipality":"La Paz","setelement":"El Agua de los Coyotes"},{"postalCode":"23134","state":"Baja California Sur","municipality":"La Paz","setelement":"Puerto Chale"},{"postalCode":"23140","state":"Baja California Sur","municipality":"La Paz","setelement":"Las Ánimas"},{"postalCode":"23143","state":"Baja California Sur","municipality":"La Paz","setelement":"San Evaristo"},{"postalCode":"23150","state":"Baja California Sur","municipality":"La Paz","setelement":"Las Pocitas"},{"postalCode":"23150","state":"Baja California Sur","municipality":"La Paz","setelement":"El Refugio"},{"postalCode":"23154","state":"Baja California Sur","municipality":"La Paz","setelement":"La Cieneguita"},{"postalCode":"23170","state":"Baja California Sur","municipality":"La Paz","setelement":"San Hilario"},{"postalCode":"23174","state":"Baja California Sur","municipality":"La Paz","setelement":"San Juan de la Costa"},{"postalCode":"23200","state":"Baja California Sur","municipality":"La Paz","setelement":"San Antonio de la Cruz"},{"postalCode":"23203","state":"Baja California Sur","municipality":"La Paz","setelement":"Alfredo V Bonfil"},{"postalCode":"23205","state":"Baja California Sur","municipality":"La Paz","setelement":"El Centenario"},{"postalCode":"23205","state":"Baja California Sur","municipality":"La Paz","setelement":"Chametla"},{"postalCode":"23205","state":"Baja California Sur","municipality":"La Paz","setelement":"Puerta Azul"},{"postalCode":"23205","state":"Baja California Sur","municipality":"La Paz","setelement":"Ampliación Centenario"},{"postalCode":"23205","state":"Baja California Sur","municipality":"La Paz","setelement":"Comitán"},{"postalCode":"23205","state":"Baja California Sur","municipality":"La Paz","setelement":"Paraíso del Mar"},{"postalCode":"23206","state":"Baja California Sur","municipality":"La Paz","setelement":"La Paz (Gral. Manuel Márquez de León)"},{"postalCode":"23206","state":"Baja California Sur","municipality":"La Paz","setelement":"Agroexportadora del Noroeste"},{"postalCode":"23208","state":"Baja California Sur","municipality":"La Paz","setelement":"La Fortuna"},{"postalCode":"23208","state":"Baja California Sur","municipality":"La Paz","setelement":"Rosarito"},{"postalCode":"23208","state":"Baja California Sur","municipality":"La Paz","setelement":"Puerto de Pichilingue"},{"postalCode":"23208","state":"Baja California Sur","municipality":"La Paz","setelement":"La Lagunita"},{"postalCode":"23209","state":"Baja California Sur","municipality":"La Paz","setelement":"Las Vinoramas"},{"postalCode":"23210","state":"Baja California Sur","municipality":"La Paz","setelement":"El Triunfo"},{"postalCode":"23210","state":"Baja California Sur","municipality":"La Paz","setelement":"San Antonio"},{"postalCode":"23213","state":"Baja California Sur","municipality":"La Paz","setelement":"El Encino"},{"postalCode":"23215","state":"Baja California Sur","municipality":"La Paz","setelement":"Agua Blanca"},{"postalCode":"23216","state":"Baja California Sur","municipality":"La Paz","setelement":"Las 3 Pachitas"},{"postalCode":"23217","state":"Baja California Sur","municipality":"La Paz","setelement":"El Rosario 1"},{"postalCode":"23230","state":"Baja California Sur","municipality":"La Paz","setelement":"San Juan de los Planes"},{"postalCode":"23230","state":"Baja California Sur","municipality":"La Paz","setelement":"General Juan Domínguez Cota"},{"postalCode":"23232","state":"Baja California Sur","municipality":"La Paz","setelement":"San Fermín (La Cuesta)"},{"postalCode":"23232","state":"Baja California Sur","municipality":"La Paz","setelement":"El Sargento"},{"postalCode":"23232","state":"Baja California Sur","municipality":"La Paz","setelement":"La Ventana"},{"postalCode":"23234","state":"Baja California Sur","municipality":"La Paz","setelement":"Agua Amarga"},{"postalCode":"23234","state":"Baja California Sur","municipality":"La Paz","setelement":"San Ángel"},{"postalCode":"23234","state":"Baja California Sur","municipality":"La Paz","setelement":"El Gordo"},{"postalCode":"23234","state":"Baja California Sur","municipality":"La Paz","setelement":"San Pedro México"},{"postalCode":"23236","state":"Baja California Sur","municipality":"La Paz","setelement":"Ensenada de Muertos"},{"postalCode":"23240","state":"Baja California Sur","municipality":"La Paz","setelement":"San Pedro"},{"postalCode":"23243","state":"Baja California Sur","municipality":"La Paz","setelement":"El Ancón"},{"postalCode":"23244","state":"Baja California Sur","municipality":"La Paz","setelement":"Los Tamales"},{"postalCode":"23247","state":"Baja California Sur","municipality":"La Paz","setelement":"San Ramon"},{"postalCode":"23248","state":"Baja California Sur","municipality":"La Paz","setelement":"Los Divisaderos"},{"postalCode":"23248","state":"Baja California Sur","municipality":"La Paz","setelement":"Álvaro Obregón"},{"postalCode":"23248","state":"Baja California Sur","municipality":"La Paz","setelement":"La Trinchera"},{"postalCode":"23248","state":"Baja California Sur","municipality":"La Paz","setelement":"El Palmarito II"},{"postalCode":"23248","state":"Baja California Sur","municipality":"La Paz","setelement":"El Pozo"},{"postalCode":"23249","state":"Baja California Sur","municipality":"La Paz","setelement":"Los Algodones"},{"postalCode":"23249","state":"Baja California Sur","municipality":"La Paz","setelement":"Santa Rita"},{"postalCode":"23250","state":"Baja California Sur","municipality":"La Paz","setelement":"El Carrizal"},{"postalCode":"23250","state":"Baja California Sur","municipality":"La Paz","setelement":"La Trinidad"},{"postalCode":"23250","state":"Baja California Sur","municipality":"La Paz","setelement":"Agrícola Santa Lidia"},{"postalCode":"23252","state":"Baja California Sur","municipality":"La Paz","setelement":"San Martin"},{"postalCode":"23252","state":"Baja California Sur","municipality":"La Paz","setelement":"El Cachanilla"},{"postalCode":"23257","state":"Baja California Sur","municipality":"La Paz","setelement":"Santa Martha"},{"postalCode":"23258","state":"Baja California Sur","municipality":"La Paz","setelement":"Melitón Albáñez Domínguez"},{"postalCode":"23280","state":"Baja California Sur","municipality":"La Paz","setelement":"Santa Rosa"},{"postalCode":"23283","state":"Baja California Sur","municipality":"La Paz","setelement":"Ley Federal de Reforma Agraria Dos"},{"postalCode":"23283","state":"Baja California Sur","municipality":"La Paz","setelement":"NCPE Conquista Agraria"},{"postalCode":"23283","state":"Baja California Sur","municipality":"La Paz","setelement":"Ley Federal de Reforma Agraria Uno"},{"postalCode":"23289","state":"Baja California Sur","municipality":"La Paz","setelement":"Buenavista"},{"postalCode":"23300","state":"Baja California Sur","municipality":"La Paz","setelement":"Centro"},{"postalCode":"23300","state":"Baja California Sur","municipality":"La Paz","setelement":"La Calera"},{"postalCode":"23300","state":"Baja California Sur","municipality":"La Paz","setelement":"El Coyote"},{"postalCode":"23300","state":"Baja California Sur","municipality":"La Paz","setelement":"Pueblo Nuevo"},{"postalCode":"23300","state":"Baja California Sur","municipality":"La Paz","setelement":"Las Tunas"},{"postalCode":"23300","state":"Baja California Sur","municipality":"La Paz","setelement":"La Poza"},{"postalCode":"23300","state":"Baja California Sur","municipality":"La Paz","setelement":"La Cahchora"},{"postalCode":"23300","state":"Baja California Sur","municipality":"La Paz","setelement":"El Vuelo del Águila"},{"postalCode":"23300","state":"Baja California Sur","municipality":"La Paz","setelement":"La Orcadita"},{"postalCode":"23300","state":"Baja California Sur","municipality":"La Paz","setelement":"Puesta del Sol"},{"postalCode":"23300","state":"Baja California Sur","municipality":"La Paz","setelement":"La Esperanza"},{"postalCode":"23300","state":"Baja California Sur","municipality":"La Paz","setelement":"San Vicente"},{"postalCode":"23300","state":"Baja California Sur","municipality":"La Paz","setelement":"San Juan"},{"postalCode":"23300","state":"Baja California Sur","municipality":"La Paz","setelement":"Las Quintas"},{"postalCode":"23300","state":"Baja California Sur","municipality":"La Paz","setelement":"Las Flores"},{"postalCode":"23300","state":"Baja California Sur","municipality":"La Paz","setelement":"San Ignacio"},{"postalCode":"23300","state":"Baja California Sur","municipality":"La Paz","setelement":"El Rio"},{"postalCode":"23300","state":"Baja California Sur","municipality":"La Paz","setelement":"Brisas del Pacifico"},{"postalCode":"23300","state":"Baja California Sur","municipality":"La Paz","setelement":"El Pescadero"},{"postalCode":"23302","state":"Baja California Sur","municipality":"La Paz","setelement":"La Matanza"},{"postalCode":"23302","state":"Baja California Sur","municipality":"La Paz","setelement":"Ampliación de la Matanza"},{"postalCode":"23302","state":"Baja California Sur","municipality":"La Paz","setelement":"La Matanza"},{"postalCode":"23303","state":"Baja California Sur","municipality":"La Paz","setelement":"La Vinatería"},{"postalCode":"23303","state":"Baja California Sur","municipality":"La Paz","setelement":"El Cañón"},{"postalCode":"23304","state":"Baja California Sur","municipality":"La Paz","setelement":"El Salto"},{"postalCode":"23308","state":"Baja California Sur","municipality":"La Paz","setelement":"El Batequito"},{"postalCode":"23311","state":"Baja California Sur","municipality":"La Paz","setelement":"El Valle Perdido"},{"postalCode":"23312","state":"Baja California Sur","municipality":"La Paz","setelement":"El Pintado"},{"postalCode":"23317","state":"Baja California Sur","municipality":"La Paz","setelement":"San Simón"},{"postalCode":"23320","state":"Baja California Sur","municipality":"La Paz","setelement":"Boca del Álamo"},{"postalCode":"23322","state":"Baja California Sur","municipality":"La Paz","setelement":"Santa Martha"},{"postalCode":"23328","state":"Baja California Sur","municipality":"La Paz","setelement":"San Bartolo Sur"},{"postalCode":"23329","state":"Baja California Sur","municipality":"La Paz","setelement":"Rincón de Leon"},{"postalCode":"23330","state":"Baja California Sur","municipality":"La Paz","setelement":"Los Barriles"},{"postalCode":"23330","state":"Baja California Sur","municipality":"La Paz","setelement":"Buenos Aires"},{"postalCode":"23333","state":"Baja California Sur","municipality":"La Paz","setelement":"El Coro"},{"postalCode":"23333","state":"Baja California Sur","municipality":"La Paz","setelement":"El Corral Falso"},{"postalCode":"23334","state":"Baja California Sur","municipality":"La Paz","setelement":"Agua de la Costa"},{"postalCode":"23350","state":"Baja California Sur","municipality":"La Paz","setelement":"El Sacrificio"},{"postalCode":"23354","state":"Baja California Sur","municipality":"La Paz","setelement":"El Cardonal"},{"postalCode":"23354","state":"Baja California Sur","municipality":"La Paz","setelement":"El Pescadero"},{"postalCode":"23354","state":"Baja California Sur","municipality":"La Paz","setelement":"Los Algodones"},{"postalCode":"23354","state":"Baja California Sur","municipality":"La Paz","setelement":"La Línea"},{"postalCode":"23354","state":"Baja California Sur","municipality":"La Paz","setelement":"Las Tinas"},{"postalCode":"23354","state":"Baja California Sur","municipality":"La Paz","setelement":"Punta Pescadero"},{"postalCode":"23360","state":"Baja California Sur","municipality":"La Paz","setelement":"El Refugio Sur"},{"postalCode":"23361","state":"Baja California Sur","municipality":"La Paz","setelement":"San Carlos"},{"postalCode":"23361","state":"Baja California Sur","municipality":"La Paz","setelement":"Los Cerritos"},{"postalCode":"23361","state":"Baja California Sur","municipality":"La Paz","setelement":"Las Lagunillas"},{"postalCode":"23362","state":"Baja California Sur","municipality":"La Paz","setelement":"Punta Lobos"},{"postalCode":"23362","state":"Baja California Sur","municipality":"La Paz","setelement":"El Salado"},{"postalCode":"23362","state":"Baja California Sur","municipality":"La Paz","setelement":"San Martín"},{"postalCode":"23363","state":"Baja California Sur","municipality":"La Paz","setelement":"El Palmar"},{"postalCode":"23364","state":"Baja California Sur","municipality":"La Paz","setelement":"San Jacinto"},{"postalCode":"23365","state":"Baja California Sur","municipality":"La Paz","setelement":"San Pedro de La Soledad"},{"postalCode":"23366","state":"Baja California Sur","municipality":"La Paz","setelement":"El Barranco"},{"postalCode":"23366","state":"Baja California Sur","municipality":"La Paz","setelement":"La Cuesta"},{"postalCode":"23390","state":"Baja California Sur","municipality":"La Paz","setelement":"Plutarco Elias Calles"},{"postalCode":"23395","state":"Baja California Sur","municipality":"La Paz","setelement":"El Palmarito"},{"postalCode":"23400","state":"Baja California Sur","municipality":"Los Cabos","setelement":"San José del Cabo Centro"},{"postalCode":"23403","state":"Baja California Sur","municipality":"Los Cabos","setelement":"El Encanto de la Laguna"},{"postalCode":"23403","state":"Baja California Sur","municipality":"Los Cabos","setelement":"Rincón de la Playa"},{"postalCode":"23403","state":"Baja California Sur","municipality":"Los Cabos","setelement":"La Playa"},{"postalCode":"23403","state":"Baja California Sur","municipality":"Los Cabos","setelement":"San Vicente"},{"postalCode":"23403","state":"Baja California Sur","municipality":"Los Cabos","setelement":"La Choya INFONAVIT"},{"postalCode":"23405","state":"Baja California Sur","municipality":"Los Cabos","setelement":"Loma Encantada"},{"postalCode":"23405","state":"Baja California Sur","municipality":"Los Cabos","setelement":"Palmilla"},{"postalCode":"23405","state":"Baja California Sur","municipality":"Los Cabos","setelement":"Rancho Cerro Colorado"},{"postalCode":"23405","state":"Baja California Sur","municipality":"Los Cabos","setelement":"Cabo Colorado"},{"postalCode":"23405","state":"Baja California Sur","municipality":"Los Cabos","setelement":"Club de Golf FONATUR"},{"postalCode":"23405","state":"Baja California Sur","municipality":"Los Cabos","setelement":"Zona Hotelera San José del Cabo"},{"postalCode":"23405","state":"Baja California Sur","municipality":"Los Cabos","setelement":"Cabo Real"},{"postalCode":"23405","state":"Baja California Sur","municipality":"Los Cabos","setelement":"La Joya de los Cabos"},{"postalCode":"23405","state":"Baja California Sur","municipality":"Los Cabos","setelement":"Mykonos"},{"postalCode":"23405","state":"Baja California Sur","municipality":"Los Cabos","setelement":"Coral Baja"},{"postalCode":"23405","state":"Baja California Sur","municipality":"Los Cabos","setelement":"Mañanitas"},{"postalCode":"23405","state":"Baja California Sur","municipality":"Los Cabos","setelement":"La Antigua"},{"postalCode":"23405","state":"Baja California Sur","municipality":"Los Cabos","setelement":"Vista Colorada"},{"postalCode":"23406","state":"Baja California Sur","municipality":"Los Cabos","setelement":"8 de Octubre"},{"postalCode":"23406","state":"Baja California Sur","municipality":"Los Cabos","setelement":"Club Campestre San José"},{"postalCode":"23406","state":"Baja California Sur","municipality":"Los Cabos","setelement":"Primero de Mayo"},{"postalCode":"23406","state":"Baja California Sur","municipality":"Los Cabos","setelement":"5 de Febrero"},{"postalCode":"23406","state":"Baja California Sur","municipality":"Los Cabos","setelement":"Costa Azul"},{"postalCode":"23406","state":"Baja California Sur","municipality":"Los Cabos","setelement":"Gringos Hill"},{"postalCode":"23406","state":"Baja California Sur","municipality":"Los Cabos","setelement":"Lomas de La Jolla"},{"postalCode":"23406","state":"Baja California Sur","municipality":"Los Cabos","setelement":"Villas de La Joya"},{"postalCode":"23406","state":"Baja California Sur","municipality":"Los Cabos","setelement":"Cerro del Vigía"},{"postalCode":"23406","state":"Baja California Sur","municipality":"Los Cabos","setelement":"Terrazas Costa Azul"},{"postalCode":"23407","state":"Baja California Sur","municipality":"Los Cabos","setelement":"Rosarito"},{"postalCode":"23407","state":"Baja California Sur","municipality":"Los Cabos","setelement":"Animas Bajas"},{"postalCode":"23407","state":"Baja California Sur","municipality":"Los Cabos","setelement":"Animas Altas"},{"postalCode":"23407","state":"Baja California Sur","municipality":"Los Cabos","setelement":"Guaymitas"},{"postalCode":"23407","state":"Baja California Sur","municipality":"Los Cabos","setelement":"Rinconada La Huerta"},{"postalCode":"23420","state":"Baja California Sur","municipality":"Los Cabos","setelement":"Invi Santa Anita"},{"postalCode":"23420","state":"Baja California Sur","municipality":"Los Cabos","setelement":"Real del Monte"},{"postalCode":"23420","state":"Baja California Sur","municipality":"Los Cabos","setelement":"Costa Dorada"},{"postalCode":"23420","state":"Baja California Sur","municipality":"Los Cabos","setelement":"Santa Anita"},{"postalCode":"23420","state":"Baja California Sur","municipality":"Los Cabos","setelement":"Aeropuerto"},{"postalCode":"23425","state":"Baja California Sur","municipality":"Los Cabos","setelement":"Santa Catarina"},{"postalCode":"23426","state":"Baja California Sur","municipality":"Los Cabos","setelement":"La Ballena"},{"postalCode":"23426","state":"Baja California Sur","municipality":"Los Cabos","setelement":"Puerto Nuevo"},{"postalCode":"23426","state":"Baja California Sur","municipality":"Los Cabos","setelement":"Invi San José Viejo"},{"postalCode":"23426","state":"Baja California Sur","municipality":"Los Cabos","setelement":"Loma Cruz"},{"postalCode":"23427","state":"Baja California Sur","municipality":"Los Cabos","setelement":"Monte Bello Condominio Plus"},{"postalCode":"23427","state":"Baja California Sur","municipality":"Los Cabos","setelement":"Ampliación Vista Hermosa"},{"postalCode":"23427","state":"Baja California Sur","municipality":"Los Cabos","setelement":"El Zacatal"},{"postalCode":"23427","state":"Baja California Sur","municipality":"Los Cabos","setelement":"Vista Hermosa"},{"postalCode":"23427","state":"Baja California Sur","municipality":"Los Cabos","setelement":"Colinas San José"},{"postalCode":"23427","state":"Baja California Sur","municipality":"Los Cabos","setelement":"Villas de Cortez"},{"postalCode":"23428","state":"Baja California Sur","municipality":"Los Cabos","setelement":"Santa Rosa"},{"postalCode":"23429","state":"Baja California Sur","municipality":"Los Cabos","setelement":"San José del Cabo (Los Cabos)"},{"postalCode":"23434","state":"Baja California Sur","municipality":"Los Cabos","setelement":"Villa Bonita"},{"postalCode":"23434","state":"Baja California Sur","municipality":"Los Cabos","setelement":"San Carlos"},{"postalCode":"23434","state":"Baja California Sur","municipality":"Los Cabos","setelement":"Pénjamo"},{"postalCode":"23434","state":"Baja California Sur","municipality":"Los Cabos","setelement":"Oasis"},{"postalCode":"23434","state":"Baja California Sur","municipality":"Los Cabos","setelement":"Ampliación Veredas"},{"postalCode":"23434","state":"Baja California Sur","municipality":"Los Cabos","setelement":"Costa Dorada"},{"postalCode":"23435","state":"Baja California Sur","municipality":"Los Cabos","setelement":"INFONAVIT"},{"postalCode":"23435","state":"Baja California Sur","municipality":"Los Cabos","setelement":"Las Veredas"},{"postalCode":"23435","state":"Baja California Sur","municipality":"Los Cabos","setelement":"FOVISSSTE las Veredas"},{"postalCode":"23436","state":"Baja California Sur","municipality":"Los Cabos","setelement":"Buenos Aires"},{"postalCode":"23436","state":"Baja California Sur","municipality":"Los Cabos","setelement":"San Bernabe"},{"postalCode":"23437","state":"Baja California Sur","municipality":"Los Cabos","setelement":"El Limón"},{"postalCode":"23437","state":"Baja California Sur","municipality":"Los Cabos","setelement":"Las Dunas"},{"postalCode":"23437","state":"Baja California Sur","municipality":"Los Cabos","setelement":"San José Viejo"},{"postalCode":"23440","state":"Baja California Sur","municipality":"Los Cabos","setelement":"Jesús Castro Agundes"},{"postalCode":"23443","state":"Baja California Sur","municipality":"Los Cabos","setelement":"Mauricio Castro"},{"postalCode":"23443","state":"Baja California Sur","municipality":"Los Cabos","setelement":"Chula Vista"},{"postalCode":"23443","state":"Baja California Sur","municipality":"Los Cabos","setelement":"El Aguajito"},{"postalCode":"23444","state":"Baja California Sur","municipality":"Los Cabos","setelement":"Pablo L Martinez"},{"postalCode":"23444","state":"Baja California Sur","municipality":"Los Cabos","setelement":"Luis Donaldo Colosio"},{"postalCode":"23444","state":"Baja California Sur","municipality":"Los Cabos","setelement":"Lomas de Rosarito"},{"postalCode":"23444","state":"Baja California Sur","municipality":"Los Cabos","setelement":"Monte Real Residencial"},{"postalCode":"23444","state":"Baja California Sur","municipality":"Los Cabos","setelement":"Colinas Plus"},{"postalCode":"23444","state":"Baja California Sur","municipality":"Los Cabos","setelement":"Country del Mar"},{"postalCode":"23445","state":"Baja California Sur","municipality":"Los Cabos","setelement":"Lomas de Guaymitas"},{"postalCode":"23450","state":"Baja California Sur","municipality":"Los Cabos","setelement":"Cabo San Lucas Centro"},{"postalCode":"23450","state":"Baja California Sur","municipality":"Los Cabos","setelement":"Plaza Bonita"},{"postalCode":"23450","state":"Baja California Sur","municipality":"Los Cabos","setelement":"Plaza Real"},{"postalCode":"23450","state":"Baja California Sur","municipality":"Los Cabos","setelement":"Plaza del Marlin"},{"postalCode":"23450","state":"Baja California Sur","municipality":"Los Cabos","setelement":"Plaza del Sol"},{"postalCode":"23450","state":"Baja California Sur","municipality":"Los Cabos","setelement":"Plaza Náutica"},{"postalCode":"23450","state":"Baja California Sur","municipality":"Los Cabos","setelement":"Plaza las Glorias"},{"postalCode":"23450","state":"Baja California Sur","municipality":"Los Cabos","setelement":"La Dársena"},{"postalCode":"23450","state":"Baja California Sur","municipality":"Los Cabos","setelement":"Modulo Turístico"},{"postalCode":"23453","state":"Baja California Sur","municipality":"Los Cabos","setelement":"El Medano"},{"postalCode":"23453","state":"Baja California Sur","municipality":"Los Cabos","setelement":"La Marina"},{"postalCode":"23453","state":"Baja California Sur","municipality":"Los Cabos","setelement":"Terrasol"},{"postalCode":"23453","state":"Baja California Sur","municipality":"Los Cabos","setelement":"El Pedregal"},{"postalCode":"23454","state":"Baja California Sur","municipality":"Los Cabos","setelement":"La Noria"},{"postalCode":"23454","state":"Baja California Sur","municipality":"Los Cabos","setelement":"Las Villas del Tezal"},{"postalCode":"23454","state":"Baja California Sur","municipality":"Los Cabos","setelement":"Luna del Tezal"},{"postalCode":"23454","state":"Baja California Sur","municipality":"Los Cabos","setelement":"Ventanas del Mar"},{"postalCode":"23454","state":"Baja California Sur","municipality":"Los Cabos","setelement":"Rancho Paraíso"},{"postalCode":"23454","state":"Baja California Sur","municipality":"Los Cabos","setelement":"Cabo del Mar"},{"postalCode":"23454","state":"Baja California Sur","municipality":"Los Cabos","setelement":"Ventanas de Cabo"},{"postalCode":"23454","state":"Baja California Sur","municipality":"Los Cabos","setelement":"El Tezal"},{"postalCode":"23454","state":"Baja California Sur","municipality":"Los Cabos","setelement":"Zona Hotelera"},{"postalCode":"23454","state":"Baja California Sur","municipality":"Los Cabos","setelement":"Residencial La Cima"},{"postalCode":"23454","state":"Baja California Sur","municipality":"Los Cabos","setelement":"Punta Arena"},{"postalCode":"23454","state":"Baja California Sur","municipality":"Los Cabos","setelement":"Residencial Maranata"},{"postalCode":"23454","state":"Baja California Sur","municipality":"Los Cabos","setelement":"Residencial San Luciano"},{"postalCode":"23454","state":"Baja California Sur","municipality":"Los Cabos","setelement":"Cumbres del Tezal"},{"postalCode":"23454","state":"Baja California Sur","municipality":"Los Cabos","setelement":"Privanzas"},{"postalCode":"23454","state":"Baja California Sur","municipality":"Los Cabos","setelement":"La Vista"},{"postalCode":"23454","state":"Baja California Sur","municipality":"Los Cabos","setelement":"Vista Bahía"},{"postalCode":"23454","state":"Baja California Sur","municipality":"Los Cabos","setelement":"Mediterránea"},{"postalCode":"23454","state":"Baja California Sur","municipality":"Los Cabos","setelement":"Puerta del Mar"},{"postalCode":"23454","state":"Baja California Sur","municipality":"Los Cabos","setelement":"Vistana"},{"postalCode":"23454","state":"Baja California Sur","municipality":"Los Cabos","setelement":"Ventanas del Cortés"},{"postalCode":"23455","state":"Baja California Sur","municipality":"Los Cabos","setelement":"Punta Ballena"},{"postalCode":"23455","state":"Baja California Sur","municipality":"Los Cabos","setelement":"Las Residencias"},{"postalCode":"23455","state":"Baja California Sur","municipality":"Los Cabos","setelement":"Hacienda Encantada"},{"postalCode":"23455","state":"Baja California Sur","municipality":"Los Cabos","setelement":"Residencial Olamar"},{"postalCode":"23455","state":"Baja California Sur","municipality":"Los Cabos","setelement":"San Antonio"},{"postalCode":"23455","state":"Baja California Sur","municipality":"Los Cabos","setelement":"Chileno Bay Club"},{"postalCode":"23455","state":"Baja California Sur","municipality":"Los Cabos","setelement":"Cabo Bello"},{"postalCode":"23455","state":"Baja California Sur","municipality":"Los Cabos","setelement":"Santa Carmela"},{"postalCode":"23455","state":"Baja California Sur","municipality":"Los Cabos","setelement":"Misiones del Cabo"},{"postalCode":"23455","state":"Baja California Sur","municipality":"Los Cabos","setelement":"Residencial Cabo del Sol"},{"postalCode":"23455","state":"Baja California Sur","municipality":"Los Cabos","setelement":"Villa Serena"},{"postalCode":"23456","state":"Baja California Sur","municipality":"Los Cabos","setelement":"Pueblo Bonito Montecristo"},{"postalCode":"23456","state":"Baja California Sur","municipality":"Los Cabos","setelement":"Pueblo Bonito Sunset"},{"postalCode":"23456","state":"Baja California Sur","municipality":"Los Cabos","setelement":"Pueblo Bonito Palacio"},{"postalCode":"23456","state":"Baja California Sur","municipality":"Los Cabos","setelement":"Estrella de Mar"},{"postalCode":"23456","state":"Baja California Sur","municipality":"Los Cabos","setelement":"Arco Iris"},{"postalCode":"23456","state":"Baja California Sur","municipality":"Los Cabos","setelement":"Colinas de Cabo Baja"},{"postalCode":"23456","state":"Baja California Sur","municipality":"Los Cabos","setelement":"Balcones"},{"postalCode":"23456","state":"Baja California Sur","municipality":"Los Cabos","setelement":"Jazmines"},{"postalCode":"23456","state":"Baja California Sur","municipality":"Los Cabos","setelement":"Acuario"},{"postalCode":"23456","state":"Baja California Sur","municipality":"Los Cabos","setelement":"Bugambilias"},{"postalCode":"23456","state":"Baja California Sur","municipality":"Los Cabos","setelement":"Bella Vista"},{"postalCode":"23456","state":"Baja California Sur","municipality":"Los Cabos","setelement":"Lomas del Cabo"},{"postalCode":"23456","state":"Baja California Sur","municipality":"Los Cabos","setelement":"Miramar"},{"postalCode":"23456","state":"Baja California Sur","municipality":"Los Cabos","setelement":"Altos de Miramar"},{"postalCode":"23456","state":"Baja California Sur","municipality":"Los Cabos","setelement":"Rincón de Miramar"},{"postalCode":"23456","state":"Baja California Sur","municipality":"Los Cabos","setelement":"Buenos Aires"},{"postalCode":"23456","state":"Baja California Sur","municipality":"Los Cabos","setelement":"El Palmar"},{"postalCode":"23456","state":"Baja California Sur","municipality":"Los Cabos","setelement":"Paraíso"},{"postalCode":"23456","state":"Baja California Sur","municipality":"Los Cabos","setelement":"Privada Perla"},{"postalCode":"23456","state":"Baja California Sur","municipality":"Los Cabos","setelement":"Real de Miramar"},{"postalCode":"23456","state":"Baja California Sur","municipality":"Los Cabos","setelement":"Quintas California"},{"postalCode":"23460","state":"Baja California Sur","municipality":"Los Cabos","setelement":"Zona Ejidal"},{"postalCode":"23460","state":"Baja California Sur","municipality":"Los Cabos","setelement":"Arenal"},{"postalCode":"23460","state":"Baja California Sur","municipality":"Los Cabos","setelement":"Ampliación Mariano Matamoros"},{"postalCode":"23460","state":"Baja California Sur","municipality":"Los Cabos","setelement":"Tabachines"},{"postalCode":"23462","state":"Baja California Sur","municipality":"Los Cabos","setelement":"Leonardo Gastélum Quinta Etapa"},{"postalCode":"23462","state":"Baja California Sur","municipality":"Los Cabos","setelement":"Paraíso del Sol"},{"postalCode":"23462","state":"Baja California Sur","municipality":"Los Cabos","setelement":"Aura Residencial"},{"postalCode":"23462","state":"Baja California Sur","municipality":"Los Cabos","setelement":"Real Unidad"},{"postalCode":"23462","state":"Baja California Sur","municipality":"Los Cabos","setelement":"Pueblo Nuevo"},{"postalCode":"23462","state":"Baja California Sur","municipality":"Los Cabos","setelement":"El Caribe Bajo"},{"postalCode":"23462","state":"Baja California Sur","municipality":"Los Cabos","setelement":"Lagunitas"},{"postalCode":"23462","state":"Baja California Sur","municipality":"Los Cabos","setelement":"Mesa Colorada"},{"postalCode":"23462","state":"Baja California Sur","municipality":"Los Cabos","setelement":"Mesa Colorada II"},{"postalCode":"23462","state":"Baja California Sur","municipality":"Los Cabos","setelement":"Mesa Colorada III"},{"postalCode":"23462","state":"Baja California Sur","municipality":"Los Cabos","setelement":"Leonardo Rodríguez Gastélum"},{"postalCode":"23463","state":"Baja California Sur","municipality":"Los Cabos","setelement":"Cabo San Lucas Country Club"},{"postalCode":"23467","state":"Baja California Sur","municipality":"Los Cabos","setelement":"Residencial San Jerónimo"},{"postalCode":"23467","state":"Baja California Sur","municipality":"Los Cabos","setelement":"Cabo Toscana"},{"postalCode":"23467","state":"Baja California Sur","municipality":"Los Cabos","setelement":"Villa Neptuno"},{"postalCode":"23467","state":"Baja California Sur","municipality":"Los Cabos","setelement":"Cresta del Mar"},{"postalCode":"23467","state":"Baja California Sur","municipality":"Los Cabos","setelement":"Hermitage"},{"postalCode":"23467","state":"Baja California Sur","municipality":"Los Cabos","setelement":"Punta Arena"},{"postalCode":"23467","state":"Baja California Sur","municipality":"Los Cabos","setelement":"Residencial Ciruelos"},{"postalCode":"23467","state":"Baja California Sur","municipality":"Los Cabos","setelement":"Vista de Cortés"},{"postalCode":"23467","state":"Baja California Sur","municipality":"Los Cabos","setelement":"Terrazas las Fuentes"},{"postalCode":"23467","state":"Baja California Sur","municipality":"Los Cabos","setelement":"Las Misiones"},{"postalCode":"23467","state":"Baja California Sur","municipality":"Los Cabos","setelement":"Tamar Residencial"},{"postalCode":"23467","state":"Baja California Sur","municipality":"Los Cabos","setelement":"Sierra Dorada"},{"postalCode":"23467","state":"Baja California Sur","municipality":"Los Cabos","setelement":"Puerta de Hierro"},{"postalCode":"23467","state":"Baja California Sur","municipality":"Los Cabos","setelement":"Residencial Puerta del Sol"},{"postalCode":"23467","state":"Baja California Sur","municipality":"Los Cabos","setelement":"Vista Real"},{"postalCode":"23467","state":"Baja California Sur","municipality":"Los Cabos","setelement":"Reyna Avalos"},{"postalCode":"23467","state":"Baja California Sur","municipality":"Los Cabos","setelement":"Amalfi"},{"postalCode":"23467","state":"Baja California Sur","municipality":"Los Cabos","setelement":"Casa Mexicana"},{"postalCode":"23467","state":"Baja California Sur","municipality":"Los Cabos","setelement":"Coto San Diego"},{"postalCode":"23468","state":"Baja California Sur","municipality":"Los Cabos","setelement":"Mariano Matamoros"},{"postalCode":"23468","state":"Baja California Sur","municipality":"Los Cabos","setelement":"INFONAVIT Viejo"},{"postalCode":"23469","state":"Baja California Sur","municipality":"Los Cabos","setelement":"Benito Juárez"},{"postalCode":"23469","state":"Baja California Sur","municipality":"Los Cabos","setelement":"Coromuel"},{"postalCode":"23469","state":"Baja California Sur","municipality":"Los Cabos","setelement":"Ampliación Juárez"},{"postalCode":"23470","state":"Baja California Sur","municipality":"Los Cabos","setelement":"La Cruz"},{"postalCode":"23470","state":"Baja California Sur","municipality":"Los Cabos","setelement":"Ampliación 4 de Marzo"},{"postalCode":"23470","state":"Baja California Sur","municipality":"Los Cabos","setelement":"Ejidal"},{"postalCode":"23470","state":"Baja California Sur","municipality":"Los Cabos","setelement":"Ildefonso Green"},{"postalCode":"23470","state":"Baja California Sur","municipality":"Los Cabos","setelement":"Lienzo Charro Centro"},{"postalCode":"23470","state":"Baja California Sur","municipality":"Los Cabos","setelement":"Nueva Ejidal"},{"postalCode":"23470","state":"Baja California Sur","municipality":"Los Cabos","setelement":"Libertad"},{"postalCode":"23472","state":"Baja California Sur","municipality":"Los Cabos","setelement":"4 de Marzo"},{"postalCode":"23472","state":"Baja California Sur","municipality":"Los Cabos","setelement":"Obrera"},{"postalCode":"23472","state":"Baja California Sur","municipality":"Los Cabos","setelement":"Lomas del Faro Viejo"},{"postalCode":"23472","state":"Baja California Sur","municipality":"Los Cabos","setelement":"Núcleo Agrario"},{"postalCode":"23472","state":"Baja California Sur","municipality":"Los Cabos","setelement":"Lomas Altas"},{"postalCode":"23472","state":"Baja California Sur","municipality":"Los Cabos","setelement":"Magisterial"},{"postalCode":"23473","state":"Baja California Sur","municipality":"Los Cabos","setelement":"Reforma"},{"postalCode":"23473","state":"Baja California Sur","municipality":"Los Cabos","setelement":"Altamira"},{"postalCode":"23473","state":"Baja California Sur","municipality":"Los Cabos","setelement":"Altamira Condominios Plus"},{"postalCode":"23473","state":"Baja California Sur","municipality":"Los Cabos","setelement":"Agua Clara"},{"postalCode":"23473","state":"Baja California Sur","municipality":"Los Cabos","setelement":"Santa Bárbara"},{"postalCode":"23473","state":"Baja California Sur","municipality":"Los Cabos","setelement":"Cabo Hills Villas"},{"postalCode":"23473","state":"Baja California Sur","municipality":"Los Cabos","setelement":"Cerro de los Venados"},{"postalCode":"23473","state":"Baja California Sur","municipality":"Los Cabos","setelement":"El Tesoro Residencial"},{"postalCode":"23473","state":"Baja California Sur","municipality":"Los Cabos","setelement":"Altamira Plus II"},{"postalCode":"23473","state":"Baja California Sur","municipality":"Los Cabos","setelement":"Lomas del Pacifico"},{"postalCode":"23473","state":"Baja California Sur","municipality":"Los Cabos","setelement":"Jacarandas"},{"postalCode":"23473","state":"Baja California Sur","municipality":"Los Cabos","setelement":"Hojazen"},{"postalCode":"23473","state":"Baja California Sur","municipality":"Los Cabos","setelement":"Cerro de los Venados"},{"postalCode":"23473","state":"Baja California Sur","municipality":"Los Cabos","setelement":"Auroras"},{"postalCode":"23473","state":"Baja California Sur","municipality":"Los Cabos","setelement":"Brisas del Pacifico Codepa"},{"postalCode":"23473","state":"Baja California Sur","municipality":"Los Cabos","setelement":"Brisas del Pacifico"},{"postalCode":"23473","state":"Baja California Sur","municipality":"Los Cabos","setelement":"INFONAVIT Nuevo"},{"postalCode":"23473","state":"Baja California Sur","municipality":"Los Cabos","setelement":"Los Cangrejos"},{"postalCode":"23473","state":"Baja California Sur","municipality":"Los Cabos","setelement":"Vista Hermosa"},{"postalCode":"23473","state":"Baja California Sur","municipality":"Los Cabos","setelement":"Gardenias"},{"postalCode":"23473","state":"Baja California Sur","municipality":"Los Cabos","setelement":"Portales"},{"postalCode":"23473","state":"Baja California Sur","municipality":"Los Cabos","setelement":"Casa Blanca"},{"postalCode":"23473","state":"Baja California Sur","municipality":"Los Cabos","setelement":"Terranova"},{"postalCode":"23474","state":"Baja California Sur","municipality":"Los Cabos","setelement":"Arcos del Sol"},{"postalCode":"23474","state":"Baja California Sur","municipality":"Los Cabos","setelement":"Jardines del Sol"},{"postalCode":"23474","state":"Baja California Sur","municipality":"Los Cabos","setelement":"Inova"},{"postalCode":"23474","state":"Baja California Sur","municipality":"Los Cabos","setelement":"Villas de La Joya"},{"postalCode":"23474","state":"Baja California Sur","municipality":"Los Cabos","setelement":"La Esperanza"},{"postalCode":"23475","state":"Baja California Sur","municipality":"Los Cabos","setelement":"Hemisferia"},{"postalCode":"23477","state":"Baja California Sur","municipality":"Los Cabos","setelement":"Chulavista"},{"postalCode":"23477","state":"Baja California Sur","municipality":"Los Cabos","setelement":"Cabo Fierro"},{"postalCode":"23477","state":"Baja California Sur","municipality":"Los Cabos","setelement":"El Progreso"},{"postalCode":"23477","state":"Baja California Sur","municipality":"Los Cabos","setelement":"Lomas del Sol"},{"postalCode":"23477","state":"Baja California Sur","municipality":"Los Cabos","setelement":"Tierra y Libertad"},{"postalCode":"23477","state":"Baja California Sur","municipality":"Los Cabos","setelement":"Progreso"},{"postalCode":"23477","state":"Baja California Sur","municipality":"Los Cabos","setelement":"Las Palmas"},{"postalCode":"23477","state":"Baja California Sur","municipality":"Los Cabos","setelement":"El Caribe"},{"postalCode":"23477","state":"Baja California Sur","municipality":"Los Cabos","setelement":"Residencial La Peña"},{"postalCode":"23477","state":"Baja California Sur","municipality":"Los Cabos","setelement":"Magisterial Viva"},{"postalCode":"23477","state":"Baja California Sur","municipality":"Los Cabos","setelement":"Las Palmas"},{"postalCode":"23477","state":"Baja California Sur","municipality":"Los Cabos","setelement":"Celeste Residencial"},{"postalCode":"23477","state":"Baja California Sur","municipality":"Los Cabos","setelement":"Rosa Delia"},{"postalCode":"23477","state":"Baja California Sur","municipality":"Los Cabos","setelement":"Misiones de Santa Fe"},{"postalCode":"23477","state":"Baja California Sur","municipality":"Los Cabos","setelement":"Lomas del Valle"},{"postalCode":"23478","state":"Baja California Sur","municipality":"Los Cabos","setelement":"Arcos del Sol II"},{"postalCode":"23500","state":"Baja California Sur","municipality":"Los Cabos","setelement":"Santa Bárbara"},{"postalCode":"23500","state":"Baja California Sur","municipality":"Los Cabos","setelement":"Panamá"},{"postalCode":"23500","state":"Baja California Sur","municipality":"Los Cabos","setelement":"Milpillas"},{"postalCode":"23500","state":"Baja California Sur","municipality":"Los Cabos","setelement":"Santiago"},{"postalCode":"23500","state":"Baja California Sur","municipality":"Los Cabos","setelement":"El Refugio"},{"postalCode":"23500","state":"Baja California Sur","municipality":"Los Cabos","setelement":"El Zacatal"},{"postalCode":"23500","state":"Baja California Sur","municipality":"Los Cabos","setelement":"Matancitas"},{"postalCode":"23501","state":"Baja California Sur","municipality":"Los Cabos","setelement":"El Epazote"},{"postalCode":"23503","state":"Baja California Sur","municipality":"Los Cabos","setelement":"Rosarito"},{"postalCode":"23510","state":"Baja California Sur","municipality":"Los Cabos","setelement":"Agua Caliente"},{"postalCode":"23520","state":"Baja California Sur","municipality":"Los Cabos","setelement":"Boca de la Sierra"},{"postalCode":"23520","state":"Baja California Sur","municipality":"Los Cabos","setelement":"Miraflores"},{"postalCode":"23522","state":"Baja California Sur","municipality":"Los Cabos","setelement":"Club Campestre el Madrigal"},{"postalCode":"23522","state":"Baja California Sur","municipality":"Los Cabos","setelement":"La Palmilla"},{"postalCode":"23522","state":"Baja California Sur","municipality":"Los Cabos","setelement":"Las Casitas"},{"postalCode":"23523","state":"Baja California Sur","municipality":"Los Cabos","setelement":"CERESO San José del Cabo"},{"postalCode":"23530","state":"Baja California Sur","municipality":"Los Cabos","setelement":"El Ranchito"},{"postalCode":"23530","state":"Baja California Sur","municipality":"Los Cabos","setelement":"Caduaño"},{"postalCode":"23533","state":"Baja California Sur","municipality":"Los Cabos","setelement":"Los Frailes"},{"postalCode":"23535","state":"Baja California Sur","municipality":"Los Cabos","setelement":"Palo Escopeta"},{"postalCode":"23560","state":"Baja California Sur","municipality":"Los Cabos","setelement":"Las Cuevas"},{"postalCode":"23560","state":"Baja California Sur","municipality":"Los Cabos","setelement":"El Campamento"},{"postalCode":"23563","state":"Baja California Sur","municipality":"Los Cabos","setelement":"El Leonero"},{"postalCode":"23567","state":"Baja California Sur","municipality":"Los Cabos","setelement":"María Sandéz Viuda de González"},{"postalCode":"23567","state":"Baja California Sur","municipality":"Los Cabos","setelement":"Santa Cruz"},{"postalCode":"23570","state":"Baja California Sur","municipality":"Los Cabos","setelement":"Don Martín"},{"postalCode":"23570","state":"Baja California Sur","municipality":"Los Cabos","setelement":"La Ribera"},{"postalCode":"23574","state":"Baja California Sur","municipality":"Los Cabos","setelement":"Cabo Pulmo"},{"postalCode":"23575","state":"Baja California Sur","municipality":"Los Cabos","setelement":"Las Barrancas"},{"postalCode":"23580","state":"Baja California Sur","municipality":"Los Cabos","setelement":"Buenavista"},{"postalCode":"23581","state":"Baja California Sur","municipality":"Los Cabos","setelement":"La Ballena"},{"postalCode":"23581","state":"Baja California Sur","municipality":"Los Cabos","setelement":"San Felipe"},{"postalCode":"23586","state":"Baja California Sur","municipality":"Los Cabos","setelement":"El Ranchito"},{"postalCode":"23590","state":"Baja California Sur","municipality":"Los Cabos","setelement":"La Candelaria"},{"postalCode":"23593","state":"Baja California Sur","municipality":"Los Cabos","setelement":"Los Pozos"},{"postalCode":"23593","state":"Baja California Sur","municipality":"Los Cabos","setelement":"Boca del Saucito"},{"postalCode":"23593","state":"Baja California Sur","municipality":"Los Cabos","setelement":"El Sauzal"},{"postalCode":"23597","state":"Baja California Sur","municipality":"Los Cabos","setelement":"Buenavista"},{"postalCode":"23600","state":"Baja California Sur","municipality":"Comondú","setelement":"Zona Centro"},{"postalCode":"23600","state":"Baja California Sur","municipality":"Comondú","setelement":"Cerro Catedral"},{"postalCode":"23600","state":"Baja California Sur","municipality":"Comondú","setelement":"INVI Olivos Juan Domínguez Cota"},{"postalCode":"23610","state":"Baja California Sur","municipality":"Comondú","setelement":"Las Palmas"},{"postalCode":"23620","state":"Baja California Sur","municipality":"Comondú","setelement":"Vargas"},{"postalCode":"23620","state":"Baja California Sur","municipality":"Comondú","setelement":"Longoria"},{"postalCode":"23620","state":"Baja California Sur","municipality":"Comondú","setelement":"Renero"},{"postalCode":"23620","state":"Baja California Sur","municipality":"Comondú","setelement":"Cecilia Madrid"},{"postalCode":"23630","state":"Baja California Sur","municipality":"Comondú","setelement":"Los Olivos"},{"postalCode":"23640","state":"Baja California Sur","municipality":"Comondú","setelement":"El Paraíso"},{"postalCode":"23640","state":"Baja California Sur","municipality":"Comondú","setelement":"FOVISSSTE Olimpico"},{"postalCode":"23640","state":"Baja California Sur","municipality":"Comondú","setelement":"Olímpico"},{"postalCode":"23641","state":"Baja California Sur","municipality":"Comondú","setelement":"Conjunto Urbano del Norte"},{"postalCode":"23641","state":"Baja California Sur","municipality":"Comondú","setelement":"Ampliación 4 de marzo"},{"postalCode":"23641","state":"Baja California Sur","municipality":"Comondú","setelement":"4 de Marzo"},{"postalCode":"23650","state":"Baja California Sur","municipality":"Comondú","setelement":"INVI Hacienda"},{"postalCode":"23650","state":"Baja California Sur","municipality":"Comondú","setelement":"Lienzo Charro"},{"postalCode":"23653","state":"Baja California Sur","municipality":"Comondú","setelement":"Militar"},{"postalCode":"23658","state":"Baja California Sur","municipality":"Comondú","setelement":"Residencial La Hacienda"},{"postalCode":"23660","state":"Baja California Sur","municipality":"Comondú","setelement":"Guaycura"},{"postalCode":"23670","state":"Baja California Sur","municipality":"Comondú","setelement":"El Crucero"},{"postalCode":"23670","state":"Baja California Sur","municipality":"Comondú","setelement":"Los Pinos"},{"postalCode":"23670","state":"Baja California Sur","municipality":"Comondú","setelement":"Pueblo Nuevo"},{"postalCode":"23676","state":"Baja California Sur","municipality":"Comondú","setelement":"Pioneros II"},{"postalCode":"23676","state":"Baja California Sur","municipality":"Comondú","setelement":"FOVISSSTE Pioneros"},{"postalCode":"23676","state":"Baja California Sur","municipality":"Comondú","setelement":"Pioneros"},{"postalCode":"23677","state":"Baja California Sur","municipality":"Comondú","setelement":"Constitución"},{"postalCode":"23677","state":"Baja California Sur","municipality":"Comondú","setelement":"Conjunto Urbano del Sur"},{"postalCode":"23677","state":"Baja California Sur","municipality":"Comondú","setelement":"La Esperanza"},{"postalCode":"23678","state":"Baja California Sur","municipality":"Comondú","setelement":"San Isidro Labrador"},{"postalCode":"23678","state":"Baja California Sur","municipality":"Comondú","setelement":"Plano Oriente"},{"postalCode":"23680","state":"Baja California Sur","municipality":"Comondú","setelement":"Valle Paraíso"},{"postalCode":"23680","state":"Baja California Sur","municipality":"Comondú","setelement":"FOVISSSTE Real"},{"postalCode":"23680","state":"Baja California Sur","municipality":"Comondú","setelement":"Real"},{"postalCode":"23683","state":"Baja California Sur","municipality":"Comondú","setelement":"Paseos de Don Pelayo"},{"postalCode":"23690","state":"Baja California Sur","municipality":"Comondú","setelement":"INFONAVIT San Martín"},{"postalCode":"23690","state":"Baja California Sur","municipality":"Comondú","setelement":"Batequitos"},{"postalCode":"23695","state":"Baja California Sur","municipality":"Comondú","setelement":"Roberto Esperon"},{"postalCode":"23696","state":"Baja California Sur","municipality":"Comondú","setelement":"Los Romeros"},{"postalCode":"23696","state":"Baja California Sur","municipality":"Comondú","setelement":"La Roca"},{"postalCode":"23696","state":"Baja California Sur","municipality":"Comondú","setelement":"El Agricultor INDECO"},{"postalCode":"23697","state":"Baja California Sur","municipality":"Comondú","setelement":"Brisas del Valle"},{"postalCode":"23697","state":"Baja California Sur","municipality":"Comondú","setelement":"Magisterial"},{"postalCode":"23700","state":"Baja California Sur","municipality":"Comondú","setelement":"Ciudad Insurgentes"},{"postalCode":"23700","state":"Baja California Sur","municipality":"Comondú","setelement":"Fernando de la Toba (Los Algarrobos)"},{"postalCode":"23708","state":"Baja California Sur","municipality":"Comondú","setelement":"Rio Mayo"},{"postalCode":"23710","state":"Baja California Sur","municipality":"Comondú","setelement":"Puerto Adolfo López Mateos"},{"postalCode":"23715","state":"Baja California Sur","municipality":"Comondú","setelement":"Villa Ignacio Zaragoza"},{"postalCode":"23720","state":"Baja California Sur","municipality":"Comondú","setelement":"Villa Hidalgo"},{"postalCode":"23721","state":"Baja California Sur","municipality":"Comondú","setelement":"San Juan de Matancitas"},{"postalCode":"23721","state":"Baja California Sur","municipality":"Comondú","setelement":"Ramaditas"},{"postalCode":"23723","state":"Baja California Sur","municipality":"Comondú","setelement":"Josefa Ortiz de Domínguez"},{"postalCode":"23730","state":"Baja California Sur","municipality":"Comondú","setelement":"Benito Juárez"},{"postalCode":"23734","state":"Baja California Sur","municipality":"Comondú","setelement":"Teotlan"},{"postalCode":"23736","state":"Baja California Sur","municipality":"Comondú","setelement":"Palo Bola"},{"postalCode":"23737","state":"Baja California Sur","municipality":"Comondú","setelement":"El Vallecito"},{"postalCode":"23739","state":"Baja California Sur","municipality":"Comondú","setelement":"Navojoa 1"},{"postalCode":"23740","state":"Baja California Sur","municipality":"Comondú","setelement":"Puerto San Carlos"},{"postalCode":"23743","state":"Baja California Sur","municipality":"Comondú","setelement":"El Ranchito"},{"postalCode":"23748","state":"Baja California Sur","municipality":"Comondú","setelement":"Puerto Magdalena"},{"postalCode":"23749","state":"Baja California Sur","municipality":"Comondú","setelement":"Puerto Alcatraz"},{"postalCode":"23750","state":"Baja California Sur","municipality":"Comondú","setelement":"Puerto Cortes"},{"postalCode":"23760","state":"Baja California Sur","municipality":"Comondú","setelement":"Ley Federal de Aguas No 5"},{"postalCode":"23765","state":"Baja California Sur","municipality":"Comondú","setelement":"Buenos Aires"},{"postalCode":"23765","state":"Baja California Sur","municipality":"Comondú","setelement":"San Luis Gonzaga"},{"postalCode":"23766","state":"Baja California Sur","municipality":"Comondú","setelement":"Tepentu"},{"postalCode":"23767","state":"Baja California Sur","municipality":"Comondú","setelement":"Lagunita"},{"postalCode":"23770","state":"Baja California Sur","municipality":"Comondú","setelement":"Villa Morelos"},{"postalCode":"23771","state":"Baja California Sur","municipality":"Comondú","setelement":"El Vergel"},{"postalCode":"23774","state":"Baja California Sur","municipality":"Comondú","setelement":"Las Delicias"},{"postalCode":"23775","state":"Baja California Sur","municipality":"Comondú","setelement":"Yaquis Lote 13"},{"postalCode":"23780","state":"Baja California Sur","municipality":"Comondú","setelement":"Ley Federal de Aguas No 4"},{"postalCode":"23789","state":"Baja California Sur","municipality":"Comondú","setelement":"Santa Teresa"},{"postalCode":"23790","state":"Baja California Sur","municipality":"Comondú","setelement":"Ley Federal de Aguas No 3"},{"postalCode":"23800","state":"Baja California Sur","municipality":"Comondú","setelement":"San Miguel de Comondú"},{"postalCode":"23805","state":"Baja California Sur","municipality":"Comondú","setelement":"San Pedro"},{"postalCode":"23810","state":"Baja California Sur","municipality":"Comondú","setelement":"San Isidro"},{"postalCode":"23812","state":"Baja California Sur","municipality":"Comondú","setelement":"La Yaqui"},{"postalCode":"23812","state":"Baja California Sur","municipality":"Comondú","setelement":"San Juanico"},{"postalCode":"23813","state":"Baja California Sur","municipality":"Comondú","setelement":"Paso Hondo"},{"postalCode":"23813","state":"Baja California Sur","municipality":"Comondú","setelement":"Purísima Vieja"},{"postalCode":"23818","state":"Baja California Sur","municipality":"Comondú","setelement":"La Bocana de San Gregorio"},{"postalCode":"23820","state":"Baja California Sur","municipality":"Comondú","setelement":"Carambuche"},{"postalCode":"23820","state":"Baja California Sur","municipality":"Comondú","setelement":"La Purísima"},{"postalCode":"23820","state":"Baja California Sur","municipality":"Comondú","setelement":"El Pabellón"},{"postalCode":"23820","state":"Baja California Sur","municipality":"Comondú","setelement":"San José de Comondú"},{"postalCode":"23824","state":"Baja California Sur","municipality":"Comondú","setelement":"Ojo de Agua"},{"postalCode":"23830","state":"Baja California Sur","municipality":"Comondú","setelement":"La Poza Grande"},{"postalCode":"23830","state":"Baja California Sur","municipality":"Comondú","setelement":"Francisco Villa"},{"postalCode":"23834","state":"Baja California Sur","municipality":"Comondú","setelement":"El Chicharrón"},{"postalCode":"23834","state":"Baja California Sur","municipality":"Comondú","setelement":"Las Barrancas"},{"postalCode":"23837","state":"Baja California Sur","municipality":"Comondú","setelement":"San Venancio"},{"postalCode":"23838","state":"Baja California Sur","municipality":"Comondú","setelement":"Canelo"},{"postalCode":"23840","state":"Baja California Sur","municipality":"Comondú","setelement":"María Auxiliadora"},{"postalCode":"23844","state":"Baja California Sur","municipality":"Comondú","setelement":"Santo Domingo"},{"postalCode":"23844","state":"Baja California Sur","municipality":"Comondú","setelement":"Jalisco"},{"postalCode":"23845","state":"Baja California Sur","municipality":"Comondú","setelement":"El Palo Alto"},{"postalCode":"23860","state":"Baja California Sur","municipality":"Comondú","setelement":"Ley Federal de Aguas No 2"},{"postalCode":"23870","state":"Baja California Sur","municipality":"Comondú","setelement":"Ley Federal de Aguas Número Uno"},{"postalCode":"23873","state":"Baja California Sur","municipality":"Comondú","setelement":"San Ignacio"},{"postalCode":"23880","state":"Baja California Sur","municipality":"Loreto","setelement":"INVI"},{"postalCode":"23880","state":"Baja California Sur","municipality":"Loreto","setelement":"Centro"},{"postalCode":"23880","state":"Baja California Sur","municipality":"Loreto","setelement":"Zaragoza"},{"postalCode":"23880","state":"Baja California Sur","municipality":"Loreto","setelement":"Obrera"},{"postalCode":"23880","state":"Baja California Sur","municipality":"Loreto","setelement":"El Jaral"},{"postalCode":"23880","state":"Baja California Sur","municipality":"Loreto","setelement":"INFONAVIT"},{"postalCode":"23880","state":"Baja California Sur","municipality":"Loreto","setelement":"Miramar"},{"postalCode":"23880","state":"Baja California Sur","municipality":"Loreto","setelement":"Misioneros"},{"postalCode":"23880","state":"Baja California Sur","municipality":"Loreto","setelement":"Exploradores"},{"postalCode":"23880","state":"Baja California Sur","municipality":"Loreto","setelement":"Nuevo Loreto"},{"postalCode":"23883","state":"Baja California Sur","municipality":"Loreto","setelement":"Las Parras"},{"postalCode":"23883","state":"Baja California Sur","municipality":"Loreto","setelement":"Pent House"},{"postalCode":"23883","state":"Baja California Sur","municipality":"Loreto","setelement":"Lomas Altas"},{"postalCode":"23883","state":"Baja California Sur","municipality":"Loreto","setelement":"Lomas Lindas"},{"postalCode":"23883","state":"Baja California Sur","municipality":"Loreto","setelement":"El Pozo de los Murillo"},{"postalCode":"23884","state":"Baja California Sur","municipality":"Loreto","setelement":"Las Brisas"},{"postalCode":"23884","state":"Baja California Sur","municipality":"Loreto","setelement":"Arroyo de Leon"},{"postalCode":"23884","state":"Baja California Sur","municipality":"Loreto","setelement":"La Morena"},{"postalCode":"23884","state":"Baja California Sur","municipality":"Loreto","setelement":"San Bruno"},{"postalCode":"23884","state":"Baja California Sur","municipality":"Loreto","setelement":"El Cardonal"},{"postalCode":"23884","state":"Baja California Sur","municipality":"Loreto","setelement":"Hacienda Guadalupe"},{"postalCode":"23884","state":"Baja California Sur","municipality":"Loreto","setelement":"Pozo Redondo"},{"postalCode":"23884","state":"Baja California Sur","municipality":"Loreto","setelement":"Las Bebelamas"},{"postalCode":"23884","state":"Baja California Sur","municipality":"Loreto","setelement":"Monte Cabello"},{"postalCode":"23885","state":"Baja California Sur","municipality":"Loreto","setelement":"San Vicente"},{"postalCode":"23886","state":"Baja California Sur","municipality":"Loreto","setelement":"Naocojoa"},{"postalCode":"23887","state":"Baja California Sur","municipality":"Loreto","setelement":"Cadejé"},{"postalCode":"23887","state":"Baja California Sur","municipality":"Loreto","setelement":"Canipole"},{"postalCode":"23887","state":"Baja California Sur","municipality":"Loreto","setelement":"Nopolo"},{"postalCode":"23887","state":"Baja California Sur","municipality":"Loreto","setelement":"El Manglito"},{"postalCode":"23887","state":"Baja California Sur","municipality":"Loreto","setelement":"San Nicolás"},{"postalCode":"23888","state":"Baja California Sur","municipality":"Loreto","setelement":"San Juan Bautista Londo"},{"postalCode":"23888","state":"Baja California Sur","municipality":"Loreto","setelement":"El Imposible"},{"postalCode":"23888","state":"Baja California Sur","municipality":"Loreto","setelement":"Rancho el 47"},{"postalCode":"23888","state":"Baja California Sur","municipality":"Loreto","setelement":"Lote 2a"},{"postalCode":"23888","state":"Baja California Sur","municipality":"Loreto","setelement":"Santa Rosa"},{"postalCode":"23888","state":"Baja California Sur","municipality":"Loreto","setelement":"Lote 3a"},{"postalCode":"23888","state":"Baja California Sur","municipality":"Loreto","setelement":"La Giganta"},{"postalCode":"23888","state":"Baja California Sur","municipality":"Loreto","setelement":"El Cimarrón"},{"postalCode":"23888","state":"Baja California Sur","municipality":"Loreto","setelement":"Los Búfalos"},{"postalCode":"23888","state":"Baja California Sur","municipality":"Loreto","setelement":"Lote 11"},{"postalCode":"23888","state":"Baja California Sur","municipality":"Loreto","setelement":"San Pedro"},{"postalCode":"23888","state":"Baja California Sur","municipality":"Loreto","setelement":"Lote 67"},{"postalCode":"23888","state":"Baja California Sur","municipality":"Loreto","setelement":"Pénjamo"},{"postalCode":"23889","state":"Baja California Sur","municipality":"Loreto","setelement":"Loreto (Loreto)"},{"postalCode":"23890","state":"Baja California Sur","municipality":"Loreto","setelement":"Rancho Viejo"},{"postalCode":"23890","state":"Baja California Sur","municipality":"Loreto","setelement":"Santa Isabel"},{"postalCode":"23890","state":"Baja California Sur","municipality":"Loreto","setelement":"San Guillermo"},{"postalCode":"23890","state":"Baja California Sur","municipality":"Loreto","setelement":"Chula Vista"},{"postalCode":"23890","state":"Baja California Sur","municipality":"Loreto","setelement":"La Calera"},{"postalCode":"23893","state":"Baja California Sur","municipality":"Loreto","setelement":"Santo Domingo"},{"postalCode":"23893","state":"Baja California Sur","municipality":"Loreto","setelement":"Santa Rosa"},{"postalCode":"23893","state":"Baja California Sur","municipality":"Loreto","setelement":"El Peloteado"},{"postalCode":"23893","state":"Baja California Sur","municipality":"Loreto","setelement":"San Javier"},{"postalCode":"23893","state":"Baja California Sur","municipality":"Loreto","setelement":"El Segundo Paso"},{"postalCode":"23893","state":"Baja California Sur","municipality":"Loreto","setelement":"La Fortuna"},{"postalCode":"23893","state":"Baja California Sur","municipality":"Loreto","setelement":"Los Dolores"},{"postalCode":"23893","state":"Baja California Sur","municipality":"Loreto","setelement":"El Pasito"},{"postalCode":"23893","state":"Baja California Sur","municipality":"Loreto","setelement":"La Presa"},{"postalCode":"23893","state":"Baja California Sur","municipality":"Loreto","setelement":"Los Corrales"},{"postalCode":"23893","state":"Baja California Sur","municipality":"Loreto","setelement":"Rancho Nuevo"},{"postalCode":"23893","state":"Baja California Sur","municipality":"Loreto","setelement":"Agua Escondida"},{"postalCode":"23893","state":"Baja California Sur","municipality":"Loreto","setelement":"El Púa"},{"postalCode":"23893","state":"Baja California Sur","municipality":"Loreto","setelement":"El Belén"},{"postalCode":"23893","state":"Baja California Sur","municipality":"Loreto","setelement":"Poza Gonzalez"},{"postalCode":"23893","state":"Baja California Sur","municipality":"Loreto","setelement":"El Aguaje"},{"postalCode":"23893","state":"Baja California Sur","municipality":"Loreto","setelement":"La Higuera"},{"postalCode":"23893","state":"Baja California Sur","municipality":"Loreto","setelement":"Agua Bonita"},{"postalCode":"23893","state":"Baja California Sur","municipality":"Loreto","setelement":"San Angel"},{"postalCode":"23894","state":"Baja California Sur","municipality":"Loreto","setelement":"Puerto Escondido"},{"postalCode":"23894","state":"Baja California Sur","municipality":"Loreto","setelement":"Incha"},{"postalCode":"23894","state":"Baja California Sur","municipality":"Loreto","setelement":"El Saucito"},{"postalCode":"23894","state":"Baja California Sur","municipality":"Loreto","setelement":"Juncalito"},{"postalCode":"23895","state":"Baja California Sur","municipality":"Loreto","setelement":"Ligui"},{"postalCode":"23895","state":"Baja California Sur","municipality":"Loreto","setelement":"El Palo Blanco"},{"postalCode":"23895","state":"Baja California Sur","municipality":"Loreto","setelement":"El Edén"},{"postalCode":"23895","state":"Baja California Sur","municipality":"Loreto","setelement":"Poza Teresa"},{"postalCode":"23895","state":"Baja California Sur","municipality":"Loreto","setelement":"Vuelta del Cerro"},{"postalCode":"23895","state":"Baja California Sur","municipality":"Loreto","setelement":"El Mezquite"},{"postalCode":"23895","state":"Baja California Sur","municipality":"Loreto","setelement":"San Lucas"},{"postalCode":"23895","state":"Baja California Sur","municipality":"Loreto","setelement":"La Angostura"},{"postalCode":"23895","state":"Baja California Sur","municipality":"Loreto","setelement":"Santa Inés"},{"postalCode":"23895","state":"Baja California Sur","municipality":"Loreto","setelement":"El Palmarcito"},{"postalCode":"23895","state":"Baja California Sur","municipality":"Loreto","setelement":"La Altagracia"},{"postalCode":"23895","state":"Baja California Sur","municipality":"Loreto","setelement":"Ensenada Blanca"},{"postalCode":"23896","state":"Baja California Sur","municipality":"Loreto","setelement":"San Cosme"},{"postalCode":"23896","state":"Baja California Sur","municipality":"Loreto","setelement":"El Huatamote"},{"postalCode":"23896","state":"Baja California Sur","municipality":"Loreto","setelement":"La Engañosa"},{"postalCode":"23896","state":"Baja California Sur","municipality":"Loreto","setelement":"Los Corrales"},{"postalCode":"23896","state":"Baja California Sur","municipality":"Loreto","setelement":"El Divisadero"},{"postalCode":"23896","state":"Baja California Sur","municipality":"Loreto","setelement":"El Carrizalito"},{"postalCode":"23896","state":"Baja California Sur","municipality":"Loreto","setelement":"Poza Verde"},{"postalCode":"23896","state":"Baja California Sur","municipality":"Loreto","setelement":"La Cruz"},{"postalCode":"23896","state":"Baja California Sur","municipality":"Loreto","setelement":"San Enrique"},{"postalCode":"23896","state":"Baja California Sur","municipality":"Loreto","setelement":"Poza Seca"},{"postalCode":"23896","state":"Baja California Sur","municipality":"Loreto","setelement":"Agua Amarga"},{"postalCode":"23896","state":"Baja California Sur","municipality":"Loreto","setelement":"Los Sestiaderos"},{"postalCode":"23896","state":"Baja California Sur","municipality":"Loreto","setelement":"Paso de Santa Cruz"},{"postalCode":"23896","state":"Baja California Sur","municipality":"Loreto","setelement":"La Presa"},{"postalCode":"23896","state":"Baja California Sur","municipality":"Loreto","setelement":"Santa Cruz"},{"postalCode":"23896","state":"Baja California Sur","municipality":"Loreto","setelement":"Rancho Viejo"},{"postalCode":"23896","state":"Baja California Sur","municipality":"Loreto","setelement":"La Última Agua"},{"postalCode":"23897","state":"Baja California Sur","municipality":"Loreto","setelement":"Puerto Agua Verde"},{"postalCode":"23897","state":"Baja California Sur","municipality":"Loreto","setelement":"San Antonio de La Higuera"},{"postalCode":"23897","state":"Baja California Sur","municipality":"Loreto","setelement":"Agua Verde"},{"postalCode":"23897","state":"Baja California Sur","municipality":"Loreto","setelement":"El Tulillo"},{"postalCode":"23898","state":"Baja California Sur","municipality":"Loreto","setelement":"San Carlos"},{"postalCode":"23898","state":"Baja California Sur","municipality":"Loreto","setelement":"Santa Martha"},{"postalCode":"23898","state":"Baja California Sur","municipality":"Loreto","setelement":"El Carrizalito"},{"postalCode":"23898","state":"Baja California Sur","municipality":"Loreto","setelement":"Timbabichi"},{"postalCode":"23900","state":"Baja California Sur","municipality":"Mulegé","setelement":"La Paloma"},{"postalCode":"23900","state":"Baja California Sur","municipality":"Mulegé","setelement":"Nuevo Mulege"},{"postalCode":"23900","state":"Baja California Sur","municipality":"Mulegé","setelement":"Heroica Mulegé Centro"},{"postalCode":"23900","state":"Baja California Sur","municipality":"Mulegé","setelement":"El Rebaje"},{"postalCode":"23900","state":"Baja California Sur","municipality":"Mulegé","setelement":"El Ranchito"},{"postalCode":"23900","state":"Baja California Sur","municipality":"Mulegé","setelement":"La Calera"},{"postalCode":"23900","state":"Baja California Sur","municipality":"Mulegé","setelement":"Punta de Agua"},{"postalCode":"23900","state":"Baja California Sur","municipality":"Mulegé","setelement":"Cananea"},{"postalCode":"23900","state":"Baja California Sur","municipality":"Mulegé","setelement":"Ranchería"},{"postalCode":"23900","state":"Baja California Sur","municipality":"Mulegé","setelement":"Loma Azul"},{"postalCode":"23900","state":"Baja California Sur","municipality":"Mulegé","setelement":"El Cacheno"},{"postalCode":"23900","state":"Baja California Sur","municipality":"Mulegé","setelement":"Benavides"},{"postalCode":"23900","state":"Baja California Sur","municipality":"Mulegé","setelement":"Tinajitas"},{"postalCode":"23902","state":"Baja California Sur","municipality":"Mulegé","setelement":"El Potrero"},{"postalCode":"23903","state":"Baja California Sur","municipality":"Mulegé","setelement":"El Coyote"},{"postalCode":"23904","state":"Baja California Sur","municipality":"Mulegé","setelement":"San Nicolás"},{"postalCode":"23910","state":"Baja California Sur","municipality":"Mulegé","setelement":"Isla San Marcos"},{"postalCode":"23910","state":"Baja California Sur","municipality":"Mulegé","setelement":"San Bruno"},{"postalCode":"23911","state":"Baja California Sur","municipality":"Mulegé","setelement":"San José de Magdalena"},{"postalCode":"23911","state":"Baja California Sur","municipality":"Mulegé","setelement":"San Lucas"},{"postalCode":"23911","state":"Baja California Sur","municipality":"Mulegé","setelement":"Santa Águeda"},{"postalCode":"23912","state":"Baja California Sur","municipality":"Mulegé","setelement":"Palo Verde"},{"postalCode":"23912","state":"Baja California Sur","municipality":"Mulegé","setelement":"Punta Chivato"},{"postalCode":"23912","state":"Baja California Sur","municipality":"Mulegé","setelement":"Las Cuevitas"},{"postalCode":"23912","state":"Baja California Sur","municipality":"Mulegé","setelement":"El Perdido"},{"postalCode":"23912","state":"Baja California Sur","municipality":"Mulegé","setelement":"San Isidro"},{"postalCode":"23913","state":"Baja California Sur","municipality":"Mulegé","setelement":"Santa Isabel del Boleo"},{"postalCode":"23913","state":"Baja California Sur","municipality":"Mulegé","setelement":"San Sebastián"},{"postalCode":"23914","state":"Baja California Sur","municipality":"Mulegé","setelement":"San Juan"},{"postalCode":"23914","state":"Baja California Sur","municipality":"Mulegé","setelement":"Las Tunas"},{"postalCode":"23915","state":"Baja California Sur","municipality":"Mulegé","setelement":"El Dátil"},{"postalCode":"23915","state":"Baja California Sur","municipality":"Mulegé","setelement":"El Cardón"},{"postalCode":"23915","state":"Baja California Sur","municipality":"Mulegé","setelement":"Luis Echeverría"},{"postalCode":"23915","state":"Baja California Sur","municipality":"Mulegé","setelement":"Campo Delgadito"},{"postalCode":"23915","state":"Baja California Sur","municipality":"Mulegé","setelement":"La Angostura"},{"postalCode":"23916","state":"Baja California Sur","municipality":"Mulegé","setelement":"El Dátil"},{"postalCode":"23916","state":"Baja California Sur","municipality":"Mulegé","setelement":"San Bartolo"},{"postalCode":"23917","state":"Baja California Sur","municipality":"Mulegé","setelement":"Jesús María"},{"postalCode":"23920","state":"Baja California Sur","municipality":"Mulegé","setelement":"Los Frailes"},{"postalCode":"23920","state":"Baja California Sur","municipality":"Mulegé","setelement":"Unidad Deportiva"},{"postalCode":"23920","state":"Baja California Sur","municipality":"Mulegé","setelement":"CADEPO"},{"postalCode":"23920","state":"Baja California Sur","municipality":"Mulegé","setelement":"Reforma"},{"postalCode":"23920","state":"Baja California Sur","municipality":"Mulegé","setelement":"Imperial"},{"postalCode":"23920","state":"Baja California Sur","municipality":"Mulegé","setelement":"Centro"},{"postalCode":"23920","state":"Baja California Sur","municipality":"Mulegé","setelement":"Mesa México"},{"postalCode":"23920","state":"Baja California Sur","municipality":"Mulegé","setelement":"Hidalgo"},{"postalCode":"23920","state":"Baja California Sur","municipality":"Mulegé","setelement":"Nueva Santa Rosalía"},{"postalCode":"23920","state":"Baja California Sur","municipality":"Mulegé","setelement":"Costa Azul"},{"postalCode":"23920","state":"Baja California Sur","municipality":"Mulegé","setelement":"Bellavista"},{"postalCode":"23920","state":"Baja California Sur","municipality":"Mulegé","setelement":"Canastilla"},{"postalCode":"23920","state":"Baja California Sur","municipality":"Mulegé","setelement":"Cuauhtémoc"},{"postalCode":"23920","state":"Baja California Sur","municipality":"Mulegé","setelement":"Mesa Francia"},{"postalCode":"23920","state":"Baja California Sur","municipality":"Mulegé","setelement":"La Villita"},{"postalCode":"23920","state":"Baja California Sur","municipality":"Mulegé","setelement":"Magisterial"},{"postalCode":"23920","state":"Baja California Sur","municipality":"Mulegé","setelement":"Ranchería"},{"postalCode":"23920","state":"Baja California Sur","municipality":"Mulegé","setelement":"Canadá"},{"postalCode":"23920","state":"Baja California Sur","municipality":"Mulegé","setelement":"Nivel 50"},{"postalCode":"23920","state":"Baja California Sur","municipality":"Mulegé","setelement":"El Retiro"},{"postalCode":"23921","state":"Baja California Sur","municipality":"Mulegé","setelement":"Santa María"},{"postalCode":"23922","state":"Baja California Sur","municipality":"Mulegé","setelement":"CERESO Santa Rosalia"},{"postalCode":"23922","state":"Baja California Sur","municipality":"Mulegé","setelement":"El Ranchito"},{"postalCode":"23923","state":"Baja California Sur","municipality":"Mulegé","setelement":"Licenciado Alfredo Vladimir Bonfil"},{"postalCode":"23924","state":"Baja California Sur","municipality":"Mulegé","setelement":"San Lino"},{"postalCode":"23930","state":"Baja California Sur","municipality":"Mulegé","setelement":"El Rincón"},{"postalCode":"23930","state":"Baja California Sur","municipality":"Mulegé","setelement":"La Correa"},{"postalCode":"23930","state":"Baja California Sur","municipality":"Mulegé","setelement":"Rastro"},{"postalCode":"23930","state":"Baja California Sur","municipality":"Mulegé","setelement":"San Ignacio Centro"},{"postalCode":"23930","state":"Baja California Sur","municipality":"Mulegé","setelement":"Guamúchil"},{"postalCode":"23930","state":"Baja California Sur","municipality":"Mulegé","setelement":"Pueblo Nuevo"},{"postalCode":"23934","state":"Baja California Sur","municipality":"Mulegé","setelement":"Los Mártires"},{"postalCode":"23934","state":"Baja California Sur","municipality":"Mulegé","setelement":"El Porvenir"},{"postalCode":"23934","state":"Baja California Sur","municipality":"Mulegé","setelement":"Guadalupe"},{"postalCode":"23934","state":"Baja California Sur","municipality":"Mulegé","setelement":"San Benito"},{"postalCode":"23935","state":"Baja California Sur","municipality":"Mulegé","setelement":"San Francisco"},{"postalCode":"23935","state":"Baja California Sur","municipality":"Mulegé","setelement":"Don Juanito"},{"postalCode":"23935","state":"Baja California Sur","municipality":"Mulegé","setelement":"Gustavo Díaz Ordaz"},{"postalCode":"23935","state":"Baja California Sur","municipality":"Mulegé","setelement":"Las Margaritas"},{"postalCode":"23936","state":"Baja California Sur","municipality":"Mulegé","setelement":"El Caracol"},{"postalCode":"23936","state":"Baja California Sur","municipality":"Mulegé","setelement":"Nueva Esperanza"},{"postalCode":"23936","state":"Baja California Sur","municipality":"Mulegé","setelement":"Emiliano Zapata"},{"postalCode":"23936","state":"Baja California Sur","municipality":"Mulegé","setelement":"El Silencio"},{"postalCode":"23938","state":"Baja California Sur","municipality":"Mulegé","setelement":"Unión y Progreso"},{"postalCode":"23938","state":"Baja California Sur","municipality":"Mulegé","setelement":"Vizcaíno"},{"postalCode":"23938","state":"Baja California Sur","municipality":"Mulegé","setelement":"Paraíso II"},{"postalCode":"23938","state":"Baja California Sur","municipality":"Mulegé","setelement":"Nueva Oaxaca"},{"postalCode":"23938","state":"Baja California Sur","municipality":"Mulegé","setelement":"Leonel Cota Montaño"},{"postalCode":"23938","state":"Baja California Sur","municipality":"Mulegé","setelement":"Villa Alberto Alvarado Aramburo"},{"postalCode":"23938","state":"Baja California Sur","municipality":"Mulegé","setelement":"Magisterial"},{"postalCode":"23938","state":"Baja California Sur","municipality":"Mulegé","setelement":"Benito Juárez"},{"postalCode":"23938","state":"Baja California Sur","municipality":"Mulegé","setelement":"Triky"},{"postalCode":"23938","state":"Baja California Sur","municipality":"Mulegé","setelement":"Elizabeth"},{"postalCode":"23940","state":"Baja California Sur","municipality":"Mulegé","setelement":"Fundo Legal"},{"postalCode":"23940","state":"Baja California Sur","municipality":"Mulegé","setelement":"El Dominó"},{"postalCode":"23940","state":"Baja California Sur","municipality":"Mulegé","setelement":"Guerrero Negro Centro"},{"postalCode":"23940","state":"Baja California Sur","municipality":"Mulegé","setelement":"Loma Bonita"},{"postalCode":"23940","state":"Baja California Sur","municipality":"Mulegé","setelement":"Solidaridad"},{"postalCode":"23940","state":"Baja California Sur","municipality":"Mulegé","setelement":"Libertad"},{"postalCode":"23940","state":"Baja California Sur","municipality":"Mulegé","setelement":"Profesor Marcelo Rubio"},{"postalCode":"23940","state":"Baja California Sur","municipality":"Mulegé","setelement":"INFONAVIT"},{"postalCode":"23940","state":"Baja California Sur","municipality":"Mulegé","setelement":"FOVISSSTE"},{"postalCode":"23940","state":"Baja California Sur","municipality":"Mulegé","setelement":"Estado 30"},{"postalCode":"23944","state":"Baja California Sur","municipality":"Mulegé","setelement":"Benito Juárez"},{"postalCode":"23944","state":"Baja California Sur","municipality":"Mulegé","setelement":"Laguneros"},{"postalCode":"23948","state":"Baja California Sur","municipality":"Mulegé","setelement":"Gustavo Diaz Ordaz II Etapa (rancho La Joya)"},{"postalCode":"23949","state":"Baja California Sur","municipality":"Mulegé","setelement":"Santo Tomás"},{"postalCode":"23949","state":"Baja California Sur","municipality":"Mulegé","setelement":"Francisco J Mújica"},{"postalCode":"23950","state":"Baja California Sur","municipality":"Mulegé","setelement":"Centro"},{"postalCode":"23950","state":"Baja California Sur","municipality":"Mulegé","setelement":"Benito Juárez"},{"postalCode":"23950","state":"Baja California Sur","municipality":"Mulegé","setelement":"Deportiva"},{"postalCode":"23950","state":"Baja California Sur","municipality":"Mulegé","setelement":"Lomas de Guadalupe"},{"postalCode":"23950","state":"Baja California Sur","municipality":"Mulegé","setelement":"1 de Septiembre"},{"postalCode":"23950","state":"Baja California Sur","municipality":"Mulegé","setelement":"Pescadores"},{"postalCode":"23950","state":"Baja California Sur","municipality":"Mulegé","setelement":"Marina Nacional"},{"postalCode":"23950","state":"Baja California Sur","municipality":"Mulegé","setelement":"Álvaro Obregón"},{"postalCode":"23950","state":"Baja California Sur","municipality":"Mulegé","setelement":"José María Morelos"},{"postalCode":"23950","state":"Baja California Sur","municipality":"Mulegé","setelement":"Loma Bonita"},{"postalCode":"23950","state":"Baja California Sur","municipality":"Mulegé","setelement":"La Purísima"},{"postalCode":"23950","state":"Baja California Sur","municipality":"Mulegé","setelement":"Auditorio"},{"postalCode":"23950","state":"Baja California Sur","municipality":"Mulegé","setelement":"Márque de León"},{"postalCode":"23950","state":"Baja California Sur","municipality":"Mulegé","setelement":"Angeles Mendoza"},{"postalCode":"23950","state":"Baja California Sur","municipality":"Mulegé","setelement":"INFONAVIT"},{"postalCode":"23950","state":"Baja California Sur","municipality":"Mulegé","setelement":"Bahía Tortugas"},{"postalCode":"23951","state":"Baja California Sur","municipality":"Mulegé","setelement":"Isla Natividad"},{"postalCode":"23952","state":"Baja California Sur","municipality":"Mulegé","setelement":"Punta Eugenia"},{"postalCode":"23959","state":"Baja California Sur","municipality":"Mulegé","setelement":"San José de Castro"},{"postalCode":"23960","state":"Baja California Sur","municipality":"Mulegé","setelement":"Bahía Asunción"},{"postalCode":"23969","state":"Baja California Sur","municipality":"Mulegé","setelement":"San Roque"},{"postalCode":"23970","state":"Baja California Sur","municipality":"Mulegé","setelement":"Punta Abreojos"},{"postalCode":"23971","state":"Baja California Sur","municipality":"Mulegé","setelement":"Punta Prieta"},{"postalCode":"23972","state":"Baja California Sur","municipality":"Mulegé","setelement":"San Hipólito Bahía"},{"postalCode":"23973","state":"Baja California Sur","municipality":"Mulegé","setelement":"Estero de la Bocana"},{"postalCode":"23980","state":"Baja California Sur","municipality":"Mulegé","setelement":"Guadalupe"},{"postalCode":"23983","state":"Baja California Sur","municipality":"Mulegé","setelement":"Guillermo Prieto"},{"postalCode":"23988","state":"Baja California Sur","municipality":"Mulegé","setelement":"San Francisco de la Sierra"},{"postalCode":"23990","state":"Baja California Sur","municipality":"Mulegé","setelement":"El Carricito"},{"postalCode":"23997","state":"Baja California Sur","municipality":"Mulegé","setelement":"El Mezquital 1"}]