[{"postalCode":"24000","state":"Campeche","municipality":"Campeche","setelement":"San Francisco de Campeche Centro"},{"postalCode":"24010","state":"Campeche","municipality":"Campeche","setelement":"Guadalupe"},{"postalCode":"24010","state":"Campeche","municipality":"Campeche","setelement":"Pablo Garcia"},{"postalCode":"24010","state":"Campeche","municipality":"Campeche","setelement":"San Francisco"},{"postalCode":"24010","state":"Campeche","municipality":"Campeche","setelement":"Villa del Río"},{"postalCode":"24010","state":"Campeche","municipality":"Campeche","setelement":"Guadalupe"},{"postalCode":"24014","state":"Campeche","municipality":"Campeche","setelement":"Ah-kim-pech"},{"postalCode":"24020","state":"Campeche","municipality":"Campeche","setelement":"Residencial del Bosque"},{"postalCode":"24020","state":"Campeche","municipality":"Campeche","setelement":"Bellavista"},{"postalCode":"24020","state":"Campeche","municipality":"Campeche","setelement":"Ampliación Bellavista"},{"postalCode":"24020","state":"Campeche","municipality":"Campeche","setelement":"Emiliano Zapata"},{"postalCode":"24020","state":"Campeche","municipality":"Campeche","setelement":"La Ermita"},{"postalCode":"24020","state":"Campeche","municipality":"Campeche","setelement":"San Joaquín"},{"postalCode":"24020","state":"Campeche","municipality":"Campeche","setelement":"Santa Lucia"},{"postalCode":"24020","state":"Campeche","municipality":"Campeche","setelement":"Camino Real"},{"postalCode":"24020","state":"Campeche","municipality":"Campeche","setelement":"Benito Juárez"},{"postalCode":"24020","state":"Campeche","municipality":"Campeche","setelement":"Buenos Aires"},{"postalCode":"24020","state":"Campeche","municipality":"Campeche","setelement":"San Caralampio"},{"postalCode":"24020","state":"Campeche","municipality":"Campeche","setelement":"Dzarbay"},{"postalCode":"24020","state":"Campeche","municipality":"Campeche","setelement":"Sotavento"},{"postalCode":"24020","state":"Campeche","municipality":"Campeche","setelement":"Villamar"},{"postalCode":"24022","state":"Campeche","municipality":"Campeche","setelement":"Montecarlo"},{"postalCode":"24022","state":"Campeche","municipality":"Campeche","setelement":"Carzabela"},{"postalCode":"24023","state":"Campeche","municipality":"Campeche","setelement":"Fidel Velázquez"},{"postalCode":"24023","state":"Campeche","municipality":"Campeche","setelement":"Las Murallas"},{"postalCode":"24023","state":"Campeche","municipality":"Campeche","setelement":"Residencial Algarrobo"},{"postalCode":"24023","state":"Campeche","municipality":"Campeche","setelement":"Ernesto Zedillo"},{"postalCode":"24023","state":"Campeche","municipality":"Campeche","setelement":"Residencial Campestre"},{"postalCode":"24023","state":"Campeche","municipality":"Campeche","setelement":"Nachi Cocom"},{"postalCode":"24023","state":"Campeche","municipality":"Campeche","setelement":"Quinta Hermosa"},{"postalCode":"24023","state":"Campeche","municipality":"Campeche","setelement":"Hacienda Real el Fenix"},{"postalCode":"24024","state":"Campeche","municipality":"Campeche","setelement":"Mártires de Río Blanco"},{"postalCode":"24025","state":"Campeche","municipality":"Campeche","setelement":"Solidaridad Nacional"},{"postalCode":"24026","state":"Campeche","municipality":"Campeche","setelement":"Granjas"},{"postalCode":"24026","state":"Campeche","municipality":"Campeche","setelement":"Morelos"},{"postalCode":"24026","state":"Campeche","municipality":"Campeche","setelement":"San José el Alto"},{"postalCode":"24026","state":"Campeche","municipality":"Campeche","setelement":"Divino Niño"},{"postalCode":"24026","state":"Campeche","municipality":"Campeche","setelement":"Minas"},{"postalCode":"24026","state":"Campeche","municipality":"Campeche","setelement":"Cumbres"},{"postalCode":"24026","state":"Campeche","municipality":"Campeche","setelement":"Valle Dorado"},{"postalCode":"24026","state":"Campeche","municipality":"Campeche","setelement":"Ampliación Josefa Ortiz de Domínguez"},{"postalCode":"24026","state":"Campeche","municipality":"Campeche","setelement":"Mirador"},{"postalCode":"24026","state":"Campeche","municipality":"Campeche","setelement":"Elvia María Pérez de González"},{"postalCode":"24026","state":"Campeche","municipality":"Campeche","setelement":"Viveros"},{"postalCode":"24026","state":"Campeche","municipality":"Campeche","setelement":"Diana Laura"},{"postalCode":"24026","state":"Campeche","municipality":"Campeche","setelement":"Luis Donaldo Colosio"},{"postalCode":"24026","state":"Campeche","municipality":"Campeche","setelement":"Palma Real"},{"postalCode":"24027","state":"Campeche","municipality":"Campeche","setelement":"Palmas"},{"postalCode":"24027","state":"Campeche","municipality":"Campeche","setelement":"San Miguel"},{"postalCode":"24027","state":"Campeche","municipality":"Campeche","setelement":"Villa Mercedes"},{"postalCode":"24028","state":"Campeche","municipality":"Campeche","setelement":"Villas de Ah-kim-Pech"},{"postalCode":"24028","state":"Campeche","municipality":"Campeche","setelement":"Cocotero de las Palmas"},{"postalCode":"24029","state":"Campeche","municipality":"Campeche","setelement":"Centro SCT Campeche"},{"postalCode":"24030","state":"Campeche","municipality":"Campeche","setelement":"Bosques de Campeche"},{"postalCode":"24030","state":"Campeche","municipality":"Campeche","setelement":"Héroes de Chapultepec (FOVI)"},{"postalCode":"24030","state":"Campeche","municipality":"Campeche","setelement":"Resurgimiento"},{"postalCode":"24030","state":"Campeche","municipality":"Campeche","setelement":"CEDAR Campeche"},{"postalCode":"24030","state":"Campeche","municipality":"Campeche","setelement":"Miramar"},{"postalCode":"24030","state":"Campeche","municipality":"Campeche","setelement":"Lomas del Castillo"},{"postalCode":"24030","state":"Campeche","municipality":"Campeche","setelement":"Villas Universidad"},{"postalCode":"24035","state":"Campeche","municipality":"Campeche","setelement":"Lomas del Rey"},{"postalCode":"24035","state":"Campeche","municipality":"Campeche","setelement":"Villas de Allende"},{"postalCode":"24035","state":"Campeche","municipality":"Campeche","setelement":"San Cayetano"},{"postalCode":"24035","state":"Campeche","municipality":"Campeche","setelement":"San Arturo"},{"postalCode":"24035","state":"Campeche","municipality":"Campeche","setelement":"Burócratas Pensiones"},{"postalCode":"24035","state":"Campeche","municipality":"Campeche","setelement":"Cerro de La Eminencia"},{"postalCode":"24035","state":"Campeche","municipality":"Campeche","setelement":"Vicente Guerrero"},{"postalCode":"24035","state":"Campeche","municipality":"Campeche","setelement":"Prado"},{"postalCode":"24035","state":"Campeche","municipality":"Campeche","setelement":"Lomas del Pedregal"},{"postalCode":"24035","state":"Campeche","municipality":"Campeche","setelement":"Residencial Pedregal"},{"postalCode":"24035","state":"Campeche","municipality":"Campeche","setelement":"Invasión San Arturo"},{"postalCode":"24036","state":"Campeche","municipality":"Campeche","setelement":"Adolfo López Mateos (SUTERM)"},{"postalCode":"24036","state":"Campeche","municipality":"Campeche","setelement":"El Pedregal"},{"postalCode":"24036","state":"Campeche","municipality":"Campeche","setelement":"Electricistas"},{"postalCode":"24037","state":"Campeche","municipality":"Campeche","setelement":"Ciudad Militar"},{"postalCode":"24038","state":"Campeche","municipality":"Campeche","setelement":"Kanisté"},{"postalCode":"24038","state":"Campeche","municipality":"Campeche","setelement":"Kaniste"},{"postalCode":"24038","state":"Campeche","municipality":"Campeche","setelement":"Rinconada del Valle"},{"postalCode":"24038","state":"Campeche","municipality":"Campeche","setelement":"Monte Verde"},{"postalCode":"24039","state":"Campeche","municipality":"Campeche","setelement":"Buenavista"},{"postalCode":"24040","state":"Campeche","municipality":"Campeche","setelement":"San José"},{"postalCode":"24040","state":"Campeche","municipality":"Campeche","setelement":"San Román"},{"postalCode":"24040","state":"Campeche","municipality":"Campeche","setelement":"Privada Narciso Mendoza"},{"postalCode":"24044","state":"Campeche","municipality":"Campeche","setelement":"Montecristo"},{"postalCode":"24044","state":"Campeche","municipality":"Campeche","setelement":"Lazareto"},{"postalCode":"24044","state":"Campeche","municipality":"Campeche","setelement":"Residencial Resurgimiento"},{"postalCode":"24049","state":"Campeche","municipality":"Campeche","setelement":"Bicentenario I y II"},{"postalCode":"24050","state":"Campeche","municipality":"Campeche","setelement":"FOVISSSTE Belén"},{"postalCode":"24050","state":"Campeche","municipality":"Campeche","setelement":"Santa Ana"},{"postalCode":"24050","state":"Campeche","municipality":"Campeche","setelement":"Villa Tulipanes"},{"postalCode":"24050","state":"Campeche","municipality":"Campeche","setelement":"San Juan"},{"postalCode":"24050","state":"Campeche","municipality":"Campeche","setelement":"La Paz"},{"postalCode":"24050","state":"Campeche","municipality":"Campeche","setelement":"La Huerta"},{"postalCode":"24050","state":"Campeche","municipality":"Campeche","setelement":"Parque Residencial La Noria"},{"postalCode":"24050","state":"Campeche","municipality":"Campeche","setelement":"Privada Guadalupana"},{"postalCode":"24050","state":"Campeche","municipality":"Campeche","setelement":"Hollywood"},{"postalCode":"24050","state":"Campeche","municipality":"Campeche","setelement":"Campeche 1"},{"postalCode":"24050","state":"Campeche","municipality":"Campeche","setelement":"Santa Ana"},{"postalCode":"24058","state":"Campeche","municipality":"Campeche","setelement":"Caribe"},{"postalCode":"24060","state":"Campeche","municipality":"Campeche","setelement":"Valle del Águila"},{"postalCode":"24060","state":"Campeche","municipality":"Campeche","setelement":"El Polvorín"},{"postalCode":"24060","state":"Campeche","municipality":"Campeche","setelement":"Ampliación Polvorín"},{"postalCode":"24060","state":"Campeche","municipality":"Campeche","setelement":"Jardines"},{"postalCode":"24060","state":"Campeche","municipality":"Campeche","setelement":"Tomas Aznar"},{"postalCode":"24060","state":"Campeche","municipality":"Campeche","setelement":"Sector Las Flores"},{"postalCode":"24060","state":"Campeche","municipality":"Campeche","setelement":"Residencial Bugambilias"},{"postalCode":"24060","state":"Campeche","municipality":"Campeche","setelement":"Tabachines"},{"postalCode":"24060","state":"Campeche","municipality":"Campeche","setelement":"Lomas del Polvorín"},{"postalCode":"24060","state":"Campeche","municipality":"Campeche","setelement":"Leovigildo Gómez"},{"postalCode":"24060","state":"Campeche","municipality":"Campeche","setelement":"Unidad y Esperanza"},{"postalCode":"24060","state":"Campeche","municipality":"Campeche","setelement":"Solidaridad Urbana"},{"postalCode":"24060","state":"Campeche","municipality":"Campeche","setelement":"Lomas de las Flores"},{"postalCode":"24060","state":"Campeche","municipality":"Campeche","setelement":"Montebello"},{"postalCode":"24060","state":"Campeche","municipality":"Campeche","setelement":"Naval Campeche III"},{"postalCode":"24060","state":"Campeche","municipality":"Campeche","setelement":"Residencial Delicias"},{"postalCode":"24060","state":"Campeche","municipality":"Campeche","setelement":"Lomas Delicias"},{"postalCode":"24060","state":"Campeche","municipality":"Campeche","setelement":"Lomas"},{"postalCode":"24060","state":"Campeche","municipality":"Campeche","setelement":"Las Quintas"},{"postalCode":"24060","state":"Campeche","municipality":"Campeche","setelement":"Colinas del Sur"},{"postalCode":"24060","state":"Campeche","municipality":"Campeche","setelement":"Casa Blanca"},{"postalCode":"24060","state":"Campeche","municipality":"Campeche","setelement":"Altavista"},{"postalCode":"24060","state":"Campeche","municipality":"Campeche","setelement":"Lomas de las Flores II"},{"postalCode":"24060","state":"Campeche","municipality":"Campeche","setelement":"Villas de Monte Real"},{"postalCode":"24060","state":"Campeche","municipality":"Campeche","setelement":"Tacubaya"},{"postalCode":"24060","state":"Campeche","municipality":"Campeche","setelement":"Villareal"},{"postalCode":"24069","state":"Campeche","municipality":"Campeche","setelement":"Flor de Limón"},{"postalCode":"24070","state":"Campeche","municipality":"Campeche","setelement":"Aviación"},{"postalCode":"24070","state":"Campeche","municipality":"Campeche","setelement":"Cuatro Caminos"},{"postalCode":"24070","state":"Campeche","municipality":"Campeche","setelement":"Ampliación Cuatro Caminos"},{"postalCode":"24070","state":"Campeche","municipality":"Campeche","setelement":"Huanal"},{"postalCode":"24070","state":"Campeche","municipality":"Campeche","setelement":"Justo Sierra Méndez"},{"postalCode":"24070","state":"Campeche","municipality":"Campeche","setelement":"Santa Bárbara"},{"postalCode":"24070","state":"Campeche","municipality":"Campeche","setelement":"Cuatro Caminos"},{"postalCode":"24070","state":"Campeche","municipality":"Campeche","setelement":"Bello Horizonte"},{"postalCode":"24070","state":"Campeche","municipality":"Campeche","setelement":"Héroe de Nacozari"},{"postalCode":"24070","state":"Campeche","municipality":"Campeche","setelement":"Hacienda Santa María"},{"postalCode":"24070","state":"Campeche","municipality":"Campeche","setelement":"Colonia México"},{"postalCode":"24070","state":"Campeche","municipality":"Campeche","setelement":"Justicia Social"},{"postalCode":"24070","state":"Campeche","municipality":"Campeche","setelement":"Quinta de Los Españoles"},{"postalCode":"24073","state":"Campeche","municipality":"Campeche","setelement":"Siglo XXI"},{"postalCode":"24075","state":"Campeche","municipality":"Campeche","setelement":"El Carmelo"},{"postalCode":"24079","state":"Campeche","municipality":"Campeche","setelement":"Campeche (Ing. Alberto Acuña Ongay)"},{"postalCode":"24080","state":"Campeche","municipality":"Campeche","setelement":"Esperanza"},{"postalCode":"24080","state":"Campeche","municipality":"Campeche","setelement":"Ampliación Esperanza"},{"postalCode":"24080","state":"Campeche","municipality":"Campeche","setelement":"Pablo Garcia"},{"postalCode":"24080","state":"Campeche","municipality":"Campeche","setelement":"Revolución"},{"postalCode":"24080","state":"Campeche","municipality":"Campeche","setelement":"Ampliación Revolución"},{"postalCode":"24080","state":"Campeche","municipality":"Campeche","setelement":"Josefa Ortiz de Domínguez"},{"postalCode":"24080","state":"Campeche","municipality":"Campeche","setelement":"Ampliación Invasión Esperanza"},{"postalCode":"24080","state":"Campeche","municipality":"Campeche","setelement":"Emiliano Zapata"},{"postalCode":"24083","state":"Campeche","municipality":"Campeche","setelement":"Fátima"},{"postalCode":"24084","state":"Campeche","municipality":"Campeche","setelement":"Siglo XXIII"},{"postalCode":"24084","state":"Campeche","municipality":"Campeche","setelement":"Nuevo San Antonio Ebulá"},{"postalCode":"24085","state":"Campeche","municipality":"Campeche","setelement":"Villas de Kala"},{"postalCode":"24085","state":"Campeche","municipality":"Campeche","setelement":"Altamira"},{"postalCode":"24085","state":"Campeche","municipality":"Campeche","setelement":"Ciudad Concordia"},{"postalCode":"24085","state":"Campeche","municipality":"Campeche","setelement":"Bosque Real"},{"postalCode":"24085","state":"Campeche","municipality":"Campeche","setelement":"Kala"},{"postalCode":"24085","state":"Campeche","municipality":"Campeche","setelement":"Ramón Espíndola Blanco"},{"postalCode":"24085","state":"Campeche","municipality":"Campeche","setelement":"Murallas FSTSE"},{"postalCode":"24085","state":"Campeche","municipality":"Campeche","setelement":"Residencial La Hacienda"},{"postalCode":"24085","state":"Campeche","municipality":"Campeche","setelement":"Ampliación Ciudad Concordia"},{"postalCode":"24085","state":"Campeche","municipality":"Campeche","setelement":"Invasión Esperanza"},{"postalCode":"24085","state":"Campeche","municipality":"Campeche","setelement":"20 de Noviembre"},{"postalCode":"24086","state":"Campeche","municipality":"Campeche","setelement":"Villa Flora"},{"postalCode":"24086","state":"Campeche","municipality":"Campeche","setelement":"Santa Lucía"},{"postalCode":"24086","state":"Campeche","municipality":"Campeche","setelement":"Villa Turquesa"},{"postalCode":"24087","state":"Campeche","municipality":"Campeche","setelement":"Los Reyes"},{"postalCode":"24087","state":"Campeche","municipality":"Campeche","setelement":"Eduardo J. Lavalle Urbina"},{"postalCode":"24087","state":"Campeche","municipality":"Campeche","setelement":"Privada Exhacienda Kala"},{"postalCode":"24087","state":"Campeche","municipality":"Campeche","setelement":"Colonial Campeche"},{"postalCode":"24087","state":"Campeche","municipality":"Campeche","setelement":"Caminero"},{"postalCode":"24087","state":"Campeche","municipality":"Campeche","setelement":"Ampliación Kala"},{"postalCode":"24087","state":"Campeche","municipality":"Campeche","setelement":"Hacienda San Antonio"},{"postalCode":"24087","state":"Campeche","municipality":"Campeche","setelement":"Tula"},{"postalCode":"24087","state":"Campeche","municipality":"Campeche","setelement":"Vista Hermosa"},{"postalCode":"24087","state":"Campeche","municipality":"Campeche","setelement":"Privada Residencial Colonial"},{"postalCode":"24087","state":"Campeche","municipality":"Campeche","setelement":"Terranova"},{"postalCode":"24088","state":"Campeche","municipality":"Campeche","setelement":"Alameda"},{"postalCode":"24088","state":"Campeche","municipality":"Campeche","setelement":"Las Arboledas"},{"postalCode":"24088","state":"Campeche","municipality":"Campeche","setelement":"Héroes de la Revolución"},{"postalCode":"24088","state":"Campeche","municipality":"Campeche","setelement":"Unidad y Trabajo Plan-chac"},{"postalCode":"24088","state":"Campeche","municipality":"Campeche","setelement":"Villa Naranjos"},{"postalCode":"24088","state":"Campeche","municipality":"Campeche","setelement":"Fénix"},{"postalCode":"24088","state":"Campeche","municipality":"Campeche","setelement":"Presidentes de México"},{"postalCode":"24088","state":"Campeche","municipality":"Campeche","setelement":"Paseo de Campeche"},{"postalCode":"24088","state":"Campeche","municipality":"Campeche","setelement":"Los Cedros"},{"postalCode":"24088","state":"Campeche","municipality":"Campeche","setelement":"Guadalupe Victoria"},{"postalCode":"24088","state":"Campeche","municipality":"Campeche","setelement":"VIVAH"},{"postalCode":"24088","state":"Campeche","municipality":"Campeche","setelement":"Villas la Hacienda"},{"postalCode":"24088","state":"Campeche","municipality":"Campeche","setelement":"El Vergel"},{"postalCode":"24088","state":"Campeche","municipality":"Campeche","setelement":"Los Álamos"},{"postalCode":"24088","state":"Campeche","municipality":"Campeche","setelement":"Reforma"},{"postalCode":"24088","state":"Campeche","municipality":"Campeche","setelement":"Colonia"},{"postalCode":"24088","state":"Campeche","municipality":"Campeche","setelement":"Insurgentes"},{"postalCode":"24088","state":"Campeche","municipality":"Campeche","setelement":"Independencia"},{"postalCode":"24089","state":"Campeche","municipality":"Campeche","setelement":"Peña"},{"postalCode":"24090","state":"Campeche","municipality":"Campeche","setelement":"Fracciorama 2000"},{"postalCode":"24090","state":"Campeche","municipality":"Campeche","setelement":"Samulá"},{"postalCode":"24090","state":"Campeche","municipality":"Campeche","setelement":"San Rafael"},{"postalCode":"24090","state":"Campeche","municipality":"Campeche","setelement":"Valle del Sol"},{"postalCode":"24090","state":"Campeche","municipality":"Campeche","setelement":"Residencial Villas Colosio"},{"postalCode":"24090","state":"Campeche","municipality":"Campeche","setelement":"Villas Residencial"},{"postalCode":"24090","state":"Campeche","municipality":"Campeche","setelement":"Nueva Era"},{"postalCode":"24090","state":"Campeche","municipality":"Campeche","setelement":"Los Sauces"},{"postalCode":"24090","state":"Campeche","municipality":"Campeche","setelement":"Villas de Samula"},{"postalCode":"24090","state":"Campeche","municipality":"Campeche","setelement":"La Vista"},{"postalCode":"24090","state":"Campeche","municipality":"Campeche","setelement":"Ampliación San Rafael"},{"postalCode":"24090","state":"Campeche","municipality":"Campeche","setelement":"Rinconada Samula"},{"postalCode":"24090","state":"Campeche","municipality":"Campeche","setelement":"Infonavit Samula"},{"postalCode":"24090","state":"Campeche","municipality":"Campeche","setelement":"Las Campanillas"},{"postalCode":"24090","state":"Campeche","municipality":"Campeche","setelement":"Flor de Liz"},{"postalCode":"24090","state":"Campeche","municipality":"Campeche","setelement":"San Andrés"},{"postalCode":"24090","state":"Campeche","municipality":"Campeche","setelement":"Girasoles"},{"postalCode":"24090","state":"Campeche","municipality":"Campeche","setelement":"Villa Jazmín"},{"postalCode":"24093","state":"Campeche","municipality":"Campeche","setelement":"Villas Residencial (Ix-Lol-Be)"},{"postalCode":"24093","state":"Campeche","municipality":"Campeche","setelement":"Residencial La Arboleda"},{"postalCode":"24094","state":"Campeche","municipality":"Campeche","setelement":"Miguel Hidalgo"},{"postalCode":"24094","state":"Campeche","municipality":"Campeche","setelement":"Ampliación Miguel Hidalgo"},{"postalCode":"24094","state":"Campeche","municipality":"Campeche","setelement":"La Cañada"},{"postalCode":"24094","state":"Campeche","municipality":"Campeche","setelement":"Ampliación Ignacio Zaragoza"},{"postalCode":"24094","state":"Campeche","municipality":"Campeche","setelement":"Ampliación Samulá"},{"postalCode":"24094","state":"Campeche","municipality":"Campeche","setelement":"Miramar"},{"postalCode":"24094","state":"Campeche","municipality":"Campeche","setelement":"Villa Laureles II"},{"postalCode":"24094","state":"Campeche","municipality":"Campeche","setelement":"Esmeralda"},{"postalCode":"24095","state":"Campeche","municipality":"Campeche","setelement":"Residencial los Almendros"},{"postalCode":"24095","state":"Campeche","municipality":"Campeche","setelement":"Sascalum"},{"postalCode":"24095","state":"Campeche","municipality":"Campeche","setelement":"Residencial San Francisco"},{"postalCode":"24095","state":"Campeche","municipality":"Campeche","setelement":"Lázaro Cárdenas"},{"postalCode":"24095","state":"Campeche","municipality":"Campeche","setelement":"Reforma Agraria"},{"postalCode":"24095","state":"Campeche","municipality":"Campeche","setelement":"Villa Laureles"},{"postalCode":"24095","state":"Campeche","municipality":"Campeche","setelement":"Multunchac"},{"postalCode":"24095","state":"Campeche","municipality":"Campeche","setelement":"Villa Dalias"},{"postalCode":"24095","state":"Campeche","municipality":"Campeche","setelement":"18 de Marzo"},{"postalCode":"24095","state":"Campeche","municipality":"Campeche","setelement":"El Doral"},{"postalCode":"24096","state":"Campeche","municipality":"Campeche","setelement":"Lindavista C.T.M."},{"postalCode":"24096","state":"Campeche","municipality":"Campeche","setelement":"Los Laureles"},{"postalCode":"24096","state":"Campeche","municipality":"Campeche","setelement":"Tepeyac"},{"postalCode":"24096","state":"Campeche","municipality":"Campeche","setelement":"Guadalajara"},{"postalCode":"24097","state":"Campeche","municipality":"Campeche","setelement":"Las Flores"},{"postalCode":"24097","state":"Campeche","municipality":"Campeche","setelement":"Las Rosas"},{"postalCode":"24097","state":"Campeche","municipality":"Campeche","setelement":"Bugambilias"},{"postalCode":"24097","state":"Campeche","municipality":"Campeche","setelement":"Santa Cecilia"},{"postalCode":"24098","state":"Campeche","municipality":"Campeche","setelement":"Ignacio Zaragoza"},{"postalCode":"24098","state":"Campeche","municipality":"Campeche","setelement":"Lomas de Zaragoza"},{"postalCode":"24099","state":"Campeche","municipality":"Campeche","setelement":"Lomas de San Rafael"},{"postalCode":"24099","state":"Campeche","municipality":"Campeche","setelement":"San Antonio"},{"postalCode":"24099","state":"Campeche","municipality":"Campeche","setelement":"San Rafael"},{"postalCode":"24099","state":"Campeche","municipality":"Campeche","setelement":"Ampliación San Antonio"},{"postalCode":"24100","state":"Campeche","municipality":"Carmen","setelement":"Ciudad del Carmen Centro"},{"postalCode":"24108","state":"Campeche","municipality":"Carmen","setelement":"CERESO Ciudad del Carmen"},{"postalCode":"24110","state":"Campeche","municipality":"Carmen","setelement":"Caleta"},{"postalCode":"24110","state":"Campeche","municipality":"Carmen","setelement":"Héctor Pérez Martínez"},{"postalCode":"24110","state":"Campeche","municipality":"Carmen","setelement":"Fátima"},{"postalCode":"24110","state":"Campeche","municipality":"Carmen","setelement":"1 de Mayo (Playón)"},{"postalCode":"24110","state":"Campeche","municipality":"Carmen","setelement":"San Agustin del Palmar"},{"postalCode":"24114","state":"Campeche","municipality":"Carmen","setelement":"Justo Sierra"},{"postalCode":"24115","state":"Campeche","municipality":"Carmen","setelement":"Marina del Rey"},{"postalCode":"24115","state":"Campeche","municipality":"Carmen","setelement":"Morelos"},{"postalCode":"24115","state":"Campeche","municipality":"Carmen","setelement":"Miami"},{"postalCode":"24115","state":"Campeche","municipality":"Carmen","setelement":"Monte Bello"},{"postalCode":"24115","state":"Campeche","municipality":"Carmen","setelement":"Playa Norte"},{"postalCode":"24116","state":"Campeche","municipality":"Carmen","setelement":"San Carlos"},{"postalCode":"24116","state":"Campeche","municipality":"Carmen","setelement":"Boquerón del Palmar"},{"postalCode":"24117","state":"Campeche","municipality":"Carmen","setelement":"Obrera"},{"postalCode":"24118","state":"Campeche","municipality":"Carmen","setelement":"San Nicolás"},{"postalCode":"24119","state":"Campeche","municipality":"Carmen","setelement":"Ciudad del Carmen (Ciudad del Carmen)"},{"postalCode":"24119","state":"Campeche","municipality":"Carmen","setelement":"Aeropuerto"},{"postalCode":"24120","state":"Campeche","municipality":"Carmen","setelement":"Electricistas"},{"postalCode":"24120","state":"Campeche","municipality":"Carmen","setelement":"Revolución"},{"postalCode":"24120","state":"Campeche","municipality":"Carmen","setelement":"Santa Margarita"},{"postalCode":"24129","state":"Campeche","municipality":"Carmen","setelement":"Puerto Pesquero"},{"postalCode":"24130","state":"Campeche","municipality":"Carmen","setelement":"Guadalupe"},{"postalCode":"24130","state":"Campeche","municipality":"Carmen","setelement":"San Miguel"},{"postalCode":"24130","state":"Campeche","municipality":"Carmen","setelement":"20 de Noviembre"},{"postalCode":"24139","state":"Campeche","municipality":"Carmen","setelement":"Guanal"},{"postalCode":"24139","state":"Campeche","municipality":"Carmen","setelement":"Puntilla"},{"postalCode":"24140","state":"Campeche","municipality":"Carmen","setelement":"Pallas"},{"postalCode":"24150","state":"Campeche","municipality":"Carmen","setelement":"Belisario Domínguez"},{"postalCode":"24150","state":"Campeche","municipality":"Carmen","setelement":"Luis Donaldo Colosio"},{"postalCode":"24150","state":"Campeche","municipality":"Carmen","setelement":"La Rivera"},{"postalCode":"24153","state":"Campeche","municipality":"Carmen","setelement":"Residencial Las Palmas"},{"postalCode":"24153","state":"Campeche","municipality":"Carmen","setelement":"Mundo Maya"},{"postalCode":"24154","state":"Campeche","municipality":"Carmen","setelement":"Arcila"},{"postalCode":"24154","state":"Campeche","municipality":"Carmen","setelement":"Compositores"},{"postalCode":"24154","state":"Campeche","municipality":"Carmen","setelement":"Isla del Carmen 2000"},{"postalCode":"24154","state":"Campeche","municipality":"Carmen","setelement":"Los Arcos"},{"postalCode":"24154","state":"Campeche","municipality":"Carmen","setelement":"Maderas"},{"postalCode":"24154","state":"Campeche","municipality":"Carmen","setelement":"Perla del Golfo"},{"postalCode":"24154","state":"Campeche","municipality":"Carmen","setelement":"Puente de La Unidad"},{"postalCode":"24154","state":"Campeche","municipality":"Carmen","setelement":"San Francisco"},{"postalCode":"24154","state":"Campeche","municipality":"Carmen","setelement":"San Manuel"},{"postalCode":"24154","state":"Campeche","municipality":"Carmen","setelement":"Rafael del J Lozano Contreras"},{"postalCode":"24154","state":"Campeche","municipality":"Carmen","setelement":"Pueblo Maya"},{"postalCode":"24154","state":"Campeche","municipality":"Carmen","setelement":"Palmira"},{"postalCode":"24154","state":"Campeche","municipality":"Carmen","setelement":"Los Ríos"},{"postalCode":"24155","state":"Campeche","municipality":"Carmen","setelement":"Renovación I"},{"postalCode":"24155","state":"Campeche","municipality":"Carmen","setelement":"Renovación II"},{"postalCode":"24155","state":"Campeche","municipality":"Carmen","setelement":"23 de Julio"},{"postalCode":"24155","state":"Campeche","municipality":"Carmen","setelement":"Plutarco Elías Calles"},{"postalCode":"24155","state":"Campeche","municipality":"Carmen","setelement":"Solidaridad Urbana"},{"postalCode":"24155","state":"Campeche","municipality":"Carmen","setelement":"Volcanes"},{"postalCode":"24155","state":"Campeche","municipality":"Carmen","setelement":"Renovación III"},{"postalCode":"24155","state":"Campeche","municipality":"Carmen","setelement":"Isla de Tris"},{"postalCode":"24155","state":"Campeche","municipality":"Carmen","setelement":"Villa San José"},{"postalCode":"24155","state":"Campeche","municipality":"Carmen","setelement":"Villa Universitaria"},{"postalCode":"24155","state":"Campeche","municipality":"Carmen","setelement":"Villa Conejo"},{"postalCode":"24155","state":"Campeche","municipality":"Carmen","setelement":"Bugambilias"},{"postalCode":"24155","state":"Campeche","municipality":"Carmen","setelement":"San Capistrano"},{"postalCode":"24155","state":"Campeche","municipality":"Carmen","setelement":"Santa Mónica"},{"postalCode":"24155","state":"Campeche","municipality":"Carmen","setelement":"Villas de Santa Ana"},{"postalCode":"24156","state":"Campeche","municipality":"Carmen","setelement":"Residencial El Cielo"},{"postalCode":"24156","state":"Campeche","municipality":"Carmen","setelement":"Puerta de Hierro"},{"postalCode":"24156","state":"Campeche","municipality":"Carmen","setelement":"El Dorado"},{"postalCode":"24156","state":"Campeche","municipality":"Carmen","setelement":"Villa del Mar"},{"postalCode":"24156","state":"Campeche","municipality":"Carmen","setelement":"Villa Florencia"},{"postalCode":"24156","state":"Campeche","municipality":"Carmen","setelement":"Villa de Los Ángeles"},{"postalCode":"24156","state":"Campeche","municipality":"Carmen","setelement":"Villa Encantada"},{"postalCode":"24156","state":"Campeche","municipality":"Carmen","setelement":"Mediterráneo"},{"postalCode":"24157","state":"Campeche","municipality":"Carmen","setelement":"Buenavista"},{"postalCode":"24157","state":"Campeche","municipality":"Carmen","setelement":"Turquesa"},{"postalCode":"24157","state":"Campeche","municipality":"Carmen","setelement":"Rinconada"},{"postalCode":"24157","state":"Campeche","municipality":"Carmen","setelement":"Residencial Vistancias"},{"postalCode":"24157","state":"Campeche","municipality":"Carmen","setelement":"Club Residencial Azul"},{"postalCode":"24157","state":"Campeche","municipality":"Carmen","setelement":"Mar Azul"},{"postalCode":"24157","state":"Campeche","municipality":"Carmen","setelement":"Bicentenario"},{"postalCode":"24157","state":"Campeche","municipality":"Carmen","setelement":"Paseo de los Bosques"},{"postalCode":"24157","state":"Campeche","municipality":"Carmen","setelement":"San Joaquín"},{"postalCode":"24157","state":"Campeche","municipality":"Carmen","setelement":"Puesta del Sol"},{"postalCode":"24157","state":"Campeche","municipality":"Carmen","setelement":"San Joaquín"},{"postalCode":"24157","state":"Campeche","municipality":"Carmen","setelement":"Santa Isabel"},{"postalCode":"24157","state":"Campeche","municipality":"Carmen","setelement":"Residencial San Miguel"},{"postalCode":"24157","state":"Campeche","municipality":"Carmen","setelement":"Privada Santa Ana"},{"postalCode":"24157","state":"Campeche","municipality":"Carmen","setelement":"Privada San Joaquín"},{"postalCode":"24157","state":"Campeche","municipality":"Carmen","setelement":"Playa Palmas"},{"postalCode":"24157","state":"Campeche","municipality":"Carmen","setelement":"Las Esperanzas"},{"postalCode":"24157","state":"Campeche","municipality":"Carmen","setelement":"Real del Carmen"},{"postalCode":"24157","state":"Campeche","municipality":"Carmen","setelement":"Hacienda Dorada"},{"postalCode":"24157","state":"Campeche","municipality":"Carmen","setelement":"Girasoles"},{"postalCode":"24157","state":"Campeche","municipality":"Carmen","setelement":"Raíces"},{"postalCode":"24157","state":"Campeche","municipality":"Carmen","setelement":"Villas del Carmen"},{"postalCode":"24157","state":"Campeche","municipality":"Carmen","setelement":"Villa Magna"},{"postalCode":"24157","state":"Campeche","municipality":"Carmen","setelement":"Villa Marina"},{"postalCode":"24157","state":"Campeche","municipality":"Carmen","setelement":"Misión del Carmen"},{"postalCode":"24157","state":"Campeche","municipality":"Carmen","setelement":"Reforma II Sección"},{"postalCode":"24157","state":"Campeche","municipality":"Carmen","setelement":"La Esperanza"},{"postalCode":"24157","state":"Campeche","municipality":"Carmen","setelement":"Evergreén"},{"postalCode":"24157","state":"Campeche","municipality":"Carmen","setelement":"José Ortiz Ávila"},{"postalCode":"24157","state":"Campeche","municipality":"Carmen","setelement":"Hacienda del Mar"},{"postalCode":"24157","state":"Campeche","municipality":"Carmen","setelement":"San Román"},{"postalCode":"24157","state":"Campeche","municipality":"Carmen","setelement":"Canterías"},{"postalCode":"24157","state":"Campeche","municipality":"Carmen","setelement":"Villa Palmeras"},{"postalCode":"24157","state":"Campeche","municipality":"Carmen","setelement":"18 de Marzo"},{"postalCode":"24157","state":"Campeche","municipality":"Carmen","setelement":"Privanzas"},{"postalCode":"24158","state":"Campeche","municipality":"Carmen","setelement":"Orizaba"},{"postalCode":"24158","state":"Campeche","municipality":"Carmen","setelement":"Constelaciones"},{"postalCode":"24158","state":"Campeche","municipality":"Carmen","setelement":"Bivalbo"},{"postalCode":"24158","state":"Campeche","municipality":"Carmen","setelement":"Héroes de Nacozari"},{"postalCode":"24158","state":"Campeche","municipality":"Carmen","setelement":"Reforma"},{"postalCode":"24158","state":"Campeche","municipality":"Carmen","setelement":"Residencial del Lago"},{"postalCode":"24158","state":"Campeche","municipality":"Carmen","setelement":"Santa Rita"},{"postalCode":"24158","state":"Campeche","municipality":"Carmen","setelement":"Las Huertas"},{"postalCode":"24158","state":"Campeche","municipality":"Carmen","setelement":"Mujeres Carmelitas"},{"postalCode":"24158","state":"Campeche","municipality":"Carmen","setelement":"El Potrero"},{"postalCode":"24158","state":"Campeche","municipality":"Carmen","setelement":"Constelaciones II"},{"postalCode":"24160","state":"Campeche","municipality":"Carmen","setelement":"Burócrata"},{"postalCode":"24166","state":"Campeche","municipality":"Carmen","setelement":"Justo Sierra"},{"postalCode":"24167","state":"Campeche","municipality":"Carmen","setelement":"Lomas de Holche"},{"postalCode":"24169","state":"Campeche","municipality":"Carmen","setelement":"Camaroneros"},{"postalCode":"24169","state":"Campeche","municipality":"Carmen","setelement":"Asa Poniente"},{"postalCode":"24170","state":"Campeche","municipality":"Carmen","setelement":"Aviación"},{"postalCode":"24170","state":"Campeche","municipality":"Carmen","setelement":"Cuauhtémoc"},{"postalCode":"24170","state":"Campeche","municipality":"Carmen","setelement":"Tila"},{"postalCode":"24178","state":"Campeche","municipality":"Carmen","setelement":"Tecolutla"},{"postalCode":"24179","state":"Campeche","municipality":"Carmen","setelement":"Petrolera"},{"postalCode":"24180","state":"Campeche","municipality":"Carmen","setelement":"Benito Juárez"},{"postalCode":"24180","state":"Campeche","municipality":"Carmen","setelement":"Benito Juárez 2"},{"postalCode":"24180","state":"Campeche","municipality":"Carmen","setelement":"Limonar"},{"postalCode":"24180","state":"Campeche","municipality":"Carmen","setelement":"Tacubaya"},{"postalCode":"24185","state":"Campeche","municipality":"Carmen","setelement":"Estrella"},{"postalCode":"24186","state":"Campeche","municipality":"Carmen","setelement":"Miguel de La Madrid"},{"postalCode":"24187","state":"Campeche","municipality":"Carmen","setelement":"Manigua"},{"postalCode":"24188","state":"Campeche","municipality":"Carmen","setelement":"Caracol"},{"postalCode":"24189","state":"Campeche","municipality":"Carmen","setelement":"Salitral"},{"postalCode":"24190","state":"Campeche","municipality":"Carmen","setelement":"Francisco I Madero"},{"postalCode":"24195","state":"Campeche","municipality":"Carmen","setelement":"Pedro Sainz de Baranda"},{"postalCode":"24195","state":"Campeche","municipality":"Carmen","setelement":"Las Pilas"},{"postalCode":"24197","state":"Campeche","municipality":"Carmen","setelement":"Insurgentes"},{"postalCode":"24197","state":"Campeche","municipality":"Carmen","setelement":"Malibrán"},{"postalCode":"24197","state":"Campeche","municipality":"Carmen","setelement":"Santa Rosalía"},{"postalCode":"24197","state":"Campeche","municipality":"Carmen","setelement":"Independencia"},{"postalCode":"24198","state":"Campeche","municipality":"Carmen","setelement":"Emiliano Zapata"},{"postalCode":"24199","state":"Campeche","municipality":"Carmen","setelement":"FOVISSSTE"},{"postalCode":"24200","state":"Campeche","municipality":"Palizada","setelement":"Palizada Centro"},{"postalCode":"24200","state":"Campeche","municipality":"Palizada","setelement":"Aviación"},{"postalCode":"24200","state":"Campeche","municipality":"Palizada","setelement":"Justicia Social"},{"postalCode":"24200","state":"Campeche","municipality":"Palizada","setelement":"La Esperanza"},{"postalCode":"24203","state":"Campeche","municipality":"Palizada","setelement":"El Porvenir"},{"postalCode":"24203","state":"Campeche","municipality":"Palizada","setelement":"Lagón Dulce"},{"postalCode":"24203","state":"Campeche","municipality":"Palizada","setelement":"Puerto Arturo"},{"postalCode":"24204","state":"Campeche","municipality":"Palizada","setelement":"El Mangal"},{"postalCode":"24204","state":"Campeche","municipality":"Palizada","setelement":"Isla de San Isidro"},{"postalCode":"24204","state":"Campeche","municipality":"Palizada","setelement":"Rivera de la Viuda"},{"postalCode":"24204","state":"Campeche","municipality":"Palizada","setelement":"Ribera de la Corriente"},{"postalCode":"24204","state":"Campeche","municipality":"Palizada","setelement":"Tila"},{"postalCode":"24204","state":"Campeche","municipality":"Palizada","setelement":"Ribera San Eduardo"},{"postalCode":"24204","state":"Campeche","municipality":"Palizada","setelement":"Ribera Gómez"},{"postalCode":"24204","state":"Campeche","municipality":"Palizada","setelement":"Las Bodegas"},{"postalCode":"24205","state":"Campeche","municipality":"Palizada","setelement":"Plan del Carmen"},{"postalCode":"24205","state":"Campeche","municipality":"Palizada","setelement":"Ribera del Playón"},{"postalCode":"24205","state":"Campeche","municipality":"Palizada","setelement":"San Agustín"},{"postalCode":"24205","state":"Campeche","municipality":"Palizada","setelement":"Alamilla"},{"postalCode":"24205","state":"Campeche","municipality":"Palizada","setelement":"San Juan"},{"postalCode":"24205","state":"Campeche","municipality":"Palizada","setelement":"Santa Isabel"},{"postalCode":"24205","state":"Campeche","municipality":"Palizada","setelement":"Santa Cruz"},{"postalCode":"24205","state":"Campeche","municipality":"Palizada","setelement":"El Borbotón"},{"postalCode":"24205","state":"Campeche","municipality":"Palizada","setelement":"San Joaquín"},{"postalCode":"24205","state":"Campeche","municipality":"Palizada","setelement":"El Paraíso"},{"postalCode":"24205","state":"Campeche","municipality":"Palizada","setelement":"El Cuyo"},{"postalCode":"24205","state":"Campeche","municipality":"Palizada","setelement":"La Toza"},{"postalCode":"24206","state":"Campeche","municipality":"Palizada","setelement":"El Cuerno"},{"postalCode":"24206","state":"Campeche","municipality":"Palizada","setelement":"El Vergel"},{"postalCode":"24206","state":"Campeche","municipality":"Palizada","setelement":"La Envidia"},{"postalCode":"24206","state":"Campeche","municipality":"Palizada","setelement":"La Victoria"},{"postalCode":"24206","state":"Campeche","municipality":"Palizada","setelement":"San José"},{"postalCode":"24206","state":"Campeche","municipality":"Palizada","setelement":"Los Laureles"},{"postalCode":"24206","state":"Campeche","municipality":"Palizada","setelement":"Santa Mónica (Santa Rita)"},{"postalCode":"24206","state":"Campeche","municipality":"Palizada","setelement":"San Francisco"},{"postalCode":"24206","state":"Campeche","municipality":"Palizada","setelement":"Santa Elena"},{"postalCode":"24206","state":"Campeche","municipality":"Palizada","setelement":"Monterrey"},{"postalCode":"24206","state":"Campeche","municipality":"Palizada","setelement":"Paso de los Caballos"},{"postalCode":"24207","state":"Campeche","municipality":"Palizada","setelement":"Cronos"},{"postalCode":"24207","state":"Campeche","municipality":"Palizada","setelement":"El Carmen (San Marcos)"},{"postalCode":"24207","state":"Campeche","municipality":"Palizada","setelement":"El Retiro"},{"postalCode":"24207","state":"Campeche","municipality":"Palizada","setelement":"Gardenias"},{"postalCode":"24207","state":"Campeche","municipality":"Palizada","setelement":"La Concepción"},{"postalCode":"24207","state":"Campeche","municipality":"Palizada","setelement":"La Guadalupe"},{"postalCode":"24207","state":"Campeche","municipality":"Palizada","setelement":"Mata del Chato"},{"postalCode":"24207","state":"Campeche","municipality":"Palizada","setelement":"Mata Larga"},{"postalCode":"24207","state":"Campeche","municipality":"Palizada","setelement":"Río Blanco"},{"postalCode":"24207","state":"Campeche","municipality":"Palizada","setelement":"San Carlos"},{"postalCode":"24207","state":"Campeche","municipality":"Palizada","setelement":"San Hilario"},{"postalCode":"24207","state":"Campeche","municipality":"Palizada","setelement":"Santa Rosa"},{"postalCode":"24207","state":"Campeche","municipality":"Palizada","setelement":"El Popistal"},{"postalCode":"24207","state":"Campeche","municipality":"Palizada","setelement":"Tumbo de la Montaña"},{"postalCode":"24207","state":"Campeche","municipality":"Palizada","setelement":"Santa Adelaida"},{"postalCode":"24207","state":"Campeche","municipality":"Palizada","setelement":"El Juncal"},{"postalCode":"24207","state":"Campeche","municipality":"Palizada","setelement":"Las Flores"},{"postalCode":"24207","state":"Campeche","municipality":"Palizada","setelement":"San Antonio"},{"postalCode":"24207","state":"Campeche","municipality":"Palizada","setelement":"San Ángel"},{"postalCode":"24207","state":"Campeche","municipality":"Palizada","setelement":"San Jorge"},{"postalCode":"24207","state":"Campeche","municipality":"Palizada","setelement":"La Nueva Esperanza"},{"postalCode":"24207","state":"Campeche","municipality":"Palizada","setelement":"La Candelaria"},{"postalCode":"24207","state":"Campeche","municipality":"Palizada","setelement":"Villa Rosa"},{"postalCode":"24208","state":"Campeche","municipality":"Palizada","setelement":"Ribera Boca Chica"},{"postalCode":"24300","state":"Campeche","municipality":"Carmen","setelement":"Emiliano Zapata"},{"postalCode":"24300","state":"Campeche","municipality":"Carmen","setelement":"Nueva Emiliano Zapata"},{"postalCode":"24300","state":"Campeche","municipality":"Carmen","setelement":"El Paraíso"},{"postalCode":"24300","state":"Campeche","municipality":"Carmen","setelement":"Nueva"},{"postalCode":"24300","state":"Campeche","municipality":"Carmen","setelement":"Juan Pablo Cetina"},{"postalCode":"24300","state":"Campeche","municipality":"Carmen","setelement":"Sabancuy Centro"},{"postalCode":"24300","state":"Campeche","municipality":"Carmen","setelement":"Benito Juárez"},{"postalCode":"24300","state":"Campeche","municipality":"Carmen","setelement":"Guadalupe"},{"postalCode":"24300","state":"Campeche","municipality":"Carmen","setelement":"Banco de Piedra"},{"postalCode":"24300","state":"Campeche","municipality":"Carmen","setelement":"Pénjamo"},{"postalCode":"24300","state":"Campeche","municipality":"Carmen","setelement":"Jabal"},{"postalCode":"24310","state":"Campeche","municipality":"Carmen","setelement":"Oxcabal"},{"postalCode":"24310","state":"Campeche","municipality":"Carmen","setelement":"Ignacio Gutiérrez"},{"postalCode":"24310","state":"Campeche","municipality":"Carmen","setelement":"Oxcabal"},{"postalCode":"24310","state":"Campeche","municipality":"Carmen","setelement":"San Antonio (Punta de Piedra)"},{"postalCode":"24310","state":"Campeche","municipality":"Carmen","setelement":"La Pita"},{"postalCode":"24310","state":"Campeche","municipality":"Carmen","setelement":"Anonal"},{"postalCode":"24310","state":"Campeche","municipality":"Carmen","setelement":"Calax"},{"postalCode":"24313","state":"Campeche","municipality":"Carmen","setelement":"General Abelardo L Rodriguez (el Jobal)"},{"postalCode":"24313","state":"Campeche","municipality":"Carmen","setelement":"Plan de Ayala"},{"postalCode":"24313","state":"Campeche","municipality":"Carmen","setelement":"Chic-bul"},{"postalCode":"24313","state":"Campeche","municipality":"Carmen","setelement":"Chekubul"},{"postalCode":"24313","state":"Campeche","municipality":"Carmen","setelement":"José María Pino Suárez"},{"postalCode":"24313","state":"Campeche","municipality":"Carmen","setelement":"Nicolás Bravo"},{"postalCode":"24313","state":"Campeche","municipality":"Carmen","setelement":"La Cristalina"},{"postalCode":"24313","state":"Campeche","municipality":"Carmen","setelement":"Independencia"},{"postalCode":"24313","state":"Campeche","municipality":"Carmen","setelement":"La Esperanza"},{"postalCode":"24313","state":"Campeche","municipality":"Carmen","setelement":"Colonia A López Mateos"},{"postalCode":"24313","state":"Campeche","municipality":"Carmen","setelement":"Santa Rosalía"},{"postalCode":"24313","state":"Campeche","municipality":"Carmen","setelement":"Los Manantiales"},{"postalCode":"24313","state":"Campeche","municipality":"Carmen","setelement":"Chivoja"},{"postalCode":"24313","state":"Campeche","municipality":"Carmen","setelement":"La Lupita"},{"postalCode":"24314","state":"Campeche","municipality":"Carmen","setelement":"Las Delicias"},{"postalCode":"24314","state":"Campeche","municipality":"Carmen","setelement":"Enrique Rodriguez Cano"},{"postalCode":"24314","state":"Campeche","municipality":"Carmen","setelement":"18 de Marzo"},{"postalCode":"24315","state":"Campeche","municipality":"Carmen","setelement":"San Isidro"},{"postalCode":"24315","state":"Campeche","municipality":"Carmen","setelement":"Francisco Villa (mamantel)"},{"postalCode":"24315","state":"Campeche","municipality":"Carmen","setelement":"Pital Nuevo"},{"postalCode":"24315","state":"Campeche","municipality":"Carmen","setelement":"Pital Viejo"},{"postalCode":"24315","state":"Campeche","municipality":"Carmen","setelement":"La Providencia"},{"postalCode":"24315","state":"Campeche","municipality":"Carmen","setelement":"Mamantel Viejo"},{"postalCode":"24315","state":"Campeche","municipality":"Carmen","setelement":"La Concepción"},{"postalCode":"24316","state":"Campeche","municipality":"Carmen","setelement":"Carlos Quinto"},{"postalCode":"24316","state":"Campeche","municipality":"Carmen","setelement":"Nueva Chontalpa"},{"postalCode":"24316","state":"Campeche","municipality":"Carmen","setelement":"Felipe Ángeles"},{"postalCode":"24316","state":"Campeche","municipality":"Carmen","setelement":"Ojo de Agua"},{"postalCode":"24316","state":"Campeche","municipality":"Carmen","setelement":"El Encanto"},{"postalCode":"24316","state":"Campeche","municipality":"Carmen","setelement":"Quebranche"},{"postalCode":"24316","state":"Campeche","municipality":"Carmen","setelement":"Ignacio Zaragoza"},{"postalCode":"24316","state":"Campeche","municipality":"Carmen","setelement":"2 de Marzo"},{"postalCode":"24316","state":"Campeche","municipality":"Carmen","setelement":"San Jorge de Coyoc"},{"postalCode":"24316","state":"Campeche","municipality":"Carmen","setelement":"San Pablito Km. 59"},{"postalCode":"24316","state":"Campeche","municipality":"Carmen","setelement":"Las Cruces"},{"postalCode":"24317","state":"Campeche","municipality":"Carmen","setelement":"El Carmen"},{"postalCode":"24317","state":"Campeche","municipality":"Carmen","setelement":"La Estrella"},{"postalCode":"24317","state":"Campeche","municipality":"Carmen","setelement":"Sacrificio"},{"postalCode":"24317","state":"Campeche","municipality":"Carmen","setelement":"Conquista Campesina"},{"postalCode":"24317","state":"Campeche","municipality":"Carmen","setelement":"El Aguacatal"},{"postalCode":"24317","state":"Campeche","municipality":"Carmen","setelement":"Venustiano Carranza"},{"postalCode":"24317","state":"Campeche","municipality":"Carmen","setelement":"Cinco de Mayo"},{"postalCode":"24317","state":"Campeche","municipality":"Carmen","setelement":"El Triunfo"},{"postalCode":"24317","state":"Campeche","municipality":"Carmen","setelement":"Belisario Domínguez"},{"postalCode":"24317","state":"Campeche","municipality":"Carmen","setelement":"Allende Pejelagarto"},{"postalCode":"24317","state":"Campeche","municipality":"Carmen","setelement":"Centauro del Norte"},{"postalCode":"24317","state":"Campeche","municipality":"Carmen","setelement":"La Florida"},{"postalCode":"24317","state":"Campeche","municipality":"Carmen","setelement":"El Chinal"},{"postalCode":"24320","state":"Campeche","municipality":"Carmen","setelement":"Bella Palizada"},{"postalCode":"24320","state":"Campeche","municipality":"Carmen","setelement":"Polvoxal"},{"postalCode":"24320","state":"Campeche","municipality":"Carmen","setelement":"María de La Luz"},{"postalCode":"24322","state":"Campeche","municipality":"Carmen","setelement":"Arrozal"},{"postalCode":"24322","state":"Campeche","municipality":"Carmen","setelement":"San José (El Deshecho)"},{"postalCode":"24323","state":"Campeche","municipality":"Carmen","setelement":"Fernando Foglio Miramontes"},{"postalCode":"24323","state":"Campeche","municipality":"Carmen","setelement":"Murallas de Campeche"},{"postalCode":"24323","state":"Campeche","municipality":"Carmen","setelement":"Valle de Solidaridad"},{"postalCode":"24323","state":"Campeche","municipality":"Carmen","setelement":"Generalísimo Morelos"},{"postalCode":"24323","state":"Campeche","municipality":"Carmen","setelement":"Santa Rita"},{"postalCode":"24323","state":"Campeche","municipality":"Carmen","setelement":"El Mameyal"},{"postalCode":"24323","state":"Campeche","municipality":"Carmen","setelement":"El Refugio"},{"postalCode":"24323","state":"Campeche","municipality":"Carmen","setelement":"San José Marentes"},{"postalCode":"24324","state":"Campeche","municipality":"Carmen","setelement":"El Popistal"},{"postalCode":"24324","state":"Campeche","municipality":"Carmen","setelement":"El Zapote"},{"postalCode":"24324","state":"Campeche","municipality":"Carmen","setelement":"Paso San Juan"},{"postalCode":"24324","state":"Campeche","municipality":"Carmen","setelement":"Vista Alegre"},{"postalCode":"24324","state":"Campeche","municipality":"Carmen","setelement":"La Pimienta"},{"postalCode":"24324","state":"Campeche","municipality":"Carmen","setelement":"San Elpidio"},{"postalCode":"24324","state":"Campeche","municipality":"Carmen","setelement":"Tres Valles"},{"postalCode":"24325","state":"Campeche","municipality":"Carmen","setelement":"Cantarell [Planta de Nitrógeno]"},{"postalCode":"24325","state":"Campeche","municipality":"Carmen","setelement":"Ribera de San Francisco"},{"postalCode":"24325","state":"Campeche","municipality":"Carmen","setelement":"San Antonio Cárdenas"},{"postalCode":"24325","state":"Campeche","municipality":"Carmen","setelement":"Emiliano Zapata"},{"postalCode":"24325","state":"Campeche","municipality":"Carmen","setelement":"Nuevo Campechito"},{"postalCode":"24325","state":"Campeche","municipality":"Carmen","setelement":"Nuevo Progreso"},{"postalCode":"24325","state":"Campeche","municipality":"Carmen","setelement":"Ribera Media"},{"postalCode":"24325","state":"Campeche","municipality":"Carmen","setelement":"Ribera Alta"},{"postalCode":"24325","state":"Campeche","municipality":"Carmen","setelement":"El Pom"},{"postalCode":"24325","state":"Campeche","municipality":"Carmen","setelement":"La Esperanza"},{"postalCode":"24326","state":"Campeche","municipality":"Carmen","setelement":"Atasta"},{"postalCode":"24326","state":"Campeche","municipality":"Carmen","setelement":"San Salvador de los Cerrillos"},{"postalCode":"24326","state":"Campeche","municipality":"Carmen","setelement":"Puerto Rico"},{"postalCode":"24326","state":"Campeche","municipality":"Carmen","setelement":"Punta Zacatal"},{"postalCode":"24327","state":"Campeche","municipality":"Carmen","setelement":"Reubicación"},{"postalCode":"24327","state":"Campeche","municipality":"Carmen","setelement":"Isla Aguada Centro"},{"postalCode":"24327","state":"Campeche","municipality":"Carmen","setelement":"Puerto Real"},{"postalCode":"24327","state":"Campeche","municipality":"Carmen","setelement":"Boca Nueva"},{"postalCode":"24327","state":"Campeche","municipality":"Carmen","setelement":"La Lagartera"},{"postalCode":"24330","state":"Campeche","municipality":"Candelaria","setelement":"Coahuilita"},{"postalCode":"24330","state":"Campeche","municipality":"Candelaria","setelement":"San Pablo"},{"postalCode":"24330","state":"Campeche","municipality":"Candelaria","setelement":"Candelaria Centro"},{"postalCode":"24330","state":"Campeche","municipality":"Candelaria","setelement":"Acalan"},{"postalCode":"24330","state":"Campeche","municipality":"Candelaria","setelement":"San Martín"},{"postalCode":"24330","state":"Campeche","municipality":"Candelaria","setelement":"Guanajuato"},{"postalCode":"24330","state":"Campeche","municipality":"Candelaria","setelement":"Independencia"},{"postalCode":"24330","state":"Campeche","municipality":"Candelaria","setelement":"Alejandría"},{"postalCode":"24330","state":"Campeche","municipality":"Candelaria","setelement":"Cuauhtémoc"},{"postalCode":"24330","state":"Campeche","municipality":"Candelaria","setelement":"San Isidro"},{"postalCode":"24333","state":"Campeche","municipality":"Candelaria","setelement":"El Capulín"},{"postalCode":"24333","state":"Campeche","municipality":"Candelaria","setelement":"El Sacrificio II"},{"postalCode":"24333","state":"Campeche","municipality":"Candelaria","setelement":"Las Maravillas (Campo Menonita)"},{"postalCode":"24333","state":"Campeche","municipality":"Candelaria","setelement":"Pejelagarto II"},{"postalCode":"24333","state":"Campeche","municipality":"Candelaria","setelement":"R-2007"},{"postalCode":"24333","state":"Campeche","municipality":"Candelaria","setelement":"San Antonio"},{"postalCode":"24333","state":"Campeche","municipality":"Candelaria","setelement":"Santo Domingo"},{"postalCode":"24333","state":"Campeche","municipality":"Candelaria","setelement":"Las Américas"},{"postalCode":"24333","state":"Campeche","municipality":"Candelaria","setelement":"Vicente Lombardo Toledano"},{"postalCode":"24333","state":"Campeche","municipality":"Candelaria","setelement":"La Nueva Lucha"},{"postalCode":"24333","state":"Campeche","municipality":"Candelaria","setelement":"Nueva Rosita"},{"postalCode":"24333","state":"Campeche","municipality":"Candelaria","setelement":"Pejelagarto"},{"postalCode":"24333","state":"Campeche","municipality":"Candelaria","setelement":"Nueva Esperanza"},{"postalCode":"24333","state":"Campeche","municipality":"Candelaria","setelement":"Miguel Alemán"},{"postalCode":"24333","state":"Campeche","municipality":"Candelaria","setelement":"El Chilar"},{"postalCode":"24333","state":"Campeche","municipality":"Candelaria","setelement":"La Fortuna"},{"postalCode":"24333","state":"Campeche","municipality":"Candelaria","setelement":"La Unión"},{"postalCode":"24333","state":"Campeche","municipality":"Candelaria","setelement":"El Pocito"},{"postalCode":"24334","state":"Campeche","municipality":"Candelaria","setelement":"Hermanos Cruz"},{"postalCode":"24334","state":"Campeche","municipality":"Candelaria","setelement":"La Calzada"},{"postalCode":"24334","state":"Campeche","municipality":"Candelaria","setelement":"Nueva Esperanza"},{"postalCode":"24334","state":"Campeche","municipality":"Candelaria","setelement":"Santo Domingo (El Cuyo)"},{"postalCode":"24334","state":"Campeche","municipality":"Candelaria","setelement":"Justo Sierra Méndez"},{"postalCode":"24334","state":"Campeche","municipality":"Candelaria","setelement":"Lázaro Cárdenas"},{"postalCode":"24334","state":"Campeche","municipality":"Candelaria","setelement":"El Ramonal"},{"postalCode":"24334","state":"Campeche","municipality":"Candelaria","setelement":"Estrella del Sur"},{"postalCode":"24334","state":"Campeche","municipality":"Candelaria","setelement":"Las Golondrinas"},{"postalCode":"24334","state":"Campeche","municipality":"Candelaria","setelement":"El Tigre"},{"postalCode":"24334","state":"Campeche","municipality":"Candelaria","setelement":"Pedro Baranda"},{"postalCode":"24334","state":"Campeche","municipality":"Candelaria","setelement":"Nuevo Coahuila"},{"postalCode":"24334","state":"Campeche","municipality":"Candelaria","setelement":"Monclova"},{"postalCode":"24334","state":"Campeche","municipality":"Candelaria","setelement":"Miguel Hidalgo y Costilla"},{"postalCode":"24334","state":"Campeche","municipality":"Candelaria","setelement":"Estado de México"},{"postalCode":"24334","state":"Campeche","municipality":"Candelaria","setelement":"Esperanza"},{"postalCode":"24334","state":"Campeche","municipality":"Candelaria","setelement":"Francisco I. Madero"},{"postalCode":"24334","state":"Campeche","municipality":"Candelaria","setelement":"La Zanja (La Palma)"},{"postalCode":"24334","state":"Campeche","municipality":"Candelaria","setelement":"Luinal"},{"postalCode":"24335","state":"Campeche","municipality":"Candelaria","setelement":"El Treinta (Las Águilas)"},{"postalCode":"24335","state":"Campeche","municipality":"Candelaria","setelement":"San Miguel"},{"postalCode":"24335","state":"Campeche","municipality":"Candelaria","setelement":"La Pelusa"},{"postalCode":"24335","state":"Campeche","municipality":"Candelaria","setelement":"El Porvenir"},{"postalCode":"24335","state":"Campeche","municipality":"Candelaria","setelement":"El Tintal"},{"postalCode":"24335","state":"Campeche","municipality":"Candelaria","setelement":"El Mamey"},{"postalCode":"24336","state":"Campeche","municipality":"Candelaria","setelement":"El Escondido"},{"postalCode":"24336","state":"Campeche","municipality":"Candelaria","setelement":"El Esfuerzo"},{"postalCode":"24336","state":"Campeche","municipality":"Candelaria","setelement":"El Paso del Cuervo (El Cuervo)"},{"postalCode":"24336","state":"Campeche","municipality":"Candelaria","setelement":"El Ramonal II (Los Manguitos)"},{"postalCode":"24336","state":"Campeche","municipality":"Candelaria","setelement":"La Florida (El Cuatro)"},{"postalCode":"24336","state":"Campeche","municipality":"Candelaria","setelement":"La Florida Tres"},{"postalCode":"24336","state":"Campeche","municipality":"Candelaria","setelement":"La Mojina"},{"postalCode":"24336","state":"Campeche","municipality":"Candelaria","setelement":"Las Delicias"},{"postalCode":"24336","state":"Campeche","municipality":"Candelaria","setelement":"Las Margaritas Dos"},{"postalCode":"24336","state":"Campeche","municipality":"Candelaria","setelement":"Los Jabines Uno"},{"postalCode":"24336","state":"Campeche","municipality":"Candelaria","setelement":"Los Limones"},{"postalCode":"24336","state":"Campeche","municipality":"Candelaria","setelement":"Rancho Alegre"},{"postalCode":"24336","state":"Campeche","municipality":"Candelaria","setelement":"Rancho Alegre Tres"},{"postalCode":"24336","state":"Campeche","municipality":"Candelaria","setelement":"San Antonio"},{"postalCode":"24336","state":"Campeche","municipality":"Candelaria","setelement":"Tres Reyes"},{"postalCode":"24336","state":"Campeche","municipality":"Candelaria","setelement":"Cuauhtémoc"},{"postalCode":"24336","state":"Campeche","municipality":"Candelaria","setelement":"Paraíso Nuevo"},{"postalCode":"24336","state":"Campeche","municipality":"Candelaria","setelement":"Pablo García"},{"postalCode":"24336","state":"Campeche","municipality":"Candelaria","setelement":"El Suspiro"},{"postalCode":"24336","state":"Campeche","municipality":"Candelaria","setelement":"El Naranjo"},{"postalCode":"24336","state":"Campeche","municipality":"Candelaria","setelement":"El Machetazo"},{"postalCode":"24336","state":"Campeche","municipality":"Candelaria","setelement":"California"},{"postalCode":"24336","state":"Campeche","municipality":"Candelaria","setelement":"El Limón"},{"postalCode":"24336","state":"Campeche","municipality":"Candelaria","setelement":"El Encanto"},{"postalCode":"24336","state":"Campeche","municipality":"Candelaria","setelement":"El Piedral (El Muerto)"},{"postalCode":"24336","state":"Campeche","municipality":"Candelaria","setelement":"Las Campanas"},{"postalCode":"24336","state":"Campeche","municipality":"Candelaria","setelement":"La Lucha"},{"postalCode":"24336","state":"Campeche","municipality":"Candelaria","setelement":"Los Cuatro Hermanos"},{"postalCode":"24336","state":"Campeche","municipality":"Candelaria","setelement":"San Lorenzo"},{"postalCode":"24337","state":"Campeche","municipality":"Candelaria","setelement":"Santa Rita"},{"postalCode":"24337","state":"Campeche","municipality":"Candelaria","setelement":"El Nuevo Ferrocarril"},{"postalCode":"24337","state":"Campeche","municipality":"Candelaria","setelement":"El Otoño"},{"postalCode":"24337","state":"Campeche","municipality":"Candelaria","setelement":"San Felipe"},{"postalCode":"24337","state":"Campeche","municipality":"Candelaria","setelement":"Triunfo Dos"},{"postalCode":"24337","state":"Campeche","municipality":"Candelaria","setelement":"Triunfo Uno"},{"postalCode":"24337","state":"Campeche","municipality":"Candelaria","setelement":"Corte Pajaral"},{"postalCode":"24337","state":"Campeche","municipality":"Candelaria","setelement":"Venustiano Carranza"},{"postalCode":"24337","state":"Campeche","municipality":"Candelaria","setelement":"La Amapola"},{"postalCode":"24337","state":"Campeche","municipality":"Candelaria","setelement":"Las Palmitas"},{"postalCode":"24338","state":"Campeche","municipality":"Candelaria","setelement":"El Borbonal"},{"postalCode":"24338","state":"Campeche","municipality":"Candelaria","setelement":"La Isla del Esfuerzo"},{"postalCode":"24338","state":"Campeche","municipality":"Candelaria","setelement":"Champas Quemadas"},{"postalCode":"24338","state":"Campeche","municipality":"Candelaria","setelement":"Benito Juárez Uno"},{"postalCode":"24338","state":"Campeche","municipality":"Candelaria","setelement":"Primer Presidente de México (Guadalupe Victoria)"},{"postalCode":"24338","state":"Campeche","municipality":"Candelaria","setelement":"Vicente Guerrero"},{"postalCode":"24338","state":"Campeche","municipality":"Candelaria","setelement":"General Francisco J. Mújica"},{"postalCode":"24342","state":"Campeche","municipality":"Candelaria","setelement":"Aguada Seca"},{"postalCode":"24342","state":"Campeche","municipality":"Candelaria","setelement":"Sal Si Puedes"},{"postalCode":"24342","state":"Campeche","municipality":"Candelaria","setelement":"Selva Negra"},{"postalCode":"24342","state":"Campeche","municipality":"Candelaria","setelement":"Nuevo Comalcalco"},{"postalCode":"24342","state":"Campeche","municipality":"Candelaria","setelement":"El Manantial"},{"postalCode":"24342","state":"Campeche","municipality":"Candelaria","setelement":"El Carril"},{"postalCode":"24342","state":"Campeche","municipality":"Candelaria","setelement":"El Diamante"},{"postalCode":"24342","state":"Campeche","municipality":"Candelaria","setelement":"Ignacio Zaragoza (El Pulguero)"},{"postalCode":"24342","state":"Campeche","municipality":"Candelaria","setelement":"El Tablón"},{"postalCode":"24342","state":"Campeche","municipality":"Candelaria","setelement":"Licenciado José Antonio González Curi"},{"postalCode":"24342","state":"Campeche","municipality":"Candelaria","setelement":"Los Cardenales"},{"postalCode":"24342","state":"Campeche","municipality":"Candelaria","setelement":"Las Maravillas (Nuevo Capricho)"},{"postalCode":"24342","state":"Campeche","municipality":"Candelaria","setelement":"Nuevo Progreso"},{"postalCode":"24342","state":"Campeche","municipality":"Candelaria","setelement":"Río Caribe (Caribe)"},{"postalCode":"24342","state":"Campeche","municipality":"Candelaria","setelement":"San Cristóbal"},{"postalCode":"24342","state":"Campeche","municipality":"Candelaria","setelement":"El Último Esfuerzo"},{"postalCode":"24342","state":"Campeche","municipality":"Candelaria","setelement":"Las Palmas"},{"postalCode":"24343","state":"Campeche","municipality":"Candelaria","setelement":"El Milagro"},{"postalCode":"24343","state":"Campeche","municipality":"Candelaria","setelement":"Emiliano Zapata III"},{"postalCode":"24343","state":"Campeche","municipality":"Candelaria","setelement":"Isla del Paraíso"},{"postalCode":"24343","state":"Campeche","municipality":"Candelaria","setelement":"La Guadalupe"},{"postalCode":"24343","state":"Campeche","municipality":"Candelaria","setelement":"Nueva Rosita II"},{"postalCode":"24343","state":"Campeche","municipality":"Candelaria","setelement":"San Fernando"},{"postalCode":"24343","state":"Campeche","municipality":"Candelaria","setelement":"San Román"},{"postalCode":"24343","state":"Campeche","municipality":"Candelaria","setelement":"Tres Hermanos"},{"postalCode":"24343","state":"Campeche","municipality":"Candelaria","setelement":"San Rafael del Río Caribe"},{"postalCode":"24343","state":"Campeche","municipality":"Candelaria","setelement":"Pablo Torres Burgos"},{"postalCode":"24343","state":"Campeche","municipality":"Candelaria","setelement":"El Pedregal"},{"postalCode":"24343","state":"Campeche","municipality":"Candelaria","setelement":"El Chinal"},{"postalCode":"24343","state":"Campeche","municipality":"Candelaria","setelement":"La Olla"},{"postalCode":"24343","state":"Campeche","municipality":"Candelaria","setelement":"El Marfil (Palo Alto)"},{"postalCode":"24343","state":"Campeche","municipality":"Candelaria","setelement":"Santa Lucía"},{"postalCode":"24343","state":"Campeche","municipality":"Candelaria","setelement":"San José de las Montañas"},{"postalCode":"24344","state":"Campeche","municipality":"Candelaria","setelement":"Tres de Mayo Tres"},{"postalCode":"24344","state":"Campeche","municipality":"Candelaria","setelement":"Champas Quemadas"},{"postalCode":"24344","state":"Campeche","municipality":"Candelaria","setelement":"El Calabozo"},{"postalCode":"24344","state":"Campeche","municipality":"Candelaria","setelement":"El Chechenal"},{"postalCode":"24344","state":"Campeche","municipality":"Candelaria","setelement":"El Encanto"},{"postalCode":"24344","state":"Campeche","municipality":"Candelaria","setelement":"El Fantasma (Los Chileros)"},{"postalCode":"24344","state":"Campeche","municipality":"Candelaria","setelement":"El Pimiental Dos"},{"postalCode":"24344","state":"Campeche","municipality":"Candelaria","setelement":"La Esperancita"},{"postalCode":"24344","state":"Campeche","municipality":"Candelaria","setelement":"Montecristo"},{"postalCode":"24344","state":"Campeche","municipality":"Candelaria","setelement":"Naranjito"},{"postalCode":"24344","state":"Campeche","municipality":"Candelaria","setelement":"Nuevo Tabasco"},{"postalCode":"24344","state":"Campeche","municipality":"Candelaria","setelement":"San Juan"},{"postalCode":"24344","state":"Campeche","municipality":"Candelaria","setelement":"Agua Azul"},{"postalCode":"24345","state":"Campeche","municipality":"Candelaria","setelement":"Miguel de la Madrid (El Pañuelo)"},{"postalCode":"24345","state":"Campeche","municipality":"Candelaria","setelement":"Balancancito"},{"postalCode":"24345","state":"Campeche","municipality":"Candelaria","setelement":"El Cayuco"},{"postalCode":"24345","state":"Campeche","municipality":"Candelaria","setelement":"El Taziztal"},{"postalCode":"24345","state":"Campeche","municipality":"Candelaria","setelement":"Emiliano Zapata"},{"postalCode":"24345","state":"Campeche","municipality":"Candelaria","setelement":"La Peregrina"},{"postalCode":"24345","state":"Campeche","municipality":"Candelaria","setelement":"San Román"},{"postalCode":"24345","state":"Campeche","municipality":"Candelaria","setelement":"Tres de Mayo Dos"},{"postalCode":"24345","state":"Campeche","municipality":"Candelaria","setelement":"La Misteriosa"},{"postalCode":"24345","state":"Campeche","municipality":"Candelaria","setelement":"El Mirador Primero"},{"postalCode":"24345","state":"Campeche","municipality":"Candelaria","setelement":"La Tómbola"},{"postalCode":"24345","state":"Campeche","municipality":"Candelaria","setelement":"Los Pollos"},{"postalCode":"24345","state":"Campeche","municipality":"Candelaria","setelement":"El Paraguas"},{"postalCode":"24345","state":"Campeche","municipality":"Candelaria","setelement":"El Destino"},{"postalCode":"24346","state":"Campeche","municipality":"Candelaria","setelement":"Arroyo del Julubal"},{"postalCode":"24346","state":"Campeche","municipality":"Candelaria","setelement":"Arroyo Veinticuatro de Mayo"},{"postalCode":"24346","state":"Campeche","municipality":"Candelaria","setelement":"Balankax"},{"postalCode":"24346","state":"Campeche","municipality":"Candelaria","setelement":"Blancas Mariposas"},{"postalCode":"24346","state":"Campeche","municipality":"Candelaria","setelement":"Delicias I"},{"postalCode":"24346","state":"Campeche","municipality":"Candelaria","setelement":"La Unión (Dos Arroyos)"},{"postalCode":"24346","state":"Campeche","municipality":"Candelaria","setelement":"Nego Eben-Ezer"},{"postalCode":"24346","state":"Campeche","municipality":"Candelaria","setelement":"El Desengaño"},{"postalCode":"24346","state":"Campeche","municipality":"Candelaria","setelement":"Alianza Productora"},{"postalCode":"24346","state":"Campeche","municipality":"Candelaria","setelement":"Arroyo de Cuba"},{"postalCode":"24346","state":"Campeche","municipality":"Candelaria","setelement":"Carlos Sansores Pérez (La Paz)"},{"postalCode":"24346","state":"Campeche","municipality":"Candelaria","setelement":"Solidaridad"},{"postalCode":"24346","state":"Campeche","municipality":"Candelaria","setelement":"Tres Reyes"},{"postalCode":"24346","state":"Campeche","municipality":"Candelaria","setelement":"San Dimas (Alianza II)"},{"postalCode":"24346","state":"Campeche","municipality":"Candelaria","setelement":"Adolfo López Mateos"},{"postalCode":"24346","state":"Campeche","municipality":"Candelaria","setelement":"Santa Rosa"},{"postalCode":"24347","state":"Campeche","municipality":"Candelaria","setelement":"El Tigre Dos"},{"postalCode":"24347","state":"Campeche","municipality":"Candelaria","setelement":"El Tulipán (El Imposible)"},{"postalCode":"24347","state":"Campeche","municipality":"Candelaria","setelement":"Francisco Villa"},{"postalCode":"24347","state":"Campeche","municipality":"Candelaria","setelement":"Rancho Alegre"},{"postalCode":"24347","state":"Campeche","municipality":"Candelaria","setelement":"Santo Domingo"},{"postalCode":"24347","state":"Campeche","municipality":"Candelaria","setelement":"San Miguel"},{"postalCode":"24347","state":"Campeche","municipality":"Candelaria","setelement":"Flor de Chiapas"},{"postalCode":"24347","state":"Campeche","municipality":"Candelaria","setelement":"Narcizo Mendoza"},{"postalCode":"24347","state":"Campeche","municipality":"Candelaria","setelement":"Tenancingo"},{"postalCode":"24347","state":"Campeche","municipality":"Candelaria","setelement":"Vicente Guerrero Número 2"},{"postalCode":"24347","state":"Campeche","municipality":"Candelaria","setelement":"Nueva Delicias II"},{"postalCode":"24348","state":"Campeche","municipality":"Candelaria","setelement":"Laguna la Perdida"},{"postalCode":"24348","state":"Campeche","municipality":"Candelaria","setelement":"Aguas Malas (Tres Cruces)"},{"postalCode":"24348","state":"Campeche","municipality":"Candelaria","setelement":"Arroyo San Juan (Las Golondrinas)"},{"postalCode":"24348","state":"Campeche","municipality":"Candelaria","setelement":"La Esperancita Dos"},{"postalCode":"24348","state":"Campeche","municipality":"Candelaria","setelement":"La Ilusión"},{"postalCode":"24348","state":"Campeche","municipality":"Candelaria","setelement":"Laguna San Ramón I"},{"postalCode":"24348","state":"Campeche","municipality":"Candelaria","setelement":"Héctor Pérez Morales"},{"postalCode":"24348","state":"Campeche","municipality":"Candelaria","setelement":"San Manuel Nuevo Canutillo"},{"postalCode":"24348","state":"Campeche","municipality":"Candelaria","setelement":"La Esmeralda"},{"postalCode":"24348","state":"Campeche","municipality":"Candelaria","setelement":"Ignacio Zaragoza (El Salvaje)"},{"postalCode":"24350","state":"Campeche","municipality":"Escárcega","setelement":"Escárcega Centro"},{"postalCode":"24350","state":"Campeche","municipality":"Escárcega","setelement":"Emiliano Zapata"},{"postalCode":"24350","state":"Campeche","municipality":"Escárcega","setelement":"Fátima"},{"postalCode":"24350","state":"Campeche","municipality":"Escárcega","setelement":"Sal Si Puedes II"},{"postalCode":"24350","state":"Campeche","municipality":"Escárcega","setelement":"Benito Juárez"},{"postalCode":"24350","state":"Campeche","municipality":"Escárcega","setelement":"Sal Si Puedes I"},{"postalCode":"24350","state":"Campeche","municipality":"Escárcega","setelement":"Jesús García"},{"postalCode":"24350","state":"Campeche","municipality":"Escárcega","setelement":"Concordia"},{"postalCode":"24350","state":"Campeche","municipality":"Escárcega","setelement":"10 de Mayo"},{"postalCode":"24350","state":"Campeche","municipality":"Escárcega","setelement":"Flores Magón"},{"postalCode":"24350","state":"Campeche","municipality":"Escárcega","setelement":"Revolución"},{"postalCode":"24350","state":"Campeche","municipality":"Escárcega","setelement":"Morelos"},{"postalCode":"24350","state":"Campeche","municipality":"Escárcega","setelement":"Fertimex"},{"postalCode":"24350","state":"Campeche","municipality":"Escárcega","setelement":"Esperanza"},{"postalCode":"24350","state":"Campeche","municipality":"Escárcega","setelement":"Unidad Esfuerzo y Trabajo II"},{"postalCode":"24350","state":"Campeche","municipality":"Escárcega","setelement":"Unidad Esfuerzo y Trabajo I"},{"postalCode":"24350","state":"Campeche","municipality":"Escárcega","setelement":"I. Zaragoza"},{"postalCode":"24350","state":"Campeche","municipality":"Escárcega","setelement":"C. Salinas de Gortari"},{"postalCode":"24350","state":"Campeche","municipality":"Escárcega","setelement":"Vicente Fox"},{"postalCode":"24350","state":"Campeche","municipality":"Escárcega","setelement":"La Jeringa"},{"postalCode":"24353","state":"Campeche","municipality":"Escárcega","setelement":"Miguel Hidalgo (Caracol)"},{"postalCode":"24353","state":"Campeche","municipality":"Escárcega","setelement":"California"},{"postalCode":"24353","state":"Campeche","municipality":"Escárcega","setelement":"Colonia San Francisco (El Cinco)"},{"postalCode":"24353","state":"Campeche","municipality":"Escárcega","setelement":"El Arbolito"},{"postalCode":"24353","state":"Campeche","municipality":"Escárcega","setelement":"El Caracol"},{"postalCode":"24353","state":"Campeche","municipality":"Escárcega","setelement":"Matamoros"},{"postalCode":"24354","state":"Campeche","municipality":"Escárcega","setelement":"Don Samuel"},{"postalCode":"24354","state":"Campeche","municipality":"Escárcega","setelement":"División del Norte"},{"postalCode":"24354","state":"Campeche","municipality":"Escárcega","setelement":"Haro"},{"postalCode":"24355","state":"Campeche","municipality":"Escárcega","setelement":"El Calabozo"},{"postalCode":"24356","state":"Campeche","municipality":"Escárcega","setelement":"El Gallo Samuel (El Gallito)"},{"postalCode":"24357","state":"Campeche","municipality":"Escárcega","setelement":"Ignacio Magdaleno"},{"postalCode":"24357","state":"Campeche","municipality":"Escárcega","setelement":"La Misteriosa"},{"postalCode":"24357","state":"Campeche","municipality":"Escárcega","setelement":"Luna"},{"postalCode":"24357","state":"Campeche","municipality":"Escárcega","setelement":"Francisco I. Madero"},{"postalCode":"24357","state":"Campeche","municipality":"Escárcega","setelement":"Benito Juárez (La Polla)"},{"postalCode":"24357","state":"Campeche","municipality":"Escárcega","setelement":"La Flor"},{"postalCode":"24358","state":"Campeche","municipality":"Escárcega","setelement":"El Corriental"},{"postalCode":"24358","state":"Campeche","municipality":"Escárcega","setelement":"El Gallo"},{"postalCode":"24358","state":"Campeche","municipality":"Escárcega","setelement":"El Pozo"},{"postalCode":"24358","state":"Campeche","municipality":"Escárcega","setelement":"El Retiro"},{"postalCode":"24358","state":"Campeche","municipality":"Escárcega","setelement":"Santa Cruz"},{"postalCode":"24358","state":"Campeche","municipality":"Escárcega","setelement":"Santa Isabel"},{"postalCode":"24358","state":"Campeche","municipality":"Escárcega","setelement":"Guadalajara"},{"postalCode":"24358","state":"Campeche","municipality":"Escárcega","setelement":"El Huiro"},{"postalCode":"24364","state":"Campeche","municipality":"Escárcega","setelement":"San José"},{"postalCode":"24364","state":"Campeche","municipality":"Escárcega","setelement":"La Esperanza"},{"postalCode":"24364","state":"Campeche","municipality":"Escárcega","setelement":"Kilómetro Setenta y Cuatro"},{"postalCode":"24364","state":"Campeche","municipality":"Escárcega","setelement":"Juan Escutia"},{"postalCode":"24364","state":"Campeche","municipality":"Escárcega","setelement":"Juan de la Barrera"},{"postalCode":"24365","state":"Campeche","municipality":"Escárcega","setelement":"La Constancia"},{"postalCode":"24365","state":"Campeche","municipality":"Escárcega","setelement":"San Carlos"},{"postalCode":"24365","state":"Campeche","municipality":"Escárcega","setelement":"San Pedro"},{"postalCode":"24365","state":"Campeche","municipality":"Escárcega","setelement":"La Victoria"},{"postalCode":"24366","state":"Campeche","municipality":"Escárcega","setelement":"El Zacatecano"},{"postalCode":"24366","state":"Campeche","municipality":"Escárcega","setelement":"María de la Luz"},{"postalCode":"24366","state":"Campeche","municipality":"Escárcega","setelement":"San Luis"},{"postalCode":"24367","state":"Campeche","municipality":"Escárcega","setelement":"El Diamante"},{"postalCode":"24367","state":"Campeche","municipality":"Escárcega","setelement":"El Rosario (Puerto Escondido)"},{"postalCode":"24367","state":"Campeche","municipality":"Escárcega","setelement":"La Fe"},{"postalCode":"24367","state":"Campeche","municipality":"Escárcega","setelement":"San José"},{"postalCode":"24367","state":"Campeche","municipality":"Escárcega","setelement":"Santa Martha (El Naranjito)"},{"postalCode":"24367","state":"Campeche","municipality":"Escárcega","setelement":"Nuevo Progreso Dos"},{"postalCode":"24368","state":"Campeche","municipality":"Escárcega","setelement":"Herradero"},{"postalCode":"24368","state":"Campeche","municipality":"Escárcega","setelement":"San Alejandro"},{"postalCode":"24368","state":"Campeche","municipality":"Escárcega","setelement":"José de la Cruz Blanco"},{"postalCode":"24368","state":"Campeche","municipality":"Escárcega","setelement":"Kilómetro Treinta y Seis"},{"postalCode":"24368","state":"Campeche","municipality":"Escárcega","setelement":"La Asunción"},{"postalCode":"24369","state":"Campeche","municipality":"Escárcega","setelement":"Chambalita"},{"postalCode":"24369","state":"Campeche","municipality":"Escárcega","setelement":"El Hular"},{"postalCode":"24369","state":"Campeche","municipality":"Escárcega","setelement":"El Tornillo"},{"postalCode":"24369","state":"Campeche","municipality":"Escárcega","setelement":"Miguel Hidalgo y Costilla"},{"postalCode":"24369","state":"Campeche","municipality":"Escárcega","setelement":"La Chiquita"},{"postalCode":"24370","state":"Campeche","municipality":"Escárcega","setelement":"Altamira de Zináparo"},{"postalCode":"24370","state":"Campeche","municipality":"Escárcega","setelement":"Silvituc"},{"postalCode":"24370","state":"Campeche","municipality":"Escárcega","setelement":"Centenario"},{"postalCode":"24370","state":"Campeche","municipality":"Escárcega","setelement":"Flor de Chiapas"},{"postalCode":"24370","state":"Campeche","municipality":"Escárcega","setelement":"Laguna Grande"},{"postalCode":"24370","state":"Campeche","municipality":"Escárcega","setelement":"José López Portillo"},{"postalCode":"24370","state":"Campeche","municipality":"Escárcega","setelement":"Benito Juárez Número 3"},{"postalCode":"24372","state":"Campeche","municipality":"Escárcega","setelement":"Emiliano Zapata"},{"postalCode":"24373","state":"Campeche","municipality":"Escárcega","setelement":"Las Maravillas"},{"postalCode":"24373","state":"Campeche","municipality":"Escárcega","setelement":"Chan Laguna"},{"postalCode":"24373","state":"Campeche","municipality":"Escárcega","setelement":"El Jobal"},{"postalCode":"24374","state":"Campeche","municipality":"Escárcega","setelement":"La Libertad"},{"postalCode":"24374","state":"Campeche","municipality":"Escárcega","setelement":"Justicia Social"},{"postalCode":"24374","state":"Campeche","municipality":"Escárcega","setelement":"Adolfo López Mateos"},{"postalCode":"24374","state":"Campeche","municipality":"Escárcega","setelement":"El Lechugal"},{"postalCode":"24374","state":"Campeche","municipality":"Escárcega","setelement":"Nuevo Campeche (Tres Aguadas)"},{"postalCode":"24375","state":"Campeche","municipality":"Escárcega","setelement":"Belén"},{"postalCode":"24375","state":"Campeche","municipality":"Escárcega","setelement":"General Rodolfo Fierros"},{"postalCode":"24375","state":"Campeche","municipality":"Escárcega","setelement":"Miguel de la Madrid"},{"postalCode":"24376","state":"Campeche","municipality":"Escárcega","setelement":"Alto Río Caribe"},{"postalCode":"24377","state":"Campeche","municipality":"Escárcega","setelement":"El Conejo"},{"postalCode":"24400","state":"Campeche","municipality":"Champotón","setelement":"Tierra y Libertad"},{"postalCode":"24400","state":"Campeche","municipality":"Champotón","setelement":"Lindavista"},{"postalCode":"24400","state":"Campeche","municipality":"Champotón","setelement":"Champotón Centro"},{"postalCode":"24400","state":"Campeche","municipality":"Champotón","setelement":"Cristóbal Colon"},{"postalCode":"24400","state":"Campeche","municipality":"Champotón","setelement":"Pozo del Chenpek"},{"postalCode":"24400","state":"Campeche","municipality":"Champotón","setelement":"La Cruz"},{"postalCode":"24400","state":"Campeche","municipality":"Champotón","setelement":"Las Brisas"},{"postalCode":"24400","state":"Campeche","municipality":"Champotón","setelement":"INFONAVIT Miraflores"},{"postalCode":"24400","state":"Campeche","municipality":"Champotón","setelement":"Moch-Cohuo"},{"postalCode":"24400","state":"Campeche","municipality":"Champotón","setelement":"Nueva Esperanza"},{"postalCode":"24400","state":"Campeche","municipality":"Champotón","setelement":"Nueva Esperanza INFONAVIT"},{"postalCode":"24400","state":"Campeche","municipality":"Champotón","setelement":"Plan-chac"},{"postalCode":"24400","state":"Campeche","municipality":"Champotón","setelement":"Pozo del Monte"},{"postalCode":"24400","state":"Campeche","municipality":"Champotón","setelement":"San Patricio"},{"postalCode":"24400","state":"Campeche","municipality":"Champotón","setelement":"Tajonal"},{"postalCode":"24400","state":"Campeche","municipality":"Champotón","setelement":"Venustiano Carranza"},{"postalCode":"24400","state":"Campeche","municipality":"Champotón","setelement":"Arenal"},{"postalCode":"24400","state":"Campeche","municipality":"Champotón","setelement":"Arrocera"},{"postalCode":"24400","state":"Campeche","municipality":"Champotón","setelement":"Aserradero"},{"postalCode":"24400","state":"Campeche","municipality":"Champotón","setelement":"Avenida"},{"postalCode":"24400","state":"Campeche","municipality":"Champotón","setelement":"Cañaveral"},{"postalCode":"24400","state":"Campeche","municipality":"Champotón","setelement":"Cardenal"},{"postalCode":"24400","state":"Campeche","municipality":"Champotón","setelement":"Carolinas"},{"postalCode":"24400","state":"Campeche","municipality":"Champotón","setelement":"Centenario"},{"postalCode":"24400","state":"Campeche","municipality":"Champotón","setelement":"Cocal"},{"postalCode":"24400","state":"Campeche","municipality":"Champotón","setelement":"Concepción Duran"},{"postalCode":"24400","state":"Campeche","municipality":"Champotón","setelement":"Cuauhtémoc"},{"postalCode":"24400","state":"Campeche","municipality":"Champotón","setelement":"Flamboyan"},{"postalCode":"24400","state":"Campeche","municipality":"Champotón","setelement":"Guadalupe"},{"postalCode":"24400","state":"Campeche","municipality":"Champotón","setelement":"Guadalupe Victoria"},{"postalCode":"24400","state":"Campeche","municipality":"Champotón","setelement":"INFONAVIT"},{"postalCode":"24400","state":"Campeche","municipality":"Champotón","setelement":"ISSSTE"},{"postalCode":"24400","state":"Campeche","municipality":"Champotón","setelement":"La Playa"},{"postalCode":"24400","state":"Campeche","municipality":"Champotón","setelement":"La Santa"},{"postalCode":"24400","state":"Campeche","municipality":"Champotón","setelement":"Las Mercedes"},{"postalCode":"24400","state":"Campeche","municipality":"Champotón","setelement":"Las Palomas"},{"postalCode":"24400","state":"Campeche","municipality":"Champotón","setelement":"Laureles"},{"postalCode":"24400","state":"Campeche","municipality":"Champotón","setelement":"Lázaro Cárdenas"},{"postalCode":"24400","state":"Campeche","municipality":"Champotón","setelement":"Malecón"},{"postalCode":"24400","state":"Campeche","municipality":"Champotón","setelement":"Manguitos"},{"postalCode":"24400","state":"Campeche","municipality":"Champotón","setelement":"Nueva Jerusalén"},{"postalCode":"24400","state":"Campeche","municipality":"Champotón","setelement":"Paraíso"},{"postalCode":"24400","state":"Campeche","municipality":"Champotón","setelement":"Pedregal"},{"postalCode":"24400","state":"Campeche","municipality":"Champotón","setelement":"Puente Viejo"},{"postalCode":"24400","state":"Campeche","municipality":"Champotón","setelement":"Ulises Sansores"},{"postalCode":"24400","state":"Campeche","municipality":"Champotón","setelement":"Huanal"},{"postalCode":"24400","state":"Campeche","municipality":"Champotón","setelement":"Camaroncito"},{"postalCode":"24400","state":"Campeche","municipality":"Champotón","setelement":"Microondas"},{"postalCode":"24400","state":"Campeche","municipality":"Champotón","setelement":"Mirador"},{"postalCode":"24400","state":"Campeche","municipality":"Champotón","setelement":"ISSFAM"},{"postalCode":"24402","state":"Campeche","municipality":"Champotón","setelement":"Ulumal"},{"postalCode":"24402","state":"Campeche","municipality":"Champotón","setelement":"Moquel"},{"postalCode":"24402","state":"Campeche","municipality":"Champotón","setelement":"El Zapote"},{"postalCode":"24402","state":"Campeche","municipality":"Champotón","setelement":"Canasayab"},{"postalCode":"24402","state":"Campeche","municipality":"Champotón","setelement":"San Antonio del Río"},{"postalCode":"24404","state":"Campeche","municipality":"Champotón","setelement":"San José Carpizo Uno (San Fernando)"},{"postalCode":"24404","state":"Campeche","municipality":"Champotón","setelement":"San José Carpizo Dos"},{"postalCode":"24410","state":"Campeche","municipality":"Champotón","setelement":"Ley Federal de Reforma Agraria"},{"postalCode":"24410","state":"Campeche","municipality":"Champotón","setelement":"San Luis Carpizo"},{"postalCode":"24410","state":"Campeche","municipality":"Champotón","setelement":"San Pablo"},{"postalCode":"24410","state":"Campeche","municipality":"Champotón","setelement":"Vicente Guerrero"},{"postalCode":"24410","state":"Campeche","municipality":"Champotón","setelement":"Punta Xen"},{"postalCode":"24410","state":"Campeche","municipality":"Champotón","setelement":"Villamar"},{"postalCode":"24410","state":"Campeche","municipality":"Champotón","setelement":"La Fraternidad"},{"postalCode":"24410","state":"Campeche","municipality":"Champotón","setelement":"San Felipe"},{"postalCode":"24410","state":"Campeche","municipality":"Champotón","setelement":"San Marcos"},{"postalCode":"24410","state":"Campeche","municipality":"Champotón","setelement":"El Caporal"},{"postalCode":"24410","state":"Campeche","municipality":"Champotón","setelement":"La Estrella"},{"postalCode":"24411","state":"Campeche","municipality":"Champotón","setelement":"Maya Tecún II"},{"postalCode":"24411","state":"Campeche","municipality":"Champotón","setelement":"López Mateos (La Desconfianza)"},{"postalCode":"24411","state":"Campeche","municipality":"Champotón","setelement":"Pustunich"},{"postalCode":"24411","state":"Campeche","municipality":"Champotón","setelement":"San Antonio Yacasay"},{"postalCode":"24411","state":"Campeche","municipality":"Champotón","setelement":"Maya Tecún I"},{"postalCode":"24411","state":"Campeche","municipality":"Champotón","setelement":"Nueva Esperanza Número 2 (Santo Domingo)"},{"postalCode":"24413","state":"Campeche","municipality":"Champotón","setelement":"San Pablo Pixtún"},{"postalCode":"24413","state":"Campeche","municipality":"Champotón","setelement":"Valle Hermoso"},{"postalCode":"24414","state":"Campeche","municipality":"Champotón","setelement":"Pixoyal"},{"postalCode":"24414","state":"Campeche","municipality":"Champotón","setelement":"Dzacabuchén"},{"postalCode":"24414","state":"Campeche","municipality":"Champotón","setelement":"José María Morelos y Pavón (El Pocito)"},{"postalCode":"24414","state":"Campeche","municipality":"Champotón","setelement":"José María Morelos y Pavón"},{"postalCode":"24414","state":"Campeche","municipality":"Champotón","setelement":"Revolución"},{"postalCode":"24414","state":"Campeche","municipality":"Champotón","setelement":"Aquiles Serdán (Chuiná)"},{"postalCode":"24414","state":"Campeche","municipality":"Champotón","setelement":"General Ortiz Ávila"},{"postalCode":"24414","state":"Campeche","municipality":"Champotón","setelement":"Lázaro Cárdenas"},{"postalCode":"24414","state":"Campeche","municipality":"Champotón","setelement":"Nueva Esperanza Uno (San Miguel Tobías)"},{"postalCode":"24414","state":"Campeche","municipality":"Champotón","setelement":"Monte Bravo"},{"postalCode":"24415","state":"Campeche","municipality":"Champotón","setelement":"Carrillo Puerto"},{"postalCode":"24416","state":"Campeche","municipality":"Champotón","setelement":"Xbacab"},{"postalCode":"24418","state":"Campeche","municipality":"Champotón","setelement":"Cinco de Febrero"},{"postalCode":"24418","state":"Campeche","municipality":"Champotón","setelement":"Miguel Colorado"},{"postalCode":"24419","state":"Campeche","municipality":"Champotón","setelement":"Profesor Graciano Sánchez"},{"postalCode":"24420","state":"Campeche","municipality":"Champotón","setelement":"Arellano"},{"postalCode":"24420","state":"Campeche","municipality":"Champotón","setelement":"Santa Cruz de Rovira"},{"postalCode":"24421","state":"Campeche","municipality":"Champotón","setelement":"Villa de Guadalupe"},{"postalCode":"24421","state":"Campeche","municipality":"Champotón","setelement":"San Juan Carpizo"},{"postalCode":"24421","state":"Campeche","municipality":"Champotón","setelement":"San Miguel"},{"postalCode":"24421","state":"Campeche","municipality":"Champotón","setelement":"Cañaveral"},{"postalCode":"24423","state":"Campeche","municipality":"Champotón","setelement":"Nuevo Michoacán"},{"postalCode":"24424","state":"Campeche","municipality":"Champotón","setelement":"Nayarit Castellot"},{"postalCode":"24424","state":"Campeche","municipality":"Champotón","setelement":"Coronel Ortiz Ávila"},{"postalCode":"24424","state":"Campeche","municipality":"Champotón","setelement":"López Portillo 2 (Nilun)"},{"postalCode":"24424","state":"Campeche","municipality":"Champotón","setelement":"Valle de Quetzalcóatl"},{"postalCode":"24440","state":"Campeche","municipality":"Champotón","setelement":"Hool"},{"postalCode":"24440","state":"Campeche","municipality":"Champotón","setelement":"Santo Domingo Kesté"},{"postalCode":"24441","state":"Campeche","municipality":"Champotón","setelement":"Carlos Salinas de Gortari"},{"postalCode":"24441","state":"Campeche","municipality":"Champotón","setelement":"Buenaventura"},{"postalCode":"24441","state":"Campeche","municipality":"Champotón","setelement":"Dzitbalché Castellot"},{"postalCode":"24443","state":"Campeche","municipality":"Champotón","setelement":"Chac Chaito"},{"postalCode":"24443","state":"Campeche","municipality":"Champotón","setelement":"Yohaltún"},{"postalCode":"24443","state":"Campeche","municipality":"Champotón","setelement":"Ah Kim Pech"},{"postalCode":"24443","state":"Campeche","municipality":"Champotón","setelement":"Chilam Balam"},{"postalCode":"24443","state":"Campeche","municipality":"Champotón","setelement":"Ignacio López Rayón"},{"postalCode":"24443","state":"Campeche","municipality":"Champotón","setelement":"Kukulkán"},{"postalCode":"24443","state":"Campeche","municipality":"Champotón","setelement":"Miguel Allende"},{"postalCode":"24443","state":"Campeche","municipality":"Champotón","setelement":"Moch Cohuó"},{"postalCode":"24443","state":"Campeche","municipality":"Champotón","setelement":"La Providencia"},{"postalCode":"24443","state":"Campeche","municipality":"Champotón","setelement":"Nuevo Paraíso [Módulo]"},{"postalCode":"24450","state":"Campeche","municipality":"Champotón","setelement":"Sihochac"},{"postalCode":"24451","state":"Campeche","municipality":"Champotón","setelement":"El Porvenir"},{"postalCode":"24451","state":"Campeche","municipality":"Champotón","setelement":"La Joya"},{"postalCode":"24451","state":"Campeche","municipality":"Champotón","setelement":"La Noria"},{"postalCode":"24459","state":"Campeche","municipality":"Champotón","setelement":"Ciudad del Sol"},{"postalCode":"24460","state":"Campeche","municipality":"Seybaplaya","setelement":"Seybaplaya Centro"},{"postalCode":"24460","state":"Campeche","municipality":"Seybaplaya","setelement":"Fátima"},{"postalCode":"24460","state":"Campeche","municipality":"Seybaplaya","setelement":"Carmelita"},{"postalCode":"24460","state":"Campeche","municipality":"Seybaplaya","setelement":"San Isidro"},{"postalCode":"24460","state":"Campeche","municipality":"Seybaplaya","setelement":"Hornos"},{"postalCode":"24460","state":"Campeche","municipality":"Seybaplaya","setelement":"Tizimín"},{"postalCode":"24460","state":"Campeche","municipality":"Seybaplaya","setelement":"Santa Cruz"},{"postalCode":"24460","state":"Campeche","municipality":"Seybaplaya","setelement":"Santa Clara"},{"postalCode":"24460","state":"Campeche","municipality":"Seybaplaya","setelement":"Guadalupe"},{"postalCode":"24460","state":"Campeche","municipality":"Seybaplaya","setelement":"La Jimba"},{"postalCode":"24460","state":"Campeche","municipality":"Seybaplaya","setelement":"Cristo Rey"},{"postalCode":"24460","state":"Campeche","municipality":"Seybaplaya","setelement":"16 de Septiembre"},{"postalCode":"24460","state":"Campeche","municipality":"Seybaplaya","setelement":"Frutales"},{"postalCode":"24460","state":"Campeche","municipality":"Seybaplaya","setelement":"San Rafael"},{"postalCode":"24460","state":"Campeche","municipality":"Seybaplaya","setelement":"Siho Playa (Hotel)"},{"postalCode":"24460","state":"Campeche","municipality":"Seybaplaya","setelement":"Costa Blanca"},{"postalCode":"24460","state":"Campeche","municipality":"Seybaplaya","setelement":"El Sombrerón"},{"postalCode":"24462","state":"Campeche","municipality":"Seybaplaya","setelement":"Nuevo Amanecer"},{"postalCode":"24462","state":"Campeche","municipality":"Seybaplaya","setelement":"Villa Madero"},{"postalCode":"24462","state":"Campeche","municipality":"Seybaplaya","setelement":"Haltunchén"},{"postalCode":"24464","state":"Campeche","municipality":"Seybaplaya","setelement":"Xkeulil"},{"postalCode":"24500","state":"Campeche","municipality":"Campeche","setelement":"Lerma Centro"},{"postalCode":"24500","state":"Campeche","municipality":"Campeche","setelement":"Lázaro Cárdenas"},{"postalCode":"24500","state":"Campeche","municipality":"Campeche","setelement":"Chiapaneca"},{"postalCode":"24500","state":"Campeche","municipality":"Campeche","setelement":"Tepeyac"},{"postalCode":"24500","state":"Campeche","municipality":"Campeche","setelement":"Las Brisas"},{"postalCode":"24500","state":"Campeche","municipality":"Campeche","setelement":"San Antonio"},{"postalCode":"24500","state":"Campeche","municipality":"Campeche","setelement":"Tres Cruces"},{"postalCode":"24500","state":"Campeche","municipality":"Campeche","setelement":"Marañon"},{"postalCode":"24500","state":"Campeche","municipality":"Campeche","setelement":"Becan"},{"postalCode":"24500","state":"Campeche","municipality":"Campeche","setelement":"Playa Bonita"},{"postalCode":"24500","state":"Campeche","municipality":"Campeche","setelement":"Pesquera"},{"postalCode":"24500","state":"Campeche","municipality":"Campeche","setelement":"Satélite"},{"postalCode":"24500","state":"Campeche","municipality":"Campeche","setelement":"Huayita"},{"postalCode":"24500","state":"Campeche","municipality":"Campeche","setelement":"Lerma"},{"postalCode":"24500","state":"Campeche","municipality":"Campeche","setelement":"Kila"},{"postalCode":"24500","state":"Campeche","municipality":"Campeche","setelement":"Espíritu Santo"},{"postalCode":"24500","state":"Campeche","municipality":"Campeche","setelement":"La Guadalupana"},{"postalCode":"24500","state":"Campeche","municipality":"Campeche","setelement":"Secretaria de Marina"},{"postalCode":"24500","state":"Campeche","municipality":"Campeche","setelement":"San Bartolo"},{"postalCode":"24505","state":"Campeche","municipality":"Campeche","setelement":"San Lorenzo"},{"postalCode":"24517","state":"Campeche","municipality":"Campeche","setelement":"Castamay"},{"postalCode":"24520","state":"Campeche","municipality":"Campeche","setelement":"Campestre Los Almendros"},{"postalCode":"24520","state":"Campeche","municipality":"Campeche","setelement":"China"},{"postalCode":"24520","state":"Campeche","municipality":"Campeche","setelement":"Hobomo"},{"postalCode":"24520","state":"Campeche","municipality":"Campeche","setelement":"Mucuychakan"},{"postalCode":"24520","state":"Campeche","municipality":"Campeche","setelement":"Uayamón"},{"postalCode":"24522","state":"Campeche","municipality":"Campeche","setelement":"San Agustin Ola"},{"postalCode":"24523","state":"Campeche","municipality":"Campeche","setelement":"Chulbac"},{"postalCode":"24532","state":"Campeche","municipality":"Campeche","setelement":"Pocyaxum"},{"postalCode":"24536","state":"Campeche","municipality":"Campeche","setelement":"Sierra Verde de Cayal"},{"postalCode":"24536","state":"Campeche","municipality":"Campeche","setelement":"Uzahzil-Edzná (Nohyaxché)"},{"postalCode":"24537","state":"Campeche","municipality":"Campeche","setelement":"Nohakal"},{"postalCode":"24540","state":"Campeche","municipality":"Campeche","setelement":"Pueblo Nuevo"},{"postalCode":"24540","state":"Campeche","municipality":"Campeche","setelement":"Cayal"},{"postalCode":"24540","state":"Campeche","municipality":"Campeche","setelement":"San Antonio Cayal"},{"postalCode":"24550","state":"Campeche","municipality":"Campeche","setelement":"Chencollí (Citro-Kampeche)"},{"postalCode":"24550","state":"Campeche","municipality":"Campeche","setelement":"Tikinmul"},{"postalCode":"24550","state":"Campeche","municipality":"Campeche","setelement":"San Antonio Bobolá"},{"postalCode":"24550","state":"Campeche","municipality":"Campeche","setelement":"Miguel Alemán (X- Campeu)"},{"postalCode":"24552","state":"Campeche","municipality":"Campeche","setelement":"Nilchi"},{"postalCode":"24553","state":"Campeche","municipality":"Campeche","setelement":"San Camilo (Chencollí)"},{"postalCode":"24557","state":"Campeche","municipality":"Campeche","setelement":"Crucero OXA"},{"postalCode":"24560","state":"Campeche","municipality":"Campeche","setelement":"Río Verde"},{"postalCode":"24560","state":"Campeche","municipality":"Campeche","setelement":"Hampolol"},{"postalCode":"24560","state":"Campeche","municipality":"Campeche","setelement":"Imi"},{"postalCode":"24560","state":"Campeche","municipality":"Campeche","setelement":"San Francisco Koben"},{"postalCode":"24561","state":"Campeche","municipality":"Campeche","setelement":"CERESO San Francisco Kobén"},{"postalCode":"24562","state":"Campeche","municipality":"Campeche","setelement":"Bethania"},{"postalCode":"24564","state":"Campeche","municipality":"Campeche","setelement":"Chemblas"},{"postalCode":"24570","state":"Campeche","municipality":"Campeche","setelement":"San Isidro"},{"postalCode":"24570","state":"Campeche","municipality":"Campeche","setelement":"Kikab"},{"postalCode":"24570","state":"Campeche","municipality":"Campeche","setelement":"Lubná"},{"postalCode":"24570","state":"Campeche","municipality":"Campeche","setelement":"Alfredo V. Bonfil"},{"postalCode":"24570","state":"Campeche","municipality":"Campeche","setelement":"Melchor Ocampo"},{"postalCode":"24570","state":"Campeche","municipality":"Campeche","setelement":"Tixmucuy"},{"postalCode":"24570","state":"Campeche","municipality":"Campeche","setelement":"Bolonchén Cahuich"},{"postalCode":"24570","state":"Campeche","municipality":"Campeche","setelement":"Nuevo Pénjamo"},{"postalCode":"24570","state":"Campeche","municipality":"Campeche","setelement":"Nueva Esperanza"},{"postalCode":"24572","state":"Campeche","municipality":"Campeche","setelement":"Pich"},{"postalCode":"24572","state":"Campeche","municipality":"Campeche","setelement":"San Luciano"},{"postalCode":"24573","state":"Campeche","municipality":"Campeche","setelement":"San Miguel Allende"},{"postalCode":"24573","state":"Campeche","municipality":"Campeche","setelement":"Carlos Cano Cruz (Los Tlaxcaltecas)"},{"postalCode":"24573","state":"Campeche","municipality":"Campeche","setelement":"Los Laureles"},{"postalCode":"24574","state":"Campeche","municipality":"Campeche","setelement":"Quetzal Edzná"},{"postalCode":"24574","state":"Campeche","municipality":"Campeche","setelement":"La Libertad"},{"postalCode":"24575","state":"Campeche","municipality":"Campeche","setelement":"Adolfo Ruiz Cortinez"},{"postalCode":"24600","state":"Campeche","municipality":"Hopelchén","setelement":"Hopelchen Centro"},{"postalCode":"24600","state":"Campeche","municipality":"Hopelchén","setelement":"El Tamarindo"},{"postalCode":"24600","state":"Campeche","municipality":"Hopelchén","setelement":"Santa Cruz"},{"postalCode":"24600","state":"Campeche","municipality":"Hopelchén","setelement":"Campo de Aviación"},{"postalCode":"24600","state":"Campeche","municipality":"Hopelchén","setelement":"Magisterial"},{"postalCode":"24600","state":"Campeche","municipality":"Hopelchén","setelement":"Norte"},{"postalCode":"24600","state":"Campeche","municipality":"Hopelchén","setelement":"San Román"},{"postalCode":"24600","state":"Campeche","municipality":"Hopelchén","setelement":"San Isidro"},{"postalCode":"24600","state":"Campeche","municipality":"Hopelchén","setelement":"San Luis"},{"postalCode":"24600","state":"Campeche","municipality":"Hopelchén","setelement":"San Martín"},{"postalCode":"24600","state":"Campeche","municipality":"Hopelchén","setelement":"Dolores Lanz"},{"postalCode":"24604","state":"Campeche","municipality":"Hopelchén","setelement":"El Poste"},{"postalCode":"24604","state":"Campeche","municipality":"Hopelchén","setelement":"San Juan Bautista Sahcabchén"},{"postalCode":"24604","state":"Campeche","municipality":"Hopelchén","setelement":"Ich-Ek"},{"postalCode":"24604","state":"Campeche","municipality":"Hopelchén","setelement":"Crucero San Luis"},{"postalCode":"24604","state":"Campeche","municipality":"Hopelchén","setelement":"San Francisco Suc-Tuc"},{"postalCode":"24604","state":"Campeche","municipality":"Hopelchén","setelement":"Santa Fe"},{"postalCode":"24605","state":"Campeche","municipality":"Hopelchén","setelement":"Xcupil"},{"postalCode":"24606","state":"Campeche","municipality":"Hopelchén","setelement":"Becanchén"},{"postalCode":"24607","state":"Campeche","municipality":"Hopelchén","setelement":"Komchén"},{"postalCode":"24609","state":"Campeche","municipality":"Hopelchén","setelement":"Pakchén"},{"postalCode":"24610","state":"Campeche","municipality":"Hopelchén","setelement":"Chencoh"},{"postalCode":"24611","state":"Campeche","municipality":"Hopelchén","setelement":"Dzibalchén"},{"postalCode":"24612","state":"Campeche","municipality":"Hopelchén","setelement":"Cancabchén"},{"postalCode":"24612","state":"Campeche","municipality":"Hopelchén","setelement":"Francisco J. Mújica (Los Ucán)"},{"postalCode":"24612","state":"Campeche","municipality":"Hopelchén","setelement":"San Isidro"},{"postalCode":"24613","state":"Campeche","municipality":"Hopelchén","setelement":"Chunchintok"},{"postalCode":"24615","state":"Campeche","municipality":"Hopelchén","setelement":"Ukum"},{"postalCode":"24615","state":"Campeche","municipality":"Hopelchén","setelement":"Xmejía"},{"postalCode":"24620","state":"Campeche","municipality":"Hopelchén","setelement":"Xcalot Akal"},{"postalCode":"24620","state":"Campeche","municipality":"Hopelchén","setelement":"San Bernardo Huechil"},{"postalCode":"24620","state":"Campeche","municipality":"Hopelchén","setelement":"Bolonchen de Rejón"},{"postalCode":"24620","state":"Campeche","municipality":"Hopelchén","setelement":"Xcanahaltún Huechil Unidos"},{"postalCode":"24620","state":"Campeche","municipality":"Hopelchén","setelement":"Katab"},{"postalCode":"24622","state":"Campeche","municipality":"Hopelchén","setelement":"Chunyaxnic"},{"postalCode":"24622","state":"Campeche","municipality":"Hopelchén","setelement":"San Antonio Yaxché"},{"postalCode":"24622","state":"Campeche","municipality":"Hopelchén","setelement":"Chuncedro"},{"postalCode":"24622","state":"Campeche","municipality":"Hopelchén","setelement":"Xculoc"},{"postalCode":"24623","state":"Campeche","municipality":"Hopelchén","setelement":"Yaxché Akal"},{"postalCode":"24623","state":"Campeche","municipality":"Hopelchén","setelement":"Rancho Sosa"},{"postalCode":"24624","state":"Campeche","municipality":"Hopelchén","setelement":"Campo Menonita"},{"postalCode":"24640","state":"Campeche","municipality":"Calakmul","setelement":"Bellavista"},{"postalCode":"24640","state":"Campeche","municipality":"Calakmul","setelement":"10 de Mayo"},{"postalCode":"24640","state":"Campeche","municipality":"Calakmul","setelement":"Xpujil"},{"postalCode":"24640","state":"Campeche","municipality":"Calakmul","setelement":"Bugambilias"},{"postalCode":"24640","state":"Campeche","municipality":"Calakmul","setelement":"Jardines"},{"postalCode":"24640","state":"Campeche","municipality":"Calakmul","setelement":"Aviación"},{"postalCode":"24640","state":"Campeche","municipality":"Calakmul","setelement":"Fundadores"},{"postalCode":"24643","state":"Campeche","municipality":"Calakmul","setelement":"Becan"},{"postalCode":"24643","state":"Campeche","municipality":"Calakmul","setelement":"Chicana"},{"postalCode":"24643","state":"Campeche","municipality":"Calakmul","setelement":"El Chichonal"},{"postalCode":"24643","state":"Campeche","municipality":"Calakmul","setelement":"Heriberto Jara Corona"},{"postalCode":"24643","state":"Campeche","municipality":"Calakmul","setelement":"Plan de San Luis"},{"postalCode":"24643","state":"Campeche","municipality":"Calakmul","setelement":"Valentín Gómez Farias"},{"postalCode":"24644","state":"Campeche","municipality":"Calakmul","setelement":"Nuevo Becal"},{"postalCode":"24644","state":"Campeche","municipality":"Calakmul","setelement":"Zoh-laguna (alvaro Obregón)"},{"postalCode":"24644","state":"Campeche","municipality":"Calakmul","setelement":"Bel-ha"},{"postalCode":"24644","state":"Campeche","municipality":"Calakmul","setelement":"Dos Lagunas"},{"postalCode":"24644","state":"Campeche","municipality":"Calakmul","setelement":"El Refugio"},{"postalCode":"24644","state":"Campeche","municipality":"Calakmul","setelement":"Nueva Vida"},{"postalCode":"24644","state":"Campeche","municipality":"Calakmul","setelement":"Ricardo Flores Magón"},{"postalCode":"24644","state":"Campeche","municipality":"Calakmul","setelement":"Tepeyac"},{"postalCode":"24644","state":"Campeche","municipality":"Calakmul","setelement":"Unión 20 de Junio"},{"postalCode":"24645","state":"Campeche","municipality":"Calakmul","setelement":"20 de Noviembre"},{"postalCode":"24645","state":"Campeche","municipality":"Calakmul","setelement":"Cristóbal Colon"},{"postalCode":"24645","state":"Campeche","municipality":"Calakmul","setelement":"Gral. Manuel Castilla Brito Km. 17"},{"postalCode":"24645","state":"Campeche","municipality":"Calakmul","setelement":"ing. Ricardo Payro Jene (polo Norte)"},{"postalCode":"24645","state":"Campeche","municipality":"Calakmul","setelement":"Los Ángeles"},{"postalCode":"24645","state":"Campeche","municipality":"Calakmul","setelement":"Caña Brava"},{"postalCode":"24645","state":"Campeche","municipality":"Calakmul","setelement":"Eugenio Echeverría Castellot (El Carrizal)"},{"postalCode":"24645","state":"Campeche","municipality":"Calakmul","setelement":"El Carmen II"},{"postalCode":"24645","state":"Campeche","municipality":"Calakmul","setelement":"El Manantial"},{"postalCode":"24645","state":"Campeche","municipality":"Calakmul","setelement":"El Porvenir"},{"postalCode":"24645","state":"Campeche","municipality":"Calakmul","setelement":"Felipe Ángeles"},{"postalCode":"24645","state":"Campeche","municipality":"Calakmul","setelement":"Gustavo Díaz Ordaz (San Antonio Soda)"},{"postalCode":"24645","state":"Campeche","municipality":"Calakmul","setelement":"Hermenegildo Galeana"},{"postalCode":"24645","state":"Campeche","municipality":"Calakmul","setelement":"San José"},{"postalCode":"24645","state":"Campeche","municipality":"Calakmul","setelement":"La Lucha"},{"postalCode":"24645","state":"Campeche","municipality":"Calakmul","setelement":"Lucha"},{"postalCode":"24645","state":"Campeche","municipality":"Calakmul","setelement":"La Victoria"},{"postalCode":"24645","state":"Campeche","municipality":"Calakmul","setelement":"La Virgencita de La Candelaria"},{"postalCode":"24645","state":"Campeche","municipality":"Calakmul","setelement":"Niños Héroes"},{"postalCode":"24645","state":"Campeche","municipality":"Calakmul","setelement":"Nuevo Campanario"},{"postalCode":"24645","state":"Campeche","municipality":"Calakmul","setelement":"Nuevo Progreso 3"},{"postalCode":"24645","state":"Campeche","municipality":"Calakmul","setelement":"Tomas Aznar Barbachano"},{"postalCode":"24645","state":"Campeche","municipality":"Calakmul","setelement":"Unidad y Trabajo"},{"postalCode":"24645","state":"Campeche","municipality":"Calakmul","setelement":"21 de Mayo (Lechugal)"},{"postalCode":"24645","state":"Campeche","municipality":"Calakmul","setelement":"Narciso Mendoza"},{"postalCode":"24646","state":"Campeche","municipality":"Calakmul","setelement":"Lázaro Cárdenas 2 (ojo de Agua)"},{"postalCode":"24646","state":"Campeche","municipality":"Calakmul","setelement":"Los Alacranes"},{"postalCode":"24646","state":"Campeche","municipality":"Calakmul","setelement":"16 de Septiembre"},{"postalCode":"24646","state":"Campeche","municipality":"Calakmul","setelement":"Bella Unión de Veracruz"},{"postalCode":"24646","state":"Campeche","municipality":"Calakmul","setelement":"Blasillo"},{"postalCode":"24646","state":"Campeche","municipality":"Calakmul","setelement":"Carlos A Madrazo"},{"postalCode":"24646","state":"Campeche","municipality":"Calakmul","setelement":"Cerro de las Flores (Sta. Rosa)"},{"postalCode":"24646","state":"Campeche","municipality":"Calakmul","setelement":"El Tesoro"},{"postalCode":"24646","state":"Campeche","municipality":"Calakmul","setelement":"Josefa Ortíz de Domínguez (Icaiché)"},{"postalCode":"24646","state":"Campeche","municipality":"Calakmul","setelement":"Los Tambores de Emiliano Zapata"},{"postalCode":"24646","state":"Campeche","municipality":"Calakmul","setelement":"Manuel Cresencio Rejón"},{"postalCode":"24646","state":"Campeche","municipality":"Calakmul","setelement":"Nuevo San José"},{"postalCode":"24646","state":"Campeche","municipality":"Calakmul","setelement":"Nuevo Veracruz"},{"postalCode":"24646","state":"Campeche","municipality":"Calakmul","setelement":"Pioneros del Río Xnohá"},{"postalCode":"24646","state":"Campeche","municipality":"Calakmul","setelement":"Quiche las Pailas"},{"postalCode":"24646","state":"Campeche","municipality":"Calakmul","setelement":"Plan de Ayala (5 de Mayo)"},{"postalCode":"24647","state":"Campeche","municipality":"Calakmul","setelement":"11 de Mayo"},{"postalCode":"24647","state":"Campeche","municipality":"Calakmul","setelement":"Arroyo Negro"},{"postalCode":"24647","state":"Campeche","municipality":"Calakmul","setelement":"Dos Naciones"},{"postalCode":"24647","state":"Campeche","municipality":"Calakmul","setelement":"José Ma. Morelos y Pavón"},{"postalCode":"24647","state":"Campeche","municipality":"Calakmul","setelement":"Justo Sierra Méndez"},{"postalCode":"24647","state":"Campeche","municipality":"Calakmul","setelement":"San Miguel"},{"postalCode":"24647","state":"Campeche","municipality":"Calakmul","setelement":"Santo Domingo"},{"postalCode":"24647","state":"Campeche","municipality":"Calakmul","setelement":"Dos Lagunas"},{"postalCode":"24647","state":"Campeche","municipality":"Calakmul","setelement":"Ley de Fomento Agropecuario (La Misteriosa)"},{"postalCode":"24648","state":"Campeche","municipality":"Calakmul","setelement":"Centauro del Norte"},{"postalCode":"24648","state":"Campeche","municipality":"Calakmul","setelement":"La Guadalupe"},{"postalCode":"24653","state":"Campeche","municipality":"Calakmul","setelement":"Nuevo Conhuas"},{"postalCode":"24653","state":"Campeche","municipality":"Calakmul","setelement":"Balanku"},{"postalCode":"24654","state":"Campeche","municipality":"Calakmul","setelement":"Felipe Ángeles II"},{"postalCode":"24654","state":"Campeche","municipality":"Calakmul","setelement":"Ingeniero Eugenio Echeverría Castellot"},{"postalCode":"24654","state":"Campeche","municipality":"Calakmul","setelement":"Puebla de Morelia"},{"postalCode":"24654","state":"Campeche","municipality":"Calakmul","setelement":"Emiliano Zapata"},{"postalCode":"24656","state":"Campeche","municipality":"Calakmul","setelement":"Central Chiclera Villahermosa"},{"postalCode":"24658","state":"Campeche","municipality":"Calakmul","setelement":"Xbonil"},{"postalCode":"24658","state":"Campeche","municipality":"Calakmul","setelement":"Constitución"},{"postalCode":"24658","state":"Campeche","municipality":"Calakmul","setelement":"Pablo Garcia"},{"postalCode":"24658","state":"Campeche","municipality":"Calakmul","setelement":"Santa Lucia"},{"postalCode":"24658","state":"Campeche","municipality":"Calakmul","setelement":"Concepción"},{"postalCode":"24660","state":"Campeche","municipality":"Hopelchén","setelement":"Vicente Guerrero"},{"postalCode":"24663","state":"Campeche","municipality":"Hopelchén","setelement":"Ramón Corona"},{"postalCode":"24667","state":"Campeche","municipality":"Hopelchén","setelement":"X-Canhá"},{"postalCode":"24667","state":"Campeche","municipality":"Hopelchén","setelement":"Nuevo Chan Yaxché"},{"postalCode":"24668","state":"Campeche","municipality":"Hopelchén","setelement":"Chun-Ek"},{"postalCode":"24668","state":"Campeche","municipality":"Hopelchén","setelement":"Pachuitz"},{"postalCode":"24668","state":"Campeche","municipality":"Hopelchén","setelement":"Chan-Chen"},{"postalCode":"24670","state":"Campeche","municipality":"Hopelchén","setelement":"Xmabén"},{"postalCode":"24700","state":"Campeche","municipality":"Tenabo","setelement":"Tenabo Centro"},{"postalCode":"24703","state":"Campeche","municipality":"Tenabo","setelement":"Jacinto Canek"},{"postalCode":"24704","state":"Campeche","municipality":"Tenabo","setelement":"San Pedro"},{"postalCode":"24705","state":"Campeche","municipality":"Tenabo","setelement":"Procesadora"},{"postalCode":"24706","state":"Campeche","municipality":"Tenabo","setelement":"Lazareto"},{"postalCode":"24706","state":"Campeche","municipality":"Tenabo","setelement":"Esperanza"},{"postalCode":"24706","state":"Campeche","municipality":"Tenabo","setelement":"Ana María Farias"},{"postalCode":"24707","state":"Campeche","municipality":"Tenabo","setelement":"Guadalupe"},{"postalCode":"24720","state":"Campeche","municipality":"Tenabo","setelement":"Kankí"},{"postalCode":"24723","state":"Campeche","municipality":"Tenabo","setelement":"Chilib"},{"postalCode":"24730","state":"Campeche","municipality":"Tenabo","setelement":"Tinún"},{"postalCode":"24732","state":"Campeche","municipality":"Tenabo","setelement":"Santa Rita Corralché"},{"postalCode":"24732","state":"Campeche","municipality":"Tenabo","setelement":"Emiliano Zapata"},{"postalCode":"24732","state":"Campeche","municipality":"Tenabo","setelement":"San Pedro Corralché"},{"postalCode":"24733","state":"Campeche","municipality":"Tenabo","setelement":"Nachehá"},{"postalCode":"24734","state":"Campeche","municipality":"Tenabo","setelement":"Xkuncheil"},{"postalCode":"24740","state":"Campeche","municipality":"Tenabo","setelement":"Santa Rosa"},{"postalCode":"24746","state":"Campeche","municipality":"Tenabo","setelement":"Orizaba"},{"postalCode":"24800","state":"Campeche","municipality":"Hecelchakán","setelement":"Centro Hecelchakán"},{"postalCode":"24800","state":"Campeche","municipality":"Hecelchakán","setelement":"La Conquista"},{"postalCode":"24800","state":"Campeche","municipality":"Hecelchakán","setelement":"San Antonio"},{"postalCode":"24800","state":"Campeche","municipality":"Hecelchakán","setelement":"San Francisco"},{"postalCode":"24800","state":"Campeche","municipality":"Hecelchakán","setelement":"San Juan"},{"postalCode":"24800","state":"Campeche","municipality":"Hecelchakán","setelement":"Abraham Azar"},{"postalCode":"24800","state":"Campeche","municipality":"Hecelchakán","setelement":"Las Gardenias"},{"postalCode":"24810","state":"Campeche","municipality":"Hecelchakán","setelement":"Centro Pomuch"},{"postalCode":"24810","state":"Campeche","municipality":"Hecelchakán","setelement":"Benito Juárez"},{"postalCode":"24810","state":"Campeche","municipality":"Hecelchakán","setelement":"Colonia Nueva"},{"postalCode":"24810","state":"Campeche","municipality":"Hecelchakán","setelement":"La Soledad"},{"postalCode":"24810","state":"Campeche","municipality":"Hecelchakán","setelement":"San Diego"},{"postalCode":"24810","state":"Campeche","municipality":"Hecelchakán","setelement":"San Jerónimo"},{"postalCode":"24810","state":"Campeche","municipality":"Hecelchakán","setelement":"San Pedro"},{"postalCode":"24810","state":"Campeche","municipality":"Hecelchakán","setelement":"Santa Cristina"},{"postalCode":"24810","state":"Campeche","municipality":"Hecelchakán","setelement":"Villa Lucrecia"},{"postalCode":"24813","state":"Campeche","municipality":"Hecelchakán","setelement":"Zodzil"},{"postalCode":"24820","state":"Campeche","municipality":"Hecelchakán","setelement":"Cumpich"},{"postalCode":"24826","state":"Campeche","municipality":"Hecelchakán","setelement":"Dzotchén"},{"postalCode":"24828","state":"Campeche","municipality":"Hecelchakán","setelement":"Chicmuc"},{"postalCode":"24828","state":"Campeche","municipality":"Hecelchakán","setelement":"Nohalal"},{"postalCode":"24830","state":"Campeche","municipality":"Hecelchakán","setelement":"Pocboc"},{"postalCode":"24830","state":"Campeche","municipality":"Hecelchakán","setelement":"Blanca Flor Hacienda"},{"postalCode":"24831","state":"Campeche","municipality":"Hecelchakán","setelement":"Chunkanán"},{"postalCode":"24836","state":"Campeche","municipality":"Hecelchakán","setelement":"Blanca Flor"},{"postalCode":"24837","state":"Campeche","municipality":"Hecelchakán","setelement":"Santa Cruz"},{"postalCode":"24837","state":"Campeche","municipality":"Hecelchakán","setelement":"San Felipe Tikín"},{"postalCode":"24839","state":"Campeche","municipality":"Hecelchakán","setelement":"Dzitnup"},{"postalCode":"24860","state":"Campeche","municipality":"Hecelchakán","setelement":"Campo Menonita Yalnón"},{"postalCode":"24863","state":"Campeche","municipality":"Hecelchakán","setelement":"Monte Bello"},{"postalCode":"24863","state":"Campeche","municipality":"Hecelchakán","setelement":"Campo Menonita Chaví Número Uno"},{"postalCode":"24900","state":"Campeche","municipality":"Calkiní","setelement":"Calkini Centro"},{"postalCode":"24902","state":"Campeche","municipality":"Calkiní","setelement":"Fátima"},{"postalCode":"24902","state":"Campeche","municipality":"Calkiní","setelement":"FOVISSSTE"},{"postalCode":"24902","state":"Campeche","municipality":"Calkiní","setelement":"San Isidro"},{"postalCode":"24902","state":"Campeche","municipality":"Calkiní","setelement":"San Juan"},{"postalCode":"24903","state":"Campeche","municipality":"Calkiní","setelement":"La Concepción"},{"postalCode":"24903","state":"Campeche","municipality":"Calkiní","setelement":"San Miguel Kukab"},{"postalCode":"24903","state":"Campeche","municipality":"Calkiní","setelement":"Guadalupe"},{"postalCode":"24903","state":"Campeche","municipality":"Calkiní","setelement":"San Luisito"},{"postalCode":"24903","state":"Campeche","municipality":"Calkiní","setelement":"San Martín"},{"postalCode":"24904","state":"Campeche","municipality":"Calkiní","setelement":"San Luis Obispo"},{"postalCode":"24904","state":"Campeche","municipality":"Calkiní","setelement":"Las Flores"},{"postalCode":"24904","state":"Campeche","municipality":"Calkiní","setelement":"Kilakan"},{"postalCode":"24905","state":"Campeche","municipality":"Calkiní","setelement":"Tepakan"},{"postalCode":"24910","state":"Campeche","municipality":"Calkiní","setelement":"El Gato Negro"},{"postalCode":"24910","state":"Campeche","municipality":"Calkiní","setelement":"San Román"},{"postalCode":"24910","state":"Campeche","municipality":"Calkiní","setelement":"Nunkini"},{"postalCode":"24913","state":"Campeche","municipality":"Calkiní","setelement":"Santa Cruz Pueblo"},{"postalCode":"24913","state":"Campeche","municipality":"Calkiní","setelement":"San Antonio Sahcabchén"},{"postalCode":"24914","state":"Campeche","municipality":"Calkiní","setelement":"Tankuche"},{"postalCode":"24914","state":"Campeche","municipality":"Calkiní","setelement":"San Agustín Chunhuás"},{"postalCode":"24914","state":"Campeche","municipality":"Calkiní","setelement":"Concepción"},{"postalCode":"24914","state":"Campeche","municipality":"Calkiní","setelement":"Xkakoch"},{"postalCode":"24915","state":"Campeche","municipality":"Calkiní","setelement":"Pucnachen"},{"postalCode":"24915","state":"Campeche","municipality":"Calkiní","setelement":"Santa María"},{"postalCode":"24916","state":"Campeche","municipality":"Calkiní","setelement":"Santa Cruz"},{"postalCode":"24917","state":"Campeche","municipality":"Calkiní","setelement":"San Nicolás"},{"postalCode":"24919","state":"Campeche","municipality":"Calkiní","setelement":"Isla Arena"},{"postalCode":"24920","state":"Campeche","municipality":"Dzitbalché","setelement":"Dzitbalché"},{"postalCode":"24920","state":"Campeche","municipality":"Dzitbalché","setelement":"San Feliciano"},{"postalCode":"24920","state":"Campeche","municipality":"Dzitbalché","setelement":"Solidaridad"},{"postalCode":"24925","state":"Campeche","municipality":"Dzitbalché","setelement":"Bacabchén"},{"postalCode":"24929","state":"Campeche","municipality":"Dzitbalché","setelement":"Chacnichén (El Pozo)"},{"postalCode":"24930","state":"Campeche","municipality":"Calkiní","setelement":"Bécal Centro"},{"postalCode":"24933","state":"Campeche","municipality":"Calkiní","setelement":"Los Tres Reyes"},{"postalCode":"24933","state":"Campeche","municipality":"Calkiní","setelement":"Fátima"},{"postalCode":"24934","state":"Campeche","municipality":"Calkiní","setelement":"Carlos Rivas"},{"postalCode":"24935","state":"Campeche","municipality":"Calkiní","setelement":"Pablo Garcia"},{"postalCode":"24935","state":"Campeche","municipality":"Calkiní","setelement":"Limón"},{"postalCode":"24935","state":"Campeche","municipality":"Calkiní","setelement":"Santa Cruz"},{"postalCode":"24935","state":"Campeche","municipality":"Calkiní","setelement":"El Pocito"},{"postalCode":"24936","state":"Campeche","municipality":"Calkiní","setelement":"San Diego"},{"postalCode":"24936","state":"Campeche","municipality":"Calkiní","setelement":"Estación"},{"postalCode":"24940","state":"Campeche","municipality":"Calkiní","setelement":"San Roque Xnolán"}]