[{"postalCode":"28000","state":"Colima","municipality":"Colima","setelement":"Colima Centro"},{"postalCode":"28010","state":"Colima","municipality":"Colima","setelement":"Lomas de Circunvalación"},{"postalCode":"28010","state":"Colima","municipality":"Colima","setelement":"Militar Lomas"},{"postalCode":"28014","state":"Colima","municipality":"Colima","setelement":"Jardines de las Lomas"},{"postalCode":"28016","state":"Colima","municipality":"Colima","setelement":"Lomas Vistahermosa"},{"postalCode":"28017","state":"Colima","municipality":"Colima","setelement":"Bugambilias"},{"postalCode":"28017","state":"Colima","municipality":"Colima","setelement":"Colinas de Santa Bárbara"},{"postalCode":"28017","state":"Colima","municipality":"Colima","setelement":"Jardines Vista Hermosa"},{"postalCode":"28017","state":"Colima","municipality":"Colima","setelement":"Las Palmas"},{"postalCode":"28017","state":"Colima","municipality":"Colima","setelement":"Lomas Verdes"},{"postalCode":"28017","state":"Colima","municipality":"Colima","setelement":"Parque Royal"},{"postalCode":"28017","state":"Colima","municipality":"Colima","setelement":"Residencial Santa Bárbara"},{"postalCode":"28017","state":"Colima","municipality":"Colima","setelement":"Lomas del Valle"},{"postalCode":"28017","state":"Colima","municipality":"Colima","setelement":"Residencial Valle Verde"},{"postalCode":"28017","state":"Colima","municipality":"Colima","setelement":"Rincón del Colibrí"},{"postalCode":"28017","state":"Colima","municipality":"Colima","setelement":"Bosque de la Cantera"},{"postalCode":"28017","state":"Colima","municipality":"Colima","setelement":"Residencial Puerta del Sol"},{"postalCode":"28017","state":"Colima","municipality":"Colima","setelement":"Residencial Esmeralda"},{"postalCode":"28017","state":"Colima","municipality":"Colima","setelement":"Villanova"},{"postalCode":"28017","state":"Colima","municipality":"Colima","setelement":"Privada San Rafael"},{"postalCode":"28017","state":"Colima","municipality":"Colima","setelement":"Villas Colinas"},{"postalCode":"28017","state":"Colima","municipality":"Colima","setelement":"Residencial Esmeralda Norte"},{"postalCode":"28017","state":"Colima","municipality":"Colima","setelement":"Residencial Los Olivos"},{"postalCode":"28017","state":"Colima","municipality":"Colima","setelement":"Jardines de La Hacienda"},{"postalCode":"28017","state":"Colima","municipality":"Colima","setelement":"Residencial Real Santa Bárbara"},{"postalCode":"28017","state":"Colima","municipality":"Colima","setelement":"Residencial Victoria"},{"postalCode":"28017","state":"Colima","municipality":"Colima","setelement":"Paseo de la Hacienda"},{"postalCode":"28017","state":"Colima","municipality":"Colima","setelement":"Colinas de Santa Fe"},{"postalCode":"28017","state":"Colima","municipality":"Colima","setelement":"Paseo de la Cantera"},{"postalCode":"28017","state":"Colima","municipality":"Colima","setelement":"Santa Gertrudis"},{"postalCode":"28018","state":"Colima","municipality":"Colima","setelement":"El Diezmo"},{"postalCode":"28018","state":"Colima","municipality":"Colima","setelement":"Hacienda Real"},{"postalCode":"28018","state":"Colima","municipality":"Colima","setelement":"Loredo Residencial"},{"postalCode":"28018","state":"Colima","municipality":"Colima","setelement":"Real Vista Hermosa"},{"postalCode":"28018","state":"Colima","municipality":"Colima","setelement":"Girasoles"},{"postalCode":"28018","state":"Colima","municipality":"Colima","setelement":"Valle Dorado"},{"postalCode":"28018","state":"Colima","municipality":"Colima","setelement":"Puerta Paraíso"},{"postalCode":"28018","state":"Colima","municipality":"Colima","setelement":"Real Vista Hermosa III"},{"postalCode":"28018","state":"Colima","municipality":"Colima","setelement":"La Cantera"},{"postalCode":"28018","state":"Colima","municipality":"Colima","setelement":"Las Pérgolas"},{"postalCode":"28018","state":"Colima","municipality":"Colima","setelement":"Residencial Santa María"},{"postalCode":"28019","state":"Colima","municipality":"Colima","setelement":"El Porvenir"},{"postalCode":"28019","state":"Colima","municipality":"Colima","setelement":"Puerta del Camino Real"},{"postalCode":"28020","state":"Colima","municipality":"Colima","setelement":"La Armonía"},{"postalCode":"28023","state":"Colima","municipality":"Colima","setelement":"Jardines de Guadalupe"},{"postalCode":"28025","state":"Colima","municipality":"Colima","setelement":"Niños Héroes"},{"postalCode":"28025","state":"Colima","municipality":"Colima","setelement":"Villa los Prados"},{"postalCode":"28030","state":"Colima","municipality":"Colima","setelement":"Guadalajarita"},{"postalCode":"28030","state":"Colima","municipality":"Colima","setelement":"Jardines de La Corregidora"},{"postalCode":"28030","state":"Colima","municipality":"Colima","setelement":"Jardines Residenciales"},{"postalCode":"28030","state":"Colima","municipality":"Colima","setelement":"Magisterial"},{"postalCode":"28030","state":"Colima","municipality":"Colima","setelement":"Morelos"},{"postalCode":"28035","state":"Colima","municipality":"Colima","setelement":"Huertas del Sol"},{"postalCode":"28037","state":"Colima","municipality":"Colima","setelement":"Hidalgo"},{"postalCode":"28040","state":"Colima","municipality":"Colima","setelement":"Camino Real"},{"postalCode":"28040","state":"Colima","municipality":"Colima","setelement":"INFONAVIT La Estancia"},{"postalCode":"28040","state":"Colima","municipality":"Colima","setelement":"Las Víboras"},{"postalCode":"28040","state":"Colima","municipality":"Colima","setelement":"Burócratas Municipales"},{"postalCode":"28043","state":"Colima","municipality":"Colima","setelement":"INFONAVIT Camino Real"},{"postalCode":"28044","state":"Colima","municipality":"Colima","setelement":"FOVISSSTE"},{"postalCode":"28045","state":"Colima","municipality":"Colima","setelement":"Villa San Sebastián"},{"postalCode":"28046","state":"Colima","municipality":"Colima","setelement":"Oriental"},{"postalCode":"28047","state":"Colima","municipality":"Colima","setelement":"Lomas de Santa Elena"},{"postalCode":"28047","state":"Colima","municipality":"Colima","setelement":"Villa de los Pinos"},{"postalCode":"28047","state":"Colima","municipality":"Colima","setelement":"Andares del Jazmín"},{"postalCode":"28047","state":"Colima","municipality":"Colima","setelement":"Camino Real"},{"postalCode":"28047","state":"Colima","municipality":"Colima","setelement":"Francisco I Madero"},{"postalCode":"28047","state":"Colima","municipality":"Colima","setelement":"Jardines de La Estancia"},{"postalCode":"28047","state":"Colima","municipality":"Colima","setelement":"Josefa Ortiz de Domínguez"},{"postalCode":"28047","state":"Colima","municipality":"Colima","setelement":"La Virgencita"},{"postalCode":"28047","state":"Colima","municipality":"Colima","setelement":"Lázaro Cárdenas"},{"postalCode":"28047","state":"Colima","municipality":"Colima","setelement":"Luis Donaldo Colosio"},{"postalCode":"28047","state":"Colima","municipality":"Colima","setelement":"Revolución"},{"postalCode":"28047","state":"Colima","municipality":"Colima","setelement":"San José Norte"},{"postalCode":"28047","state":"Colima","municipality":"Colima","setelement":"Rivera del Jazmín"},{"postalCode":"28047","state":"Colima","municipality":"Colima","setelement":"Real la Floresta"},{"postalCode":"28047","state":"Colima","municipality":"Colima","setelement":"IKAL"},{"postalCode":"28047","state":"Colima","municipality":"Colima","setelement":"Santa Elena"},{"postalCode":"28047","state":"Colima","municipality":"Colima","setelement":"Las Américas"},{"postalCode":"28047","state":"Colima","municipality":"Colima","setelement":"Unidad Antorchista"},{"postalCode":"28047","state":"Colima","municipality":"Colima","setelement":"El Mirador de Colima"},{"postalCode":"28047","state":"Colima","municipality":"Colima","setelement":"Diamantes"},{"postalCode":"28047","state":"Colima","municipality":"Colima","setelement":"Margaritas"},{"postalCode":"28048","state":"Colima","municipality":"Colima","setelement":"Cuauhtémoc"},{"postalCode":"28048","state":"Colima","municipality":"Colima","setelement":"El Pedregal"},{"postalCode":"28048","state":"Colima","municipality":"Colima","setelement":"Insurgentes"},{"postalCode":"28048","state":"Colima","municipality":"Colima","setelement":"La Estancia"},{"postalCode":"28048","state":"Colima","municipality":"Colima","setelement":"La Guadalupe"},{"postalCode":"28048","state":"Colima","municipality":"Colima","setelement":"Los Ángeles"},{"postalCode":"28048","state":"Colima","municipality":"Colima","setelement":"Moctezuma"},{"postalCode":"28048","state":"Colima","municipality":"Colima","setelement":"Nuevo Paraíso"},{"postalCode":"28048","state":"Colima","municipality":"Colima","setelement":"Paraíso"},{"postalCode":"28048","state":"Colima","municipality":"Colima","setelement":"San José Sur"},{"postalCode":"28048","state":"Colima","municipality":"Colima","setelement":"San Rafael"},{"postalCode":"28048","state":"Colima","municipality":"Colima","setelement":"Santa Amalia"},{"postalCode":"28048","state":"Colima","municipality":"Colima","setelement":"Vicente Guerrero"},{"postalCode":"28048","state":"Colima","municipality":"Colima","setelement":"Cardona"},{"postalCode":"28048","state":"Colima","municipality":"Colima","setelement":"Jardines del Sol"},{"postalCode":"28048","state":"Colima","municipality":"Colima","setelement":"Nuevo Milenio"},{"postalCode":"28048","state":"Colima","municipality":"Colima","setelement":"Mirador de La Cumbre"},{"postalCode":"28048","state":"Colima","municipality":"Colima","setelement":"Gustavo Vázquez Montes"},{"postalCode":"28048","state":"Colima","municipality":"Colima","setelement":"Los Jazmines"},{"postalCode":"28048","state":"Colima","municipality":"Colima","setelement":"Mirador de La Cumbre II"},{"postalCode":"28048","state":"Colima","municipality":"Colima","setelement":"Mirador de La Cumbre III"},{"postalCode":"28048","state":"Colima","municipality":"Colima","setelement":"Ignacio Zaragoza"},{"postalCode":"28050","state":"Colima","municipality":"Colima","setelement":"Fátima"},{"postalCode":"28050","state":"Colima","municipality":"Colima","setelement":"Placetas Estadio"},{"postalCode":"28050","state":"Colima","municipality":"Colima","setelement":"Villas del Bosque"},{"postalCode":"28050","state":"Colima","municipality":"Colima","setelement":"Villas Primaveras"},{"postalCode":"28050","state":"Colima","municipality":"Colima","setelement":"Rincón del Bosque"},{"postalCode":"28050","state":"Colima","municipality":"Colima","setelement":"Privada San Francisco"},{"postalCode":"28060","state":"Colima","municipality":"Colima","setelement":"El Moralete"},{"postalCode":"28060","state":"Colima","municipality":"Colima","setelement":"Residencial San Pablo"},{"postalCode":"28063","state":"Colima","municipality":"Colima","setelement":"Francisco Villa"},{"postalCode":"28063","state":"Colima","municipality":"Colima","setelement":"Santa Gertrudis"},{"postalCode":"28063","state":"Colima","municipality":"Colima","setelement":"Las Haciendas"},{"postalCode":"28063","state":"Colima","municipality":"Colima","setelement":"Los Volcanes"},{"postalCode":"28063","state":"Colima","municipality":"Colima","setelement":"Rinconada San Pablo"},{"postalCode":"28063","state":"Colima","municipality":"Colima","setelement":"San Carlos"},{"postalCode":"28067","state":"Colima","municipality":"Colima","setelement":"De los Trabajadores"},{"postalCode":"28070","state":"Colima","municipality":"Colima","setelement":"Benito Juárez"},{"postalCode":"28070","state":"Colima","municipality":"Colima","setelement":"Los Viveros"},{"postalCode":"28070","state":"Colima","municipality":"Colima","setelement":"Del Periodista"},{"postalCode":"28070","state":"Colima","municipality":"Colima","setelement":"Popular"},{"postalCode":"28070","state":"Colima","municipality":"Colima","setelement":"Patios de Ferrocarril"},{"postalCode":"28075","state":"Colima","municipality":"Colima","setelement":"Parque Industrial"},{"postalCode":"28075","state":"Colima","municipality":"Colima","setelement":"Hacienda El Balcón"},{"postalCode":"28077","state":"Colima","municipality":"Colima","setelement":"Rinconada del Pereyra"},{"postalCode":"28077","state":"Colima","municipality":"Colima","setelement":"Arboledas"},{"postalCode":"28077","state":"Colima","municipality":"Colima","setelement":"José Pimentel Llerenas"},{"postalCode":"28078","state":"Colima","municipality":"Colima","setelement":"INDECO Albarrada"},{"postalCode":"28078","state":"Colima","municipality":"Colima","setelement":"Jardines de las Fuentes"},{"postalCode":"28078","state":"Colima","municipality":"Colima","setelement":"Residencial Prados del Sur"},{"postalCode":"28078","state":"Colima","municipality":"Colima","setelement":"El Yaqui"},{"postalCode":"28078","state":"Colima","municipality":"Colima","setelement":"Las Fuentes"},{"postalCode":"28078","state":"Colima","municipality":"Colima","setelement":"La Rivera"},{"postalCode":"28078","state":"Colima","municipality":"Colima","setelement":"Valle Real"},{"postalCode":"28078","state":"Colima","municipality":"Colima","setelement":"Arboledas de La Hacienda"},{"postalCode":"28078","state":"Colima","municipality":"Colima","setelement":"La Albarrada"},{"postalCode":"28078","state":"Colima","municipality":"Colima","setelement":"Real de Don Juan"},{"postalCode":"28078","state":"Colima","municipality":"Colima","setelement":"El Prado"},{"postalCode":"28079","state":"Colima","municipality":"Colima","setelement":"Gregorio Torres Quintero"},{"postalCode":"28079","state":"Colima","municipality":"Colima","setelement":"Puerta del Valle"},{"postalCode":"28079","state":"Colima","municipality":"Colima","setelement":"Villas del Sur"},{"postalCode":"28079","state":"Colima","municipality":"Colima","setelement":"Parajes del Sur"},{"postalCode":"28080","state":"Colima","municipality":"Colima","setelement":"El Tivoli"},{"postalCode":"28085","state":"Colima","municipality":"Colima","setelement":"Juana de Asbaje"},{"postalCode":"28085","state":"Colima","municipality":"Colima","setelement":"El Alpuyeque"},{"postalCode":"28085","state":"Colima","municipality":"Colima","setelement":"Los Sauces"},{"postalCode":"28085","state":"Colima","municipality":"Colima","setelement":"La Esperanza"},{"postalCode":"28089","state":"Colima","municipality":"Colima","setelement":"Leonardo B Gutiérrez"},{"postalCode":"28089","state":"Colima","municipality":"Colima","setelement":"Quinta El Tívoli"},{"postalCode":"28089","state":"Colima","municipality":"Colima","setelement":"Bosques del Sur"},{"postalCode":"28090","state":"Colima","municipality":"Colima","setelement":"El Tecolote"},{"postalCode":"28090","state":"Colima","municipality":"Colima","setelement":"Las Bugambilias"},{"postalCode":"28100","state":"Colima","municipality":"Tecomán","setelement":"Tecomán Centro"},{"postalCode":"28110","state":"Colima","municipality":"Tecomán","setelement":"Tepeyac"},{"postalCode":"28110","state":"Colima","municipality":"Tecomán","setelement":"Manuel Álvarez"},{"postalCode":"28110","state":"Colima","municipality":"Tecomán","setelement":"Miguel Hidalgo"},{"postalCode":"28110","state":"Colima","municipality":"Tecomán","setelement":"Josefa Ortiz de Domínguez"},{"postalCode":"28113","state":"Colima","municipality":"Tecomán","setelement":"Elba Cecilia Vega"},{"postalCode":"28114","state":"Colima","municipality":"Tecomán","setelement":"Amalia Solórzano"},{"postalCode":"28120","state":"Colima","municipality":"Tecomán","setelement":"Valle las Palmas"},{"postalCode":"28120","state":"Colima","municipality":"Tecomán","setelement":"Cofradía de Juárez"},{"postalCode":"28120","state":"Colima","municipality":"Tecomán","setelement":"Valle Querido"},{"postalCode":"28120","state":"Colima","municipality":"Tecomán","setelement":"Noriega Pizano"},{"postalCode":"28123","state":"Colima","municipality":"Tecomán","setelement":"Real del Valle"},{"postalCode":"28123","state":"Colima","municipality":"Tecomán","setelement":"Real del Bosque"},{"postalCode":"28130","state":"Colima","municipality":"Tecomán","setelement":"Fátima"},{"postalCode":"28130","state":"Colima","municipality":"Tecomán","setelement":"Francisco Villa"},{"postalCode":"28130","state":"Colima","municipality":"Tecomán","setelement":"La Unión"},{"postalCode":"28130","state":"Colima","municipality":"Tecomán","setelement":"Vicente Guerrero"},{"postalCode":"28133","state":"Colima","municipality":"Tecomán","setelement":"Hacienda la Loma"},{"postalCode":"28133","state":"Colima","municipality":"Tecomán","setelement":"Loma Bonita"},{"postalCode":"28134","state":"Colima","municipality":"Tecomán","setelement":"San Ignacio"},{"postalCode":"28134","state":"Colima","municipality":"Tecomán","setelement":"El Limonero"},{"postalCode":"28134","state":"Colima","municipality":"Tecomán","setelement":"Lázaro Cárdenas"},{"postalCode":"28134","state":"Colima","municipality":"Tecomán","setelement":"Lázaro Cárdenas II"},{"postalCode":"28134","state":"Colima","municipality":"Tecomán","setelement":"Santa Elena"},{"postalCode":"28134","state":"Colima","municipality":"Tecomán","setelement":"Sor Juana Inés de La Cruz"},{"postalCode":"28134","state":"Colima","municipality":"Tecomán","setelement":"Griselda Álvarez"},{"postalCode":"28134","state":"Colima","municipality":"Tecomán","setelement":"Álvaro Obregón"},{"postalCode":"28134","state":"Colima","municipality":"Tecomán","setelement":"Reyes Heroles"},{"postalCode":"28134","state":"Colima","municipality":"Tecomán","setelement":"Luis Donaldo Colosio"},{"postalCode":"28134","state":"Colima","municipality":"Tecomán","setelement":"Niños Héroes"},{"postalCode":"28134","state":"Colima","municipality":"Tecomán","setelement":"Las Flores"},{"postalCode":"28134","state":"Colima","municipality":"Tecomán","setelement":"Palma Real"},{"postalCode":"28140","state":"Colima","municipality":"Tecomán","setelement":"Jardines del Chamizal"},{"postalCode":"28140","state":"Colima","municipality":"Tecomán","setelement":"El Chamizal"},{"postalCode":"28140","state":"Colima","municipality":"Tecomán","setelement":"La Floresta"},{"postalCode":"28140","state":"Colima","municipality":"Tecomán","setelement":"San Isidro"},{"postalCode":"28140","state":"Colima","municipality":"Tecomán","setelement":"Villa Florida"},{"postalCode":"28140","state":"Colima","municipality":"Tecomán","setelement":"INFONAVIT Las Huertas"},{"postalCode":"28140","state":"Colima","municipality":"Tecomán","setelement":"Jardines de Tecomán"},{"postalCode":"28143","state":"Colima","municipality":"Tecomán","setelement":"La Cuarta"},{"postalCode":"28150","state":"Colima","municipality":"Tecomán","setelement":"Benito Juárez"},{"postalCode":"28150","state":"Colima","municipality":"Tecomán","setelement":"La Palmita"},{"postalCode":"28159","state":"Colima","municipality":"Tecomán","setelement":"INFONAVIT Las Palmas"},{"postalCode":"28160","state":"Colima","municipality":"Tecomán","setelement":"Pablo Silva García"},{"postalCode":"28160","state":"Colima","municipality":"Tecomán","setelement":"Ponciano Arriaga"},{"postalCode":"28160","state":"Colima","municipality":"Tecomán","setelement":"Estatuto Jurídico"},{"postalCode":"28160","state":"Colima","municipality":"Tecomán","setelement":"Sedena Militar"},{"postalCode":"28170","state":"Colima","municipality":"Tecomán","setelement":"Parque Las Flores (Elias Zamora Verduzco)"},{"postalCode":"28170","state":"Colima","municipality":"Tecomán","setelement":"Indeco"},{"postalCode":"28170","state":"Colima","municipality":"Tecomán","setelement":"Libertad"},{"postalCode":"28180","state":"Colima","municipality":"Tecomán","setelement":"Bugambilias"},{"postalCode":"28180","state":"Colima","municipality":"Tecomán","setelement":"La Floresta II"},{"postalCode":"28180","state":"Colima","municipality":"Tecomán","setelement":"Las Palmas"},{"postalCode":"28180","state":"Colima","municipality":"Tecomán","setelement":"Primaveras del Real"},{"postalCode":"28180","state":"Colima","municipality":"Tecomán","setelement":"Villa del Centenario"},{"postalCode":"28180","state":"Colima","municipality":"Tecomán","setelement":"Villas del Rey"},{"postalCode":"28180","state":"Colima","municipality":"Tecomán","setelement":"San Miguel"},{"postalCode":"28184","state":"Colima","municipality":"Tecomán","setelement":"San Carlos"},{"postalCode":"28189","state":"Colima","municipality":"Tecomán","setelement":"88 Batallón de Infantería"},{"postalCode":"28190","state":"Colima","municipality":"Tecomán","setelement":"Gustavo Díaz Ordaz"},{"postalCode":"28190","state":"Colima","municipality":"Tecomán","setelement":"San José"},{"postalCode":"28190","state":"Colima","municipality":"Tecomán","setelement":"Tuxpan"},{"postalCode":"28190","state":"Colima","municipality":"Tecomán","setelement":"Llanos de San José"},{"postalCode":"28190","state":"Colima","municipality":"Tecomán","setelement":"Villas del Sol"},{"postalCode":"28200","state":"Colima","municipality":"Manzanillo","setelement":"San José (Sector 3)"},{"postalCode":"28200","state":"Colima","municipality":"Manzanillo","setelement":"La Providencia (Sector 3)"},{"postalCode":"28200","state":"Colima","municipality":"Manzanillo","setelement":"El Vigia (Sector 1)"},{"postalCode":"28200","state":"Colima","municipality":"Manzanillo","setelement":"El Tamarindo (Sector 2)"},{"postalCode":"28200","state":"Colima","municipality":"Manzanillo","setelement":"Calle Nueva ( Sector 3)"},{"postalCode":"28200","state":"Colima","municipality":"Manzanillo","setelement":"Manzanillo Centro"},{"postalCode":"28209","state":"Colima","municipality":"Manzanillo","setelement":"Manzanillo (Playa de Oro)"},{"postalCode":"28218","state":"Colima","municipality":"Manzanillo","setelement":"Las Brisas"},{"postalCode":"28218","state":"Colima","municipality":"Manzanillo","setelement":"Morelos"},{"postalCode":"28218","state":"Colima","municipality":"Manzanillo","setelement":"Playa Azul"},{"postalCode":"28218","state":"Colima","municipality":"Manzanillo","setelement":"Fovissste"},{"postalCode":"28218","state":"Colima","municipality":"Manzanillo","setelement":"INFONAVIT Brisas del Mar"},{"postalCode":"28218","state":"Colima","municipality":"Manzanillo","setelement":"Del Mar"},{"postalCode":"28218","state":"Colima","municipality":"Manzanillo","setelement":"Brisas"},{"postalCode":"28218","state":"Colima","municipality":"Manzanillo","setelement":"Vista Roca"},{"postalCode":"28218","state":"Colima","municipality":"Manzanillo","setelement":"Del Pacífico"},{"postalCode":"28218","state":"Colima","municipality":"Manzanillo","setelement":"Las Garzas"},{"postalCode":"28218","state":"Colima","municipality":"Manzanillo","setelement":"Aeroméxico"},{"postalCode":"28219","state":"Colima","municipality":"Manzanillo","setelement":"Lomas del Valle"},{"postalCode":"28219","state":"Colima","municipality":"Manzanillo","setelement":"Playa Esmeralda"},{"postalCode":"28219","state":"Colima","municipality":"Manzanillo","setelement":"Residencial Villa del Mar"},{"postalCode":"28219","state":"Colima","municipality":"Manzanillo","setelement":"Residencial las Gaviotas"},{"postalCode":"28219","state":"Colima","municipality":"Manzanillo","setelement":"Los Corales"},{"postalCode":"28219","state":"Colima","municipality":"Manzanillo","setelement":"Los Ciruelos"},{"postalCode":"28219","state":"Colima","municipality":"Manzanillo","setelement":"Rinconada del Valle"},{"postalCode":"28219","state":"Colima","municipality":"Manzanillo","setelement":"Conjunto Primaveras"},{"postalCode":"28219","state":"Colima","municipality":"Manzanillo","setelement":"Valle de las Garzas II"},{"postalCode":"28219","state":"Colima","municipality":"Manzanillo","setelement":"Valle Esmeralda"},{"postalCode":"28219","state":"Colima","municipality":"Manzanillo","setelement":"Valle Dorado"},{"postalCode":"28219","state":"Colima","municipality":"Manzanillo","setelement":"Villa Bonita Residencial"},{"postalCode":"28219","state":"Colima","municipality":"Manzanillo","setelement":"Viña del Mar"},{"postalCode":"28219","state":"Colima","municipality":"Manzanillo","setelement":"Ponte Vedra Residencial"},{"postalCode":"28219","state":"Colima","municipality":"Manzanillo","setelement":"Residencial Pelícanos"},{"postalCode":"28219","state":"Colima","municipality":"Manzanillo","setelement":"Villa Florencia"},{"postalCode":"28219","state":"Colima","municipality":"Manzanillo","setelement":"Residencial Las Arekas"},{"postalCode":"28219","state":"Colima","municipality":"Manzanillo","setelement":"Torremolinos"},{"postalCode":"28219","state":"Colima","municipality":"Manzanillo","setelement":"Ibiza"},{"postalCode":"28219","state":"Colima","municipality":"Manzanillo","setelement":"Puerta de Hierro"},{"postalCode":"28219","state":"Colima","municipality":"Manzanillo","setelement":"Real Acuamarina"},{"postalCode":"28219","state":"Colima","municipality":"Manzanillo","setelement":"Palma Real"},{"postalCode":"28219","state":"Colima","municipality":"Manzanillo","setelement":"Nueva Esperanza"},{"postalCode":"28219","state":"Colima","municipality":"Manzanillo","setelement":"Playa Azul"},{"postalCode":"28219","state":"Colima","municipality":"Manzanillo","setelement":"Valle de las Garzas I"},{"postalCode":"28219","state":"Colima","municipality":"Manzanillo","setelement":"Costa Azul"},{"postalCode":"28219","state":"Colima","municipality":"Manzanillo","setelement":"Del Sol"},{"postalCode":"28219","state":"Colima","municipality":"Manzanillo","setelement":"Parque industrial FONDEPORT"},{"postalCode":"28219","state":"Colima","municipality":"Manzanillo","setelement":"FETSE"},{"postalCode":"28219","state":"Colima","municipality":"Manzanillo","setelement":"Isla Real"},{"postalCode":"28219","state":"Colima","municipality":"Manzanillo","setelement":"La Esperanza"},{"postalCode":"28219","state":"Colima","municipality":"Manzanillo","setelement":"Playa Blanca"},{"postalCode":"28219","state":"Colima","municipality":"Manzanillo","setelement":"Playa de Oro"},{"postalCode":"28219","state":"Colima","municipality":"Manzanillo","setelement":"Playa Real"},{"postalCode":"28219","state":"Colima","municipality":"Manzanillo","setelement":"Soleares"},{"postalCode":"28219","state":"Colima","municipality":"Manzanillo","setelement":"Villa Mar"},{"postalCode":"28219","state":"Colima","municipality":"Manzanillo","setelement":"Barrio 5"},{"postalCode":"28219","state":"Colima","municipality":"Manzanillo","setelement":"Villa Océano"},{"postalCode":"28219","state":"Colima","municipality":"Manzanillo","setelement":"Villa Caracol"},{"postalCode":"28230","state":"Colima","municipality":"Manzanillo","setelement":"Las Joyas"},{"postalCode":"28230","state":"Colima","municipality":"Manzanillo","setelement":"El Rocío"},{"postalCode":"28230","state":"Colima","municipality":"Manzanillo","setelement":"Ignacio Zaragoza"},{"postalCode":"28236","state":"Colima","municipality":"Manzanillo","setelement":"Manzanillo"},{"postalCode":"28237","state":"Colima","municipality":"Manzanillo","setelement":"Benito Juárez"},{"postalCode":"28237","state":"Colima","municipality":"Manzanillo","setelement":"La Gasera"},{"postalCode":"28237","state":"Colima","municipality":"Manzanillo","setelement":"Las Torres"},{"postalCode":"28237","state":"Colima","municipality":"Manzanillo","setelement":"Leandro Valle"},{"postalCode":"28237","state":"Colima","municipality":"Manzanillo","setelement":"Punta Grande"},{"postalCode":"28238","state":"Colima","municipality":"Manzanillo","setelement":"Bellavista"},{"postalCode":"28239","state":"Colima","municipality":"Manzanillo","setelement":"Lomas de Gregorio Figueroa"},{"postalCode":"28239","state":"Colima","municipality":"Manzanillo","setelement":"Loma Alta"},{"postalCode":"28239","state":"Colima","municipality":"Manzanillo","setelement":"Primavera"},{"postalCode":"28239","state":"Colima","municipality":"Manzanillo","setelement":"16 de Septiembre"},{"postalCode":"28239","state":"Colima","municipality":"Manzanillo","setelement":"Tapeixtles"},{"postalCode":"28239","state":"Colima","municipality":"Manzanillo","setelement":"INDECO"},{"postalCode":"28239","state":"Colima","municipality":"Manzanillo","setelement":"La Negrita"},{"postalCode":"28239","state":"Colima","municipality":"Manzanillo","setelement":"San Carlos"},{"postalCode":"28240","state":"Colima","municipality":"Manzanillo","setelement":"Punta Chica"},{"postalCode":"28250","state":"Colima","municipality":"Manzanillo","setelement":"Burócrata"},{"postalCode":"28259","state":"Colima","municipality":"Manzanillo","setelement":"San Pedrito"},{"postalCode":"28260","state":"Colima","municipality":"Manzanillo","setelement":"La Playita de en Medio"},{"postalCode":"28260","state":"Colima","municipality":"Manzanillo","setelement":"La Peñita (Sector 6)"},{"postalCode":"28260","state":"Colima","municipality":"Manzanillo","setelement":"Libertad"},{"postalCode":"28269","state":"Colima","municipality":"Manzanillo","setelement":"Sector 5"},{"postalCode":"28269","state":"Colima","municipality":"Manzanillo","setelement":"Constitución"},{"postalCode":"28269","state":"Colima","municipality":"Manzanillo","setelement":"Cuauhtémoc"},{"postalCode":"28269","state":"Colima","municipality":"Manzanillo","setelement":"Alameda"},{"postalCode":"28270","state":"Colima","municipality":"Manzanillo","setelement":"Padre Hidalgo"},{"postalCode":"28278","state":"Colima","municipality":"Manzanillo","setelement":"Pedregoza"},{"postalCode":"28279","state":"Colima","municipality":"Manzanillo","setelement":"El Chamizal"},{"postalCode":"28279","state":"Colima","municipality":"Manzanillo","setelement":"Bonanza"},{"postalCode":"28300","state":"Colima","municipality":"Armería","setelement":"Armería Centro"},{"postalCode":"28304","state":"Colima","municipality":"Armería","setelement":"Cristo Rey"},{"postalCode":"28304","state":"Colima","municipality":"Armería","setelement":"Lázaro Cárdenas"},{"postalCode":"28304","state":"Colima","municipality":"Armería","setelement":"Lindavista"},{"postalCode":"28305","state":"Colima","municipality":"Armería","setelement":"Ejido"},{"postalCode":"28306","state":"Colima","municipality":"Armería","setelement":"Emiliano Zapata"},{"postalCode":"28306","state":"Colima","municipality":"Armería","setelement":"Independencia"},{"postalCode":"28307","state":"Colima","municipality":"Armería","setelement":"Hacienda las Primaveras"},{"postalCode":"28307","state":"Colima","municipality":"Armería","setelement":"El Campanario"},{"postalCode":"28307","state":"Colima","municipality":"Armería","setelement":"El Pelillo"},{"postalCode":"28307","state":"Colima","municipality":"Armería","setelement":"Gregorio Torres Quintero"},{"postalCode":"28307","state":"Colima","municipality":"Armería","setelement":"El Arenal"},{"postalCode":"28307","state":"Colima","municipality":"Armería","setelement":"Valle del Sol"},{"postalCode":"28307","state":"Colima","municipality":"Armería","setelement":"Sagrado Corazón"},{"postalCode":"28310","state":"Colima","municipality":"Armería","setelement":"Rincón de López"},{"postalCode":"28313","state":"Colima","municipality":"Armería","setelement":"El Banco de Jicotán"},{"postalCode":"28315","state":"Colima","municipality":"Armería","setelement":"El Puertecito"},{"postalCode":"28317","state":"Colima","municipality":"Armería","setelement":"Augusto Gómez Villanueva (Coalatilla)"},{"postalCode":"28320","state":"Colima","municipality":"Armería","setelement":"Cofradía de Juárez"},{"postalCode":"28330","state":"Colima","municipality":"Armería","setelement":"Periquillo"},{"postalCode":"28330","state":"Colima","municipality":"Armería","setelement":"Flor de Coco"},{"postalCode":"28340","state":"Colima","municipality":"Armería","setelement":"Los Reyes (Zorrillos)"},{"postalCode":"28350","state":"Colima","municipality":"Armería","setelement":"Cuyutlán"},{"postalCode":"28350","state":"Colima","municipality":"Armería","setelement":"El Paraíso [Balneario]"},{"postalCode":"28400","state":"Colima","municipality":"Coquimatlán","setelement":"Valle de las Huertas"},{"postalCode":"28400","state":"Colima","municipality":"Coquimatlán","setelement":"Santa Rita"},{"postalCode":"28400","state":"Colima","municipality":"Coquimatlán","setelement":"Coquimatlán"},{"postalCode":"28400","state":"Colima","municipality":"Coquimatlán","setelement":"Camichines"},{"postalCode":"28400","state":"Colima","municipality":"Coquimatlán","setelement":"Cazumba"},{"postalCode":"28400","state":"Colima","municipality":"Coquimatlán","setelement":"Emiliano Zapata"},{"postalCode":"28400","state":"Colima","municipality":"Coquimatlán","setelement":"Elías Zamora Verduzco"},{"postalCode":"28400","state":"Colima","municipality":"Coquimatlán","setelement":"Jardines del Llano"},{"postalCode":"28400","state":"Colima","municipality":"Coquimatlán","setelement":"Las Higueras"},{"postalCode":"28400","state":"Colima","municipality":"Coquimatlán","setelement":"San Miguel"},{"postalCode":"28400","state":"Colima","municipality":"Coquimatlán","setelement":"Las Moras"},{"postalCode":"28402","state":"Colima","municipality":"Coquimatlán","setelement":"El Poblado"},{"postalCode":"28403","state":"Colima","municipality":"Coquimatlán","setelement":"Hacienda Buenos Aires"},{"postalCode":"28403","state":"Colima","municipality":"Coquimatlán","setelement":"Los Limones"},{"postalCode":"28405","state":"Colima","municipality":"Coquimatlán","setelement":"El Chical"},{"postalCode":"28410","state":"Colima","municipality":"Coquimatlán","setelement":"Agua Zarca"},{"postalCode":"28410","state":"Colima","municipality":"Coquimatlán","setelement":"Juárez (La Magdalena)"},{"postalCode":"28413","state":"Colima","municipality":"Coquimatlán","setelement":"Cruz de Piedra"},{"postalCode":"28414","state":"Colima","municipality":"Coquimatlán","setelement":"La Sidra"},{"postalCode":"28414","state":"Colima","municipality":"Coquimatlán","setelement":"El Algodonal"},{"postalCode":"28420","state":"Colima","municipality":"Coquimatlán","setelement":"La Esperanza"},{"postalCode":"28424","state":"Colima","municipality":"Coquimatlán","setelement":"Jala"},{"postalCode":"28450","state":"Colima","municipality":"Comala","setelement":"Ex-Hacienda de Nogueras Residencial"},{"postalCode":"28450","state":"Colima","municipality":"Comala","setelement":"Comala"},{"postalCode":"28450","state":"Colima","municipality":"Comala","setelement":"Nogueras"},{"postalCode":"28450","state":"Colima","municipality":"Comala","setelement":"Los Llanitos"},{"postalCode":"28450","state":"Colima","municipality":"Comala","setelement":"Cuauhtémoc"},{"postalCode":"28450","state":"Colima","municipality":"Comala","setelement":"Lázaro Cárdenas"},{"postalCode":"28450","state":"Colima","municipality":"Comala","setelement":"Los Aguajes"},{"postalCode":"28450","state":"Colima","municipality":"Comala","setelement":"Francisco Ramírez Villarreal"},{"postalCode":"28450","state":"Colima","municipality":"Comala","setelement":"Celsa Virgen"},{"postalCode":"28450","state":"Colima","municipality":"Comala","setelement":"Santa Cecilia"},{"postalCode":"28450","state":"Colima","municipality":"Comala","setelement":"La Trinidad"},{"postalCode":"28450","state":"Colima","municipality":"Comala","setelement":"Miguel de La Madrid Hurtado"},{"postalCode":"28450","state":"Colima","municipality":"Comala","setelement":"Lomas de Comala"},{"postalCode":"28450","state":"Colima","municipality":"Comala","setelement":"Campo Verde"},{"postalCode":"28450","state":"Colima","municipality":"Comala","setelement":"Solidaridad Aguajitos"},{"postalCode":"28450","state":"Colima","municipality":"Comala","setelement":"Real Nogueras"},{"postalCode":"28450","state":"Colima","municipality":"Comala","setelement":"Lomas del Pedregal"},{"postalCode":"28450","state":"Colima","municipality":"Comala","setelement":"Lomas Altas"},{"postalCode":"28450","state":"Colima","municipality":"Comala","setelement":"Real de Mendoza"},{"postalCode":"28450","state":"Colima","municipality":"Comala","setelement":"Barrio Alto"},{"postalCode":"28450","state":"Colima","municipality":"Comala","setelement":"Campestre Comala"},{"postalCode":"28452","state":"Colima","municipality":"Comala","setelement":"La Caja"},{"postalCode":"28454","state":"Colima","municipality":"Comala","setelement":"Zacualpan"},{"postalCode":"28455","state":"Colima","municipality":"Comala","setelement":"Campo Cuatro"},{"postalCode":"28456","state":"Colima","municipality":"Comala","setelement":"Lagunitas"},{"postalCode":"28459","state":"Colima","municipality":"Comala","setelement":"Suchitlán"},{"postalCode":"28459","state":"Colima","municipality":"Comala","setelement":"La Cañada"},{"postalCode":"28460","state":"Colima","municipality":"Comala","setelement":"Cofradía de Suchitlán"},{"postalCode":"28460","state":"Colima","municipality":"Comala","setelement":"Agosto"},{"postalCode":"28460","state":"Colima","municipality":"Comala","setelement":"La Nogalera"},{"postalCode":"28461","state":"Colima","municipality":"Comala","setelement":"El Remate"},{"postalCode":"28464","state":"Colima","municipality":"Comala","setelement":"Mahakua (Hacienda San Antonio)"},{"postalCode":"28464","state":"Colima","municipality":"Comala","setelement":"La Becerrera"},{"postalCode":"28464","state":"Colima","municipality":"Comala","setelement":"La María"},{"postalCode":"28464","state":"Colima","municipality":"Comala","setelement":"La Yerbabuena"},{"postalCode":"28466","state":"Colima","municipality":"Comala","setelement":"Los Colomos"},{"postalCode":"28466","state":"Colima","municipality":"Comala","setelement":"Colomitos"},{"postalCode":"28466","state":"Colima","municipality":"Comala","setelement":"El Remudadero"},{"postalCode":"28500","state":"Colima","municipality":"Cuauhtémoc","setelement":"Cuauhtémoc"},{"postalCode":"28500","state":"Colima","municipality":"Cuauhtémoc","setelement":"El Toreo"},{"postalCode":"28504","state":"Colima","municipality":"Cuauhtémoc","setelement":"Lomas Santa Cruz"},{"postalCode":"28504","state":"Colima","municipality":"Cuauhtémoc","setelement":"La Escaramuza"},{"postalCode":"28504","state":"Colima","municipality":"Cuauhtémoc","setelement":"Ricardo Flores Magón"},{"postalCode":"28504","state":"Colima","municipality":"Cuauhtémoc","setelement":"La Mojonera"},{"postalCode":"28504","state":"Colima","municipality":"Cuauhtémoc","setelement":"Griselda Alvarez Ponce de León"},{"postalCode":"28504","state":"Colima","municipality":"Cuauhtémoc","setelement":"La Presa"},{"postalCode":"28504","state":"Colima","municipality":"Cuauhtémoc","setelement":"Los Monos"},{"postalCode":"28504","state":"Colima","municipality":"Cuauhtémoc","setelement":"San Rafael"},{"postalCode":"28504","state":"Colima","municipality":"Cuauhtémoc","setelement":"Campestre San Jerónimo"},{"postalCode":"28504","state":"Colima","municipality":"Cuauhtémoc","setelement":"La Cayetana"},{"postalCode":"28504","state":"Colima","municipality":"Cuauhtémoc","setelement":"La Escondida"},{"postalCode":"28506","state":"Colima","municipality":"Cuauhtémoc","setelement":"Emiliano Zapata"},{"postalCode":"28506","state":"Colima","municipality":"Cuauhtémoc","setelement":"San Jerónimo"},{"postalCode":"28507","state":"Colima","municipality":"Cuauhtémoc","setelement":"Valle Real"},{"postalCode":"28507","state":"Colima","municipality":"Cuauhtémoc","setelement":"Las Higueras"},{"postalCode":"28510","state":"Colima","municipality":"Cuauhtémoc","setelement":"Santa Mariana"},{"postalCode":"28510","state":"Colima","municipality":"Cuauhtémoc","setelement":"Quesería"},{"postalCode":"28510","state":"Colima","municipality":"Cuauhtémoc","setelement":"La Cruz"},{"postalCode":"28510","state":"Colima","municipality":"Cuauhtémoc","setelement":"Solidaridad"},{"postalCode":"28513","state":"Colima","municipality":"Cuauhtémoc","setelement":"El Arenal"},{"postalCode":"28513","state":"Colima","municipality":"Cuauhtémoc","setelement":"México"},{"postalCode":"28513","state":"Colima","municipality":"Cuauhtémoc","setelement":"Ermita"},{"postalCode":"28515","state":"Colima","municipality":"Cuauhtémoc","setelement":"Concepción Barbosa"},{"postalCode":"28516","state":"Colima","municipality":"Cuauhtémoc","setelement":"Arsenio Farell Cubillas"},{"postalCode":"28520","state":"Colima","municipality":"Cuauhtémoc","setelement":"Alcaraces"},{"postalCode":"28521","state":"Colima","municipality":"Cuauhtémoc","setelement":"Palmillas"},{"postalCode":"28521","state":"Colima","municipality":"Cuauhtémoc","setelement":"El Barro"},{"postalCode":"28523","state":"Colima","municipality":"Cuauhtémoc","setelement":"Cerro Colorado"},{"postalCode":"28530","state":"Colima","municipality":"Cuauhtémoc","setelement":"Altozano"},{"postalCode":"28530","state":"Colima","municipality":"Cuauhtémoc","setelement":"Chiapa"},{"postalCode":"28530","state":"Colima","municipality":"Cuauhtémoc","setelement":"Ocotillo"},{"postalCode":"28531","state":"Colima","municipality":"Cuauhtémoc","setelement":"Montitlán"},{"postalCode":"28550","state":"Colima","municipality":"Cuauhtémoc","setelement":"El Campanario"},{"postalCode":"28550","state":"Colima","municipality":"Cuauhtémoc","setelement":"Lagunilla"},{"postalCode":"28550","state":"Colima","municipality":"Cuauhtémoc","setelement":"El Trapiche"},{"postalCode":"28550","state":"Colima","municipality":"Cuauhtémoc","setelement":"San Joaquín"},{"postalCode":"28553","state":"Colima","municipality":"Cuauhtémoc","setelement":"El Cóbano"},{"postalCode":"28553","state":"Colima","municipality":"Cuauhtémoc","setelement":"El Parián"},{"postalCode":"28555","state":"Colima","municipality":"Cuauhtémoc","setelement":"La Palma"},{"postalCode":"28557","state":"Colima","municipality":"Cuauhtémoc","setelement":"ISENCO"},{"postalCode":"28590","state":"Colima","municipality":"Cuauhtémoc","setelement":"Buenavista"},{"postalCode":"28597","state":"Colima","municipality":"Cuauhtémoc","setelement":"Alzada"},{"postalCode":"28597","state":"Colima","municipality":"Cuauhtémoc","setelement":"Bajío de la Leona"},{"postalCode":"28599","state":"Colima","municipality":"Cuauhtémoc","setelement":"Colima (Lic. Miguel de la Madrid Hurtado)"},{"postalCode":"28600","state":"Colima","municipality":"Colima","setelement":"Estapilla"},{"postalCode":"28600","state":"Colima","municipality":"Colima","setelement":"Piscila"},{"postalCode":"28600","state":"Colima","municipality":"Colima","setelement":"Puerta de Ánzar"},{"postalCode":"28600","state":"Colima","municipality":"Colima","setelement":"Los Tepames"},{"postalCode":"28600","state":"Colima","municipality":"Colima","setelement":"Ticuizitán"},{"postalCode":"28600","state":"Colima","municipality":"Colima","setelement":"Tinajas"},{"postalCode":"28600","state":"Colima","municipality":"Colima","setelement":"El Amarradero"},{"postalCode":"28610","state":"Colima","municipality":"Colima","setelement":"San Ángel Residencial"},{"postalCode":"28610","state":"Colima","municipality":"Colima","setelement":"El Chanal"},{"postalCode":"28613","state":"Colima","municipality":"Colima","setelement":"La Capacha"},{"postalCode":"28620","state":"Colima","municipality":"Colima","setelement":"Lo de Villa"},{"postalCode":"28620","state":"Colima","municipality":"Colima","setelement":"Ejidal"},{"postalCode":"28620","state":"Colima","municipality":"Colima","setelement":"J. Jesús Ríos"},{"postalCode":"28626","state":"Colima","municipality":"Colima","setelement":"El Alpuyequito"},{"postalCode":"28627","state":"Colima","municipality":"Colima","setelement":"Loma de Fátima"},{"postalCode":"28627","state":"Colima","municipality":"Colima","setelement":"Loma de Juárez (El Mezquite)"},{"postalCode":"28628","state":"Colima","municipality":"Colima","setelement":"Los Mezcales"},{"postalCode":"28629","state":"Colima","municipality":"Colima","setelement":"Las Golondrinas"},{"postalCode":"28630","state":"Colima","municipality":"Colima","setelement":"El Bordo"},{"postalCode":"28633","state":"Colima","municipality":"Colima","setelement":"La Media Luna"},{"postalCode":"28634","state":"Colima","municipality":"Colima","setelement":"Corralitos"},{"postalCode":"28634","state":"Colima","municipality":"Colima","setelement":"El Astillero de Abajo"},{"postalCode":"28634","state":"Colima","municipality":"Colima","setelement":"El Astillero de Arriba"},{"postalCode":"28634","state":"Colima","municipality":"Colima","setelement":"Trapichillos"},{"postalCode":"28635","state":"Colima","municipality":"Colima","setelement":"Paso del Zarco"},{"postalCode":"28635","state":"Colima","municipality":"Colima","setelement":"La Loma de Ignacio Allende"},{"postalCode":"28640","state":"Colima","municipality":"Colima","setelement":"Nuevo"},{"postalCode":"28640","state":"Colima","municipality":"Colima","setelement":"Los Asmoles"},{"postalCode":"28645","state":"Colima","municipality":"Colima","setelement":"Acatitán"},{"postalCode":"28646","state":"Colima","municipality":"Colima","setelement":"Las Guásimas (Las Borregas)"},{"postalCode":"28647","state":"Colima","municipality":"Colima","setelement":"Los Ortices"},{"postalCode":"28655","state":"Colima","municipality":"Colima","setelement":"La Higuerita"},{"postalCode":"28656","state":"Colima","municipality":"Colima","setelement":"Las Tunas"},{"postalCode":"28700","state":"Colima","municipality":"Ixtlahuacán","setelement":"Los Gobernadores"},{"postalCode":"28700","state":"Colima","municipality":"Ixtlahuacán","setelement":"Carlos de la Madrid Virgen"},{"postalCode":"28700","state":"Colima","municipality":"Ixtlahuacán","setelement":"Daniel Contreras Lara"},{"postalCode":"28700","state":"Colima","municipality":"Ixtlahuacán","setelement":"Ixtlahuacán"},{"postalCode":"28700","state":"Colima","municipality":"Ixtlahuacán","setelement":"Mojotal"},{"postalCode":"28700","state":"Colima","municipality":"Ixtlahuacán","setelement":"11 Pueblos"},{"postalCode":"28700","state":"Colima","municipality":"Ixtlahuacán","setelement":"6 de Enero"},{"postalCode":"28703","state":"Colima","municipality":"Ixtlahuacán","setelement":"Jiliotupa"},{"postalCode":"28704","state":"Colima","municipality":"Ixtlahuacán","setelement":"Las Trancas"},{"postalCode":"28705","state":"Colima","municipality":"Ixtlahuacán","setelement":"La Presa (Barranca del Rebozo)"},{"postalCode":"28705","state":"Colima","municipality":"Ixtlahuacán","setelement":"Lázaro Cárdenas"},{"postalCode":"28720","state":"Colima","municipality":"Ixtlahuacán","setelement":"Aquiles Serdán (Tamala)"},{"postalCode":"28724","state":"Colima","municipality":"Ixtlahuacán","setelement":"San Gabriel"},{"postalCode":"28730","state":"Colima","municipality":"Ixtlahuacán","setelement":"Zinacamitlán (Los Chicos)"},{"postalCode":"28730","state":"Colima","municipality":"Ixtlahuacán","setelement":"Chamila"},{"postalCode":"28730","state":"Colima","municipality":"Ixtlahuacán","setelement":"Santa Inés"},{"postalCode":"28730","state":"Colima","municipality":"Ixtlahuacán","setelement":"La Tunita"},{"postalCode":"28733","state":"Colima","municipality":"Ixtlahuacán","setelement":"La Tepamera"},{"postalCode":"28733","state":"Colima","municipality":"Ixtlahuacán","setelement":"Las Anonas"},{"postalCode":"28734","state":"Colima","municipality":"Ixtlahuacán","setelement":"Agua de la Virgen"},{"postalCode":"28734","state":"Colima","municipality":"Ixtlahuacán","setelement":"El Camichín (Veintiséis de Julio)"},{"postalCode":"28735","state":"Colima","municipality":"Ixtlahuacán","setelement":"Las Conchas"},{"postalCode":"28735","state":"Colima","municipality":"Ixtlahuacán","setelement":"El Capire"},{"postalCode":"28735","state":"Colima","municipality":"Ixtlahuacán","setelement":"Higueras de Santa Rosa"},{"postalCode":"28736","state":"Colima","municipality":"Ixtlahuacán","setelement":"El Galaje"},{"postalCode":"28750","state":"Colima","municipality":"Minatitlán","setelement":"27 de Octubre"},{"postalCode":"28750","state":"Colima","municipality":"Minatitlán","setelement":"Los Mangos"},{"postalCode":"28750","state":"Colima","municipality":"Minatitlán","setelement":"Minatitlán"},{"postalCode":"28750","state":"Colima","municipality":"Minatitlán","setelement":"Palo Verde"},{"postalCode":"28750","state":"Colima","municipality":"Minatitlán","setelement":"Carlos de La Madrid Vejar"},{"postalCode":"28750","state":"Colima","municipality":"Minatitlán","setelement":"Infonavit"},{"postalCode":"28750","state":"Colima","municipality":"Minatitlán","setelement":"Progreso"},{"postalCode":"28760","state":"Colima","municipality":"Minatitlán","setelement":"Agua Salada"},{"postalCode":"28760","state":"Colima","municipality":"Minatitlán","setelement":"La Loma"},{"postalCode":"28764","state":"Colima","municipality":"Minatitlán","setelement":"Las Pesadas"},{"postalCode":"28765","state":"Colima","municipality":"Minatitlán","setelement":"Benito Juárez de Peña Colorada (El Poblado)"},{"postalCode":"28765","state":"Colima","municipality":"Minatitlán","setelement":"El Platanar"},{"postalCode":"28765","state":"Colima","municipality":"Minatitlán","setelement":"Peña Colorada (Fierro)"},{"postalCode":"28766","state":"Colima","municipality":"Minatitlán","setelement":"La Playa (La Playita)"},{"postalCode":"28767","state":"Colima","municipality":"Minatitlán","setelement":"Paticajo"},{"postalCode":"28770","state":"Colima","municipality":"Minatitlán","setelement":"El Sauz"},{"postalCode":"28772","state":"Colima","municipality":"Minatitlán","setelement":"El Terrero"},{"postalCode":"28773","state":"Colima","municipality":"Minatitlán","setelement":"San Antonio"},{"postalCode":"28774","state":"Colima","municipality":"Minatitlán","setelement":"Ranchitos"},{"postalCode":"28780","state":"Colima","municipality":"Minatitlán","setelement":"El Arrayanal"},{"postalCode":"28784","state":"Colima","municipality":"Minatitlán","setelement":"Potrero Grande"},{"postalCode":"28784","state":"Colima","municipality":"Minatitlán","setelement":"Las Guásimas"},{"postalCode":"28784","state":"Colima","municipality":"Minatitlán","setelement":"El Nogal"},{"postalCode":"28784","state":"Colima","municipality":"Minatitlán","setelement":"Agua Fría"},{"postalCode":"28800","state":"Colima","municipality":"Manzanillo","setelement":"Residencial el Colomo"},{"postalCode":"28800","state":"Colima","municipality":"Manzanillo","setelement":"Zona Centro El Colomo"},{"postalCode":"28800","state":"Colima","municipality":"Manzanillo","setelement":"Las Juntas (La Floreña)"},{"postalCode":"28800","state":"Colima","municipality":"Manzanillo","setelement":"Arturo Noriega Pizano"},{"postalCode":"28800","state":"Colima","municipality":"Manzanillo","setelement":"5 de Mayo"},{"postalCode":"28800","state":"Colima","municipality":"Manzanillo","setelement":"El Garcero"},{"postalCode":"28800","state":"Colima","municipality":"Manzanillo","setelement":"El Libramiento"},{"postalCode":"28800","state":"Colima","municipality":"Manzanillo","setelement":"El Paraíso"},{"postalCode":"28800","state":"Colima","municipality":"Manzanillo","setelement":"La Cima del Progreso"},{"postalCode":"28800","state":"Colima","municipality":"Manzanillo","setelement":"La Lupita"},{"postalCode":"28800","state":"Colima","municipality":"Manzanillo","setelement":"Lázaro Cárdenas"},{"postalCode":"28800","state":"Colima","municipality":"Manzanillo","setelement":"López Mateos"},{"postalCode":"28800","state":"Colima","municipality":"Manzanillo","setelement":"María Luisa Campero"},{"postalCode":"28800","state":"Colima","municipality":"Manzanillo","setelement":"Marina Nacional"},{"postalCode":"28800","state":"Colima","municipality":"Manzanillo","setelement":"Miguel de La Madrid"},{"postalCode":"28800","state":"Colima","municipality":"Manzanillo","setelement":"San Francisco"},{"postalCode":"28800","state":"Colima","municipality":"Manzanillo","setelement":"20 de Noviembre"},{"postalCode":"28800","state":"Colima","municipality":"Manzanillo","setelement":"La Calma"},{"postalCode":"28800","state":"Colima","municipality":"Manzanillo","setelement":"La Playita"},{"postalCode":"28807","state":"Colima","municipality":"Manzanillo","setelement":"Lic. Luis Echeverría Álvarez"},{"postalCode":"28808","state":"Colima","municipality":"Manzanillo","setelement":"Villa Florida"},{"postalCode":"28808","state":"Colima","municipality":"Manzanillo","setelement":"Aquarium"},{"postalCode":"28809","state":"Colima","municipality":"Manzanillo","setelement":"Campos"},{"postalCode":"28810","state":"Colima","municipality":"Manzanillo","setelement":"Los Cedros"},{"postalCode":"28810","state":"Colima","municipality":"Manzanillo","setelement":"Lomas de Ávila Camacho"},{"postalCode":"28812","state":"Colima","municipality":"Manzanillo","setelement":"El Huizcolote"},{"postalCode":"28813","state":"Colima","municipality":"Manzanillo","setelement":"Llano de la Marina"},{"postalCode":"28813","state":"Colima","municipality":"Manzanillo","setelement":"Ciruelito de la Marina"},{"postalCode":"28814","state":"Colima","municipality":"Manzanillo","setelement":"Camichín"},{"postalCode":"28815","state":"Colima","municipality":"Manzanillo","setelement":"Puertecito de Lajas"},{"postalCode":"28815","state":"Colima","municipality":"Manzanillo","setelement":"Canoas"},{"postalCode":"28820","state":"Colima","municipality":"Manzanillo","setelement":"Veladero de los Otates"},{"postalCode":"28820","state":"Colima","municipality":"Manzanillo","setelement":"Aserradero de la Lima"},{"postalCode":"28826","state":"Colima","municipality":"Manzanillo","setelement":"Don Tomás"},{"postalCode":"28830","state":"Colima","municipality":"Manzanillo","setelement":"El Chavarín"},{"postalCode":"28833","state":"Colima","municipality":"Manzanillo","setelement":"El Charco"},{"postalCode":"28834","state":"Colima","municipality":"Manzanillo","setelement":"Río Marabasco"},{"postalCode":"28836","state":"Colima","municipality":"Manzanillo","setelement":"Emiliano Zapata"},{"postalCode":"28838","state":"Colima","municipality":"Manzanillo","setelement":"El Centinela de Arriba"},{"postalCode":"28838","state":"Colima","municipality":"Manzanillo","setelement":"Isla Navidad"},{"postalCode":"28838","state":"Colima","municipality":"Manzanillo","setelement":"La Culebra (Colimilla)"},{"postalCode":"28840","state":"Colima","municipality":"Manzanillo","setelement":"Chandiablo"},{"postalCode":"28850","state":"Colima","municipality":"Manzanillo","setelement":"Camotlán de Miraflores"},{"postalCode":"28855","state":"Colima","municipality":"Manzanillo","setelement":"La Rosa de San José de Lúmber"},{"postalCode":"28855","state":"Colima","municipality":"Manzanillo","setelement":"San José de Lúmber (Piedra Redonda)"},{"postalCode":"28855","state":"Colima","municipality":"Manzanillo","setelement":"Veladero de Camotlán"},{"postalCode":"28860","state":"Colima","municipality":"Manzanillo","setelement":"La Querencia"},{"postalCode":"28860","state":"Colima","municipality":"Manzanillo","setelement":"Río Colorado"},{"postalCode":"28860","state":"Colima","municipality":"Manzanillo","setelement":"Santiago"},{"postalCode":"28860","state":"Colima","municipality":"Manzanillo","setelement":"Olas Altas"},{"postalCode":"28863","state":"Colima","municipality":"Manzanillo","setelement":"Bahía Azul"},{"postalCode":"28863","state":"Colima","municipality":"Manzanillo","setelement":"Pipila"},{"postalCode":"28863","state":"Colima","municipality":"Manzanillo","setelement":"Abelardo L. Rodríguez"},{"postalCode":"28863","state":"Colima","municipality":"Manzanillo","setelement":"Colinas de Santiago"},{"postalCode":"28863","state":"Colima","municipality":"Manzanillo","setelement":"El Cerrito"},{"postalCode":"28863","state":"Colima","municipality":"Manzanillo","setelement":"Francisco Villa"},{"postalCode":"28863","state":"Colima","municipality":"Manzanillo","setelement":"El Jabalí"},{"postalCode":"28863","state":"Colima","municipality":"Manzanillo","setelement":"La Cruz"},{"postalCode":"28863","state":"Colima","municipality":"Manzanillo","setelement":"Las Flores"},{"postalCode":"28863","state":"Colima","municipality":"Manzanillo","setelement":"Obradores"},{"postalCode":"28863","state":"Colima","municipality":"Manzanillo","setelement":"Perla de Occidente"},{"postalCode":"28863","state":"Colima","municipality":"Manzanillo","setelement":"Porfirio Gaytán"},{"postalCode":"28863","state":"Colima","municipality":"Manzanillo","setelement":"San Isidro Labrador"},{"postalCode":"28863","state":"Colima","municipality":"Manzanillo","setelement":"San Martín"},{"postalCode":"28863","state":"Colima","municipality":"Manzanillo","setelement":"Barrio Nuevo"},{"postalCode":"28863","state":"Colima","municipality":"Manzanillo","setelement":"Pedro Núñez"},{"postalCode":"28863","state":"Colima","municipality":"Manzanillo","setelement":"Vista del Mar"},{"postalCode":"28864","state":"Colima","municipality":"Manzanillo","setelement":"Almendros Residencial II"},{"postalCode":"28864","state":"Colima","municipality":"Manzanillo","setelement":"Cantamar"},{"postalCode":"28864","state":"Colima","municipality":"Manzanillo","setelement":"Villas del Pacífico"},{"postalCode":"28864","state":"Colima","municipality":"Manzanillo","setelement":"Paseo del Mar"},{"postalCode":"28864","state":"Colima","municipality":"Manzanillo","setelement":"Santa Carolina"},{"postalCode":"28864","state":"Colima","municipality":"Manzanillo","setelement":"Las Camelinas"},{"postalCode":"28864","state":"Colima","municipality":"Manzanillo","setelement":"Jardines de Salagua"},{"postalCode":"28864","state":"Colima","municipality":"Manzanillo","setelement":"Sol del Pacífico"},{"postalCode":"28864","state":"Colima","municipality":"Manzanillo","setelement":"Hacienda Santa Clara"},{"postalCode":"28864","state":"Colima","municipality":"Manzanillo","setelement":"Natura Pacífico"},{"postalCode":"28864","state":"Colima","municipality":"Manzanillo","setelement":"Deportiva"},{"postalCode":"28864","state":"Colima","municipality":"Manzanillo","setelement":"Hermosa Provincia"},{"postalCode":"28864","state":"Colima","municipality":"Manzanillo","setelement":"Loma del Mar"},{"postalCode":"28864","state":"Colima","municipality":"Manzanillo","setelement":"Lomas Verdes"},{"postalCode":"28864","state":"Colima","municipality":"Manzanillo","setelement":"Montebello"},{"postalCode":"28864","state":"Colima","municipality":"Manzanillo","setelement":"Obrera"},{"postalCode":"28864","state":"Colima","municipality":"Manzanillo","setelement":"Valle Dorado"},{"postalCode":"28864","state":"Colima","municipality":"Manzanillo","setelement":"Viveros Pelayo"},{"postalCode":"28864","state":"Colima","municipality":"Manzanillo","setelement":"Jardines de Santiago"},{"postalCode":"28864","state":"Colima","municipality":"Manzanillo","setelement":"Las Huertas"},{"postalCode":"28864","state":"Colima","municipality":"Manzanillo","setelement":"Valle Alto"},{"postalCode":"28864","state":"Colima","municipality":"Manzanillo","setelement":"Valle del Coral"},{"postalCode":"28864","state":"Colima","municipality":"Manzanillo","setelement":"Lomas de Santiago"},{"postalCode":"28864","state":"Colima","municipality":"Manzanillo","setelement":"La Joya I"},{"postalCode":"28864","state":"Colima","municipality":"Manzanillo","setelement":"Country Club"},{"postalCode":"28864","state":"Colima","municipality":"Manzanillo","setelement":"Azul Marino Residencial"},{"postalCode":"28864","state":"Colima","municipality":"Manzanillo","setelement":"Del Mar"},{"postalCode":"28865","state":"Colima","municipality":"Manzanillo","setelement":"Terraplena"},{"postalCode":"28865","state":"Colima","municipality":"Manzanillo","setelement":"Monte Orquídea"},{"postalCode":"28865","state":"Colima","municipality":"Manzanillo","setelement":"Residencial San Miguel"},{"postalCode":"28865","state":"Colima","municipality":"Manzanillo","setelement":"Senderos"},{"postalCode":"28865","state":"Colima","municipality":"Manzanillo","setelement":"Miravalle"},{"postalCode":"28865","state":"Colima","municipality":"Manzanillo","setelement":"Lomas del Carmen"},{"postalCode":"28865","state":"Colima","municipality":"Manzanillo","setelement":"La Floresta"},{"postalCode":"28865","state":"Colima","municipality":"Manzanillo","setelement":"Jardines del Valle"},{"postalCode":"28865","state":"Colima","municipality":"Manzanillo","setelement":"Nuevo el Petatero"},{"postalCode":"28865","state":"Colima","municipality":"Manzanillo","setelement":"Valle Paraíso"},{"postalCode":"28865","state":"Colima","municipality":"Manzanillo","setelement":"Orquídeas Residencial"},{"postalCode":"28865","state":"Colima","municipality":"Manzanillo","setelement":"Los Altos"},{"postalCode":"28867","state":"Colima","municipality":"Manzanillo","setelement":"Bugambilias"},{"postalCode":"28867","state":"Colima","municipality":"Manzanillo","setelement":"Las Hadas"},{"postalCode":"28867","state":"Colima","municipality":"Manzanillo","setelement":"Salagua"},{"postalCode":"28867","state":"Colima","municipality":"Manzanillo","setelement":"La Punta"},{"postalCode":"28867","state":"Colima","municipality":"Manzanillo","setelement":"Península de Santiago"},{"postalCode":"28867","state":"Colima","municipality":"Manzanillo","setelement":"Villas del Faro"},{"postalCode":"28867","state":"Colima","municipality":"Manzanillo","setelement":"Villas del Palmar"},{"postalCode":"28868","state":"Colima","municipality":"Manzanillo","setelement":"Real de Santiago"},{"postalCode":"28868","state":"Colima","municipality":"Manzanillo","setelement":"Real del Country"},{"postalCode":"28868","state":"Colima","municipality":"Manzanillo","setelement":"Maravillas del Campo"},{"postalCode":"28868","state":"Colima","municipality":"Manzanillo","setelement":"Esperanza de Miramar"},{"postalCode":"28868","state":"Colima","municipality":"Manzanillo","setelement":"El Naranjo"},{"postalCode":"28868","state":"Colima","municipality":"Manzanillo","setelement":"Ejidal Miramar"},{"postalCode":"28868","state":"Colima","municipality":"Manzanillo","setelement":"Club Santiago"},{"postalCode":"28868","state":"Colima","municipality":"Manzanillo","setelement":"La Joya"},{"postalCode":"28868","state":"Colima","municipality":"Manzanillo","setelement":"Nuevo Miramar"},{"postalCode":"28868","state":"Colima","municipality":"Manzanillo","setelement":"La Central"},{"postalCode":"28868","state":"Colima","municipality":"Manzanillo","setelement":"Club Maeva"},{"postalCode":"28869","state":"Colima","municipality":"Manzanillo","setelement":"Rosa Morada"},{"postalCode":"28869","state":"Colima","municipality":"Manzanillo","setelement":"Valle Salagua"},{"postalCode":"28869","state":"Colima","municipality":"Manzanillo","setelement":"Aguazul"},{"postalCode":"28869","state":"Colima","municipality":"Manzanillo","setelement":"Santa Sofía"},{"postalCode":"28869","state":"Colima","municipality":"Manzanillo","setelement":"Cantalegre"},{"postalCode":"28869","state":"Colima","municipality":"Manzanillo","setelement":"Agua Marina Residencial"},{"postalCode":"28869","state":"Colima","municipality":"Manzanillo","setelement":"La Escondida Residencial"},{"postalCode":"28869","state":"Colima","municipality":"Manzanillo","setelement":"Villa Coral"},{"postalCode":"28869","state":"Colima","municipality":"Manzanillo","setelement":"El Dorado"},{"postalCode":"28869","state":"Colima","municipality":"Manzanillo","setelement":"Vidaire"},{"postalCode":"28869","state":"Colima","municipality":"Manzanillo","setelement":"Belona Residencial"},{"postalCode":"28869","state":"Colima","municipality":"Manzanillo","setelement":"Mar de Plata"},{"postalCode":"28869","state":"Colima","municipality":"Manzanillo","setelement":"Árbol de Agua"},{"postalCode":"28869","state":"Colima","municipality":"Manzanillo","setelement":"Delfines"},{"postalCode":"28869","state":"Colima","municipality":"Manzanillo","setelement":"Villas Marbella"},{"postalCode":"28869","state":"Colima","municipality":"Manzanillo","setelement":"Lázaro Cárdenas"},{"postalCode":"28869","state":"Colima","municipality":"Manzanillo","setelement":"Arboledas"},{"postalCode":"28869","state":"Colima","municipality":"Manzanillo","setelement":"Las Perlas"},{"postalCode":"28869","state":"Colima","municipality":"Manzanillo","setelement":"Barrio Nuevo Salagua"},{"postalCode":"28869","state":"Colima","municipality":"Manzanillo","setelement":"Las Palmas"},{"postalCode":"28869","state":"Colima","municipality":"Manzanillo","setelement":"Guadalupe Victoria"},{"postalCode":"28869","state":"Colima","municipality":"Manzanillo","setelement":"López de Legaspi"},{"postalCode":"28869","state":"Colima","municipality":"Manzanillo","setelement":"Arboledas"},{"postalCode":"28869","state":"Colima","municipality":"Manzanillo","setelement":"Obispo Sergio Méndez Arceo"},{"postalCode":"28869","state":"Colima","municipality":"Manzanillo","setelement":"La Joya II"},{"postalCode":"28869","state":"Colima","municipality":"Manzanillo","setelement":"Villa Flamingos"},{"postalCode":"28869","state":"Colima","municipality":"Manzanillo","setelement":"Puerta del Sol"},{"postalCode":"28869","state":"Colima","municipality":"Manzanillo","setelement":"El Campanario"},{"postalCode":"28869","state":"Colima","municipality":"Manzanillo","setelement":"Elías Zamora Verduzco"},{"postalCode":"28869","state":"Colima","municipality":"Manzanillo","setelement":"Los Mangos"},{"postalCode":"28869","state":"Colima","municipality":"Manzanillo","setelement":"Nuevo Salagua"},{"postalCode":"28869","state":"Colima","municipality":"Manzanillo","setelement":"Almendros Residencial"},{"postalCode":"28869","state":"Colima","municipality":"Manzanillo","setelement":"Paraiso Salagua"},{"postalCode":"28869","state":"Colima","municipality":"Manzanillo","setelement":"Marimar"},{"postalCode":"28870","state":"Colima","municipality":"Manzanillo","setelement":"Jalipa"},{"postalCode":"28870","state":"Colima","municipality":"Manzanillo","setelement":"Francisco Villa"},{"postalCode":"28872","state":"Colima","municipality":"Manzanillo","setelement":"Punta de Agua de Camotlán"},{"postalCode":"28880","state":"Colima","municipality":"Manzanillo","setelement":"San Buenaventura"},{"postalCode":"28880","state":"Colima","municipality":"Manzanillo","setelement":"Santa Rita"},{"postalCode":"28880","state":"Colima","municipality":"Manzanillo","setelement":"Venustiano Carranza (Cualata)"},{"postalCode":"28880","state":"Colima","municipality":"Manzanillo","setelement":"Nuevo Cuyutlán"},{"postalCode":"28885","state":"Colima","municipality":"Manzanillo","setelement":"El Salto"},{"postalCode":"28886","state":"Colima","municipality":"Manzanillo","setelement":"Agua Blanca"},{"postalCode":"28900","state":"Colima","municipality":"Tecomán","setelement":"Tecolapa"},{"postalCode":"28900","state":"Colima","municipality":"Tecomán","setelement":"Progreso"},{"postalCode":"28900","state":"Colima","municipality":"Tecomán","setelement":"El Bordo"},{"postalCode":"28900","state":"Colima","municipality":"Tecomán","setelement":"El Rocio"},{"postalCode":"28900","state":"Colima","municipality":"Tecomán","setelement":"Martín del Campo"},{"postalCode":"28900","state":"Colima","municipality":"Tecomán","setelement":"Lindavista"},{"postalCode":"28900","state":"Colima","municipality":"Tecomán","setelement":"San Antonio"},{"postalCode":"28900","state":"Colima","municipality":"Tecomán","setelement":"Cerro de Ortega"},{"postalCode":"28900","state":"Colima","municipality":"Tecomán","setelement":"Hermanos Leaños"},{"postalCode":"28910","state":"Colima","municipality":"Tecomán","setelement":"Madrid"},{"postalCode":"28910","state":"Colima","municipality":"Tecomán","setelement":"Articulo 27 Constitucional"},{"postalCode":"28910","state":"Colima","municipality":"Tecomán","setelement":"Conacar PRI"},{"postalCode":"28910","state":"Colima","municipality":"Tecomán","setelement":"La Pedregal"},{"postalCode":"28915","state":"Colima","municipality":"Tecomán","setelement":"El Rosario"},{"postalCode":"28920","state":"Colima","municipality":"Tecomán","setelement":"Tecolapa"},{"postalCode":"28923","state":"Colima","municipality":"Tecomán","setelement":"La Salada"},{"postalCode":"28929","state":"Colima","municipality":"Tecomán","setelement":"Cofradía de Hidalgo (Laguna de Alcuzahue)"},{"postalCode":"28930","state":"Colima","municipality":"Tecomán","setelement":"Caleras"},{"postalCode":"28930","state":"Colima","municipality":"Tecomán","setelement":"Puerta de Caleras"},{"postalCode":"28934","state":"Colima","municipality":"Tecomán","setelement":"La Estación"},{"postalCode":"28934","state":"Colima","municipality":"Tecomán","setelement":"Leonardo Jaramillo"},{"postalCode":"28934","state":"Colima","municipality":"Tecomán","setelement":"Ruiz Cortines"},{"postalCode":"28934","state":"Colima","municipality":"Tecomán","setelement":"San Martín de Porres"},{"postalCode":"28934","state":"Colima","municipality":"Tecomán","setelement":"El Olivo"},{"postalCode":"28934","state":"Colima","municipality":"Tecomán","setelement":"Bayardo"},{"postalCode":"28934","state":"Colima","municipality":"Tecomán","setelement":"Luis Rodríguez Alcalá [La Báscula]"},{"postalCode":"28934","state":"Colima","municipality":"Tecomán","setelement":"Antonio Salazar Salazar"},{"postalCode":"28934","state":"Colima","municipality":"Tecomán","setelement":"María Esther Zuno de Echeverría"},{"postalCode":"28935","state":"Colima","municipality":"Tecomán","setelement":"Cofradía de Morelos"},{"postalCode":"28936","state":"Colima","municipality":"Tecomán","setelement":"San Francisco"},{"postalCode":"28936","state":"Colima","municipality":"Tecomán","setelement":"Ladislao Moreno"},{"postalCode":"28937","state":"Colima","municipality":"Tecomán","setelement":"El Real"},{"postalCode":"28938","state":"Colima","municipality":"Tecomán","setelement":"Tecuanillo"},{"postalCode":"28940","state":"Colima","municipality":"Tecomán","setelement":"Callejones"},{"postalCode":"28944","state":"Colima","municipality":"Tecomán","setelement":"El Saucito"},{"postalCode":"28944","state":"Colima","municipality":"Tecomán","setelement":"La Primavera"},{"postalCode":"28945","state":"Colima","municipality":"Tecomán","setelement":"Chanchopa"},{"postalCode":"28947","state":"Colima","municipality":"Tecomán","setelement":"San Miguel del Ojo de Agua"},{"postalCode":"28950","state":"Colima","municipality":"Villa de Álvarez","setelement":"Juluapan"},{"postalCode":"28952","state":"Colima","municipality":"Villa de Álvarez","setelement":"Los Picachos"},{"postalCode":"28955","state":"Colima","municipality":"Villa de Álvarez","setelement":"Agua Dulce"},{"postalCode":"28958","state":"Colima","municipality":"Villa de Álvarez","setelement":"El Mixcuate"},{"postalCode":"28959","state":"Colima","municipality":"Villa de Álvarez","setelement":"Pueblo Nuevo"},{"postalCode":"28960","state":"Colima","municipality":"Villa de Álvarez","setelement":"El Carrizal"},{"postalCode":"28963","state":"Colima","municipality":"Villa de Álvarez","setelement":"Pastores"},{"postalCode":"28965","state":"Colima","municipality":"Villa de Álvarez","setelement":"Las Joyitas"},{"postalCode":"28965","state":"Colima","municipality":"Villa de Álvarez","setelement":"El Chivato (Providencia)"},{"postalCode":"28965","state":"Colima","municipality":"Villa de Álvarez","setelement":"La Montrica"},{"postalCode":"28968","state":"Colima","municipality":"Villa de Álvarez","setelement":"El Nuevo Naranjal"},{"postalCode":"28968","state":"Colima","municipality":"Villa de Álvarez","setelement":"El Naranjal"},{"postalCode":"28970","state":"Colima","municipality":"Villa de Álvarez","setelement":"Villa de Álvarez Centro"},{"postalCode":"28970","state":"Colima","municipality":"Villa de Álvarez","setelement":"Villas del Sol"},{"postalCode":"28973","state":"Colima","municipality":"Villa de Álvarez","setelement":"Floresta"},{"postalCode":"28973","state":"Colima","municipality":"Villa de Álvarez","setelement":"Manuel M. Diéguez"},{"postalCode":"28973","state":"Colima","municipality":"Villa de Álvarez","setelement":"Real los Arcos"},{"postalCode":"28973","state":"Colima","municipality":"Villa de Álvarez","setelement":"Santa Teresa"},{"postalCode":"28973","state":"Colima","municipality":"Villa de Álvarez","setelement":"Villas del Río"},{"postalCode":"28973","state":"Colima","municipality":"Villa de Álvarez","setelement":"Villas Adriana"},{"postalCode":"28973","state":"Colima","municipality":"Villa de Álvarez","setelement":"Villas de Mayo"},{"postalCode":"28973","state":"Colima","municipality":"Villa de Álvarez","setelement":"Santa Cristina"},{"postalCode":"28973","state":"Colima","municipality":"Villa de Álvarez","setelement":"Privada Villa San Agustín"},{"postalCode":"28973","state":"Colima","municipality":"Villa de Álvarez","setelement":"Rancho Santo"},{"postalCode":"28974","state":"Colima","municipality":"Villa de Álvarez","setelement":"Las Palomas Residencial"},{"postalCode":"28974","state":"Colima","municipality":"Villa de Álvarez","setelement":"San Isidro"},{"postalCode":"28974","state":"Colima","municipality":"Villa de Álvarez","setelement":"Villas Coliman"},{"postalCode":"28975","state":"Colima","municipality":"Villa de Álvarez","setelement":"López Mateos"},{"postalCode":"28975","state":"Colima","municipality":"Villa de Álvarez","setelement":"Santa Martha"},{"postalCode":"28975","state":"Colima","municipality":"Villa de Álvarez","setelement":"Morelos"},{"postalCode":"28975","state":"Colima","municipality":"Villa de Álvarez","setelement":"Villa Carlo"},{"postalCode":"28975","state":"Colima","municipality":"Villa de Álvarez","setelement":"La Frontera"},{"postalCode":"28975","state":"Colima","municipality":"Villa de Álvarez","setelement":"La Cajita del Agua"},{"postalCode":"28975","state":"Colima","municipality":"Villa de Álvarez","setelement":"Privada Villas del Palmar"},{"postalCode":"28976","state":"Colima","municipality":"Villa de Álvarez","setelement":"Liberación"},{"postalCode":"28976","state":"Colima","municipality":"Villa de Álvarez","setelement":"Villas del Centro"},{"postalCode":"28976","state":"Colima","municipality":"Villa de Álvarez","setelement":"Francisco Hernández"},{"postalCode":"28976","state":"Colima","municipality":"Villa de Álvarez","setelement":"Rosario Ibarra de Piedra"},{"postalCode":"28977","state":"Colima","municipality":"Villa de Álvarez","setelement":"Las Parotas"},{"postalCode":"28978","state":"Colima","municipality":"Villa de Álvarez","setelement":"Residencial Bosque Real"},{"postalCode":"28978","state":"Colima","municipality":"Villa de Álvarez","setelement":"Real de Caná"},{"postalCode":"28978","state":"Colima","municipality":"Villa de Álvarez","setelement":"Arboledas del Carmen"},{"postalCode":"28978","state":"Colima","municipality":"Villa de Álvarez","setelement":"Azaleas"},{"postalCode":"28978","state":"Colima","municipality":"Villa de Álvarez","setelement":"Colinas del Carmen"},{"postalCode":"28978","state":"Colima","municipality":"Villa de Álvarez","setelement":"FOVISSSTE"},{"postalCode":"28978","state":"Colima","municipality":"Villa de Álvarez","setelement":"Golondrinas"},{"postalCode":"28978","state":"Colima","municipality":"Villa de Álvarez","setelement":"Jardines de Bugambilias"},{"postalCode":"28978","state":"Colima","municipality":"Villa de Álvarez","setelement":"Primaveras"},{"postalCode":"28978","state":"Colima","municipality":"Villa de Álvarez","setelement":"Rinconada de La Hacienda"},{"postalCode":"28978","state":"Colima","municipality":"Villa de Álvarez","setelement":"Senderos del Carmen"},{"postalCode":"28978","state":"Colima","municipality":"Villa de Álvarez","setelement":"Privada Nicasio Carvajal Flores"},{"postalCode":"28978","state":"Colima","municipality":"Villa de Álvarez","setelement":"Real Hacienda"},{"postalCode":"28978","state":"Colima","municipality":"Villa de Álvarez","setelement":"Real Santa Fe"},{"postalCode":"28978","state":"Colima","municipality":"Villa de Álvarez","setelement":"Hacienda del Carmen"},{"postalCode":"28979","state":"Colima","municipality":"Villa de Álvarez","setelement":"Colinas de las Lagunas"},{"postalCode":"28979","state":"Colima","municipality":"Villa de Álvarez","setelement":"Alfredo V. Bonfil"},{"postalCode":"28979","state":"Colima","municipality":"Villa de Álvarez","setelement":"Las Águilas"},{"postalCode":"28979","state":"Colima","municipality":"Villa de Álvarez","setelement":"Lindavista"},{"postalCode":"28979","state":"Colima","municipality":"Villa de Álvarez","setelement":"Lomas de las Flores"},{"postalCode":"28979","state":"Colima","municipality":"Villa de Álvarez","setelement":"Loma Hermosa"},{"postalCode":"28979","state":"Colima","municipality":"Villa de Álvarez","setelement":"Lomas de La Higuera"},{"postalCode":"28979","state":"Colima","municipality":"Villa de Álvarez","setelement":"Los Almendros"},{"postalCode":"28979","state":"Colima","municipality":"Villa de Álvarez","setelement":"Solidaridad"},{"postalCode":"28979","state":"Colima","municipality":"Villa de Álvarez","setelement":"Villa Izcalli Caxitlán"},{"postalCode":"28979","state":"Colima","municipality":"Villa de Álvarez","setelement":"Villas de Bugambilias"},{"postalCode":"28979","state":"Colima","municipality":"Villa de Álvarez","setelement":"Real Bugambilias"},{"postalCode":"28979","state":"Colima","municipality":"Villa de Álvarez","setelement":"Carlos de La Madrid"},{"postalCode":"28979","state":"Colima","municipality":"Villa de Álvarez","setelement":"Lomas Altas"},{"postalCode":"28979","state":"Colima","municipality":"Villa de Álvarez","setelement":"Villas del Cañaveral"},{"postalCode":"28979","state":"Colima","municipality":"Villa de Álvarez","setelement":"El Angel"},{"postalCode":"28979","state":"Colima","municipality":"Villa de Álvarez","setelement":"Cruz de Comala"},{"postalCode":"28979","state":"Colima","municipality":"Villa de Álvarez","setelement":"Lomas de La Villa"},{"postalCode":"28979","state":"Colima","municipality":"Villa de Álvarez","setelement":"Vista Bugambilias"},{"postalCode":"28979","state":"Colima","municipality":"Villa de Álvarez","setelement":"Bugambilias"},{"postalCode":"28979","state":"Colima","municipality":"Villa de Álvarez","setelement":"Las Colinas"},{"postalCode":"28979","state":"Colima","municipality":"Villa de Álvarez","setelement":"Las Lagunas"},{"postalCode":"28979","state":"Colima","municipality":"Villa de Álvarez","setelement":"Lomas de La Herradura"},{"postalCode":"28979","state":"Colima","municipality":"Villa de Álvarez","setelement":"Residencial Colinas del Rey"},{"postalCode":"28979","state":"Colima","municipality":"Villa de Álvarez","setelement":"Salomón Preciado"},{"postalCode":"28979","state":"Colima","municipality":"Villa de Álvarez","setelement":"Colinas del Sol"},{"postalCode":"28980","state":"Colima","municipality":"Villa de Álvarez","setelement":"La Gloria"},{"postalCode":"28982","state":"Colima","municipality":"Villa de Álvarez","setelement":"Villas San José Segunda Sección"},{"postalCode":"28982","state":"Colima","municipality":"Villa de Álvarez","setelement":"Villas de Alameda"},{"postalCode":"28982","state":"Colima","municipality":"Villa de Álvarez","setelement":"La Joya"},{"postalCode":"28982","state":"Colima","municipality":"Villa de Álvarez","setelement":"El Cortijo"},{"postalCode":"28982","state":"Colima","municipality":"Villa de Álvarez","setelement":"Santa Fe"},{"postalCode":"28982","state":"Colima","municipality":"Villa de Álvarez","setelement":"Los Olivos"},{"postalCode":"28982","state":"Colima","municipality":"Villa de Álvarez","setelement":"Jacarandas"},{"postalCode":"28982","state":"Colima","municipality":"Villa de Álvarez","setelement":"Hacienda El Nogal"},{"postalCode":"28982","state":"Colima","municipality":"Villa de Álvarez","setelement":"Hacienda del Cortijo"},{"postalCode":"28982","state":"Colima","municipality":"Villa de Álvarez","setelement":"Las Rosas"},{"postalCode":"28983","state":"Colima","municipality":"Villa de Álvarez","setelement":"Valle del Sol"},{"postalCode":"28983","state":"Colima","municipality":"Villa de Álvarez","setelement":"Puerta Higueras"},{"postalCode":"28983","state":"Colima","municipality":"Villa de Álvarez","setelement":"Jardines del Llano"},{"postalCode":"28983","state":"Colima","municipality":"Villa de Álvarez","setelement":"Rinconada del Centenario"},{"postalCode":"28983","state":"Colima","municipality":"Villa de Álvarez","setelement":"Jardines del Centenario"},{"postalCode":"28983","state":"Colima","municipality":"Villa de Álvarez","setelement":"Alfonso Rolón Michel"},{"postalCode":"28983","state":"Colima","municipality":"Villa de Álvarez","setelement":"Tabachines"},{"postalCode":"28983","state":"Colima","municipality":"Villa de Álvarez","setelement":"Senderos de Rancho Blanco"},{"postalCode":"28983","state":"Colima","municipality":"Villa de Álvarez","setelement":"Villa Flores"},{"postalCode":"28983","state":"Colima","municipality":"Villa de Álvarez","setelement":"Villas Rancho Blanco"},{"postalCode":"28983","state":"Colima","municipality":"Villa de Álvarez","setelement":"El Haya"},{"postalCode":"28983","state":"Colima","municipality":"Villa de Álvarez","setelement":"Puerta de Rolón"},{"postalCode":"28983","state":"Colima","municipality":"Villa de Álvarez","setelement":"Residencial Tulipanes"},{"postalCode":"28983","state":"Colima","municipality":"Villa de Álvarez","setelement":"Villa Flores II"},{"postalCode":"28984","state":"Colima","municipality":"Villa de Álvarez","setelement":"Patria Residencial"},{"postalCode":"28984","state":"Colima","municipality":"Villa de Álvarez","setelement":"Palo Alto"},{"postalCode":"28984","state":"Colima","municipality":"Villa de Álvarez","setelement":"Villafuentes"},{"postalCode":"28984","state":"Colima","municipality":"Villa de Álvarez","setelement":"Punta Diamante Residencial"},{"postalCode":"28984","state":"Colima","municipality":"Villa de Álvarez","setelement":"Residencial Los Robles"},{"postalCode":"28984","state":"Colima","municipality":"Villa de Álvarez","setelement":"Vista Volcanes"},{"postalCode":"28984","state":"Colima","municipality":"Villa de Álvarez","setelement":"La Fortuna"},{"postalCode":"28984","state":"Colima","municipality":"Villa de Álvarez","setelement":"Real del Seis"},{"postalCode":"28984","state":"Colima","municipality":"Villa de Álvarez","setelement":"Azteca"},{"postalCode":"28984","state":"Colima","municipality":"Villa de Álvarez","setelement":"El Centenario"},{"postalCode":"28984","state":"Colima","municipality":"Villa de Álvarez","setelement":"Juan José Ríos"},{"postalCode":"28984","state":"Colima","municipality":"Villa de Álvarez","setelement":"Loma Bonita"},{"postalCode":"28984","state":"Colima","municipality":"Villa de Álvarez","setelement":"Lomas del Centenario"},{"postalCode":"28984","state":"Colima","municipality":"Villa de Álvarez","setelement":"Manuel Álvarez"},{"postalCode":"28984","state":"Colima","municipality":"Villa de Álvarez","setelement":"Ramón Serrano"},{"postalCode":"28984","state":"Colima","municipality":"Villa de Álvarez","setelement":"Real Centenario"},{"postalCode":"28984","state":"Colima","municipality":"Villa de Álvarez","setelement":"Villas de San José"},{"postalCode":"28984","state":"Colima","municipality":"Villa de Álvarez","setelement":"Jardines de La Villa"},{"postalCode":"28984","state":"Colima","municipality":"Villa de Álvarez","setelement":"Los Triángulos"},{"postalCode":"28984","state":"Colima","municipality":"Villa de Álvarez","setelement":"Puerta del Centenario"},{"postalCode":"28984","state":"Colima","municipality":"Villa de Álvarez","setelement":"Centenario II"},{"postalCode":"28984","state":"Colima","municipality":"Villa de Álvarez","setelement":"La Reserva"},{"postalCode":"28984","state":"Colima","municipality":"Villa de Álvarez","setelement":"Buenavista"},{"postalCode":"28984","state":"Colima","municipality":"Villa de Álvarez","setelement":"Verde Valle"},{"postalCode":"28984","state":"Colima","municipality":"Villa de Álvarez","setelement":"Higueras del Espinal"},{"postalCode":"28985","state":"Colima","municipality":"Villa de Álvarez","setelement":"Del Valle"},{"postalCode":"28985","state":"Colima","municipality":"Villa de Álvarez","setelement":"Villa de Oro"},{"postalCode":"28985","state":"Colima","municipality":"Villa de Álvarez","setelement":"San Miguel"},{"postalCode":"28986","state":"Colima","municipality":"Villa de Álvarez","setelement":"Residencial Santa Sofía"},{"postalCode":"28986","state":"Colima","municipality":"Villa de Álvarez","setelement":"Emiliano Zapata"},{"postalCode":"28986","state":"Colima","municipality":"Villa de Álvarez","setelement":"Villas Diamante"},{"postalCode":"28987","state":"Colima","municipality":"Villa de Álvarez","setelement":"Alta Villa"},{"postalCode":"28987","state":"Colima","municipality":"Villa de Álvarez","setelement":"La Haciendita"},{"postalCode":"28987","state":"Colima","municipality":"Villa de Álvarez","setelement":"San Carlos"},{"postalCode":"28987","state":"Colima","municipality":"Villa de Álvarez","setelement":"Villas Providencia"},{"postalCode":"28988","state":"Colima","municipality":"Villa de Álvarez","setelement":"Real de San Jorge"},{"postalCode":"28988","state":"Colima","municipality":"Villa de Álvarez","setelement":"Campestre"},{"postalCode":"28988","state":"Colima","municipality":"Villa de Álvarez","setelement":"El Llano"},{"postalCode":"28989","state":"Colima","municipality":"Villa de Álvarez","setelement":"Montellano"},{"postalCode":"28989","state":"Colima","municipality":"Villa de Álvarez","setelement":"Burócratas del Estado"},{"postalCode":"28989","state":"Colima","municipality":"Villa de Álvarez","setelement":"Las Tunas"},{"postalCode":"28989","state":"Colima","municipality":"Villa de Álvarez","setelement":"Leandro Valle"},{"postalCode":"28989","state":"Colima","municipality":"Villa de Álvarez","setelement":"Prados de La Villa"},{"postalCode":"28989","state":"Colima","municipality":"Villa de Álvarez","setelement":"Villa de Alba"},{"postalCode":"28989","state":"Colima","municipality":"Villa de Álvarez","setelement":"Puerta de Hierro"},{"postalCode":"28989","state":"Colima","municipality":"Villa de Álvarez","setelement":"Campestre Bugambilias"},{"postalCode":"28989","state":"Colima","municipality":"Villa de Álvarez","setelement":"Real de Minas"},{"postalCode":"28989","state":"Colima","municipality":"Villa de Álvarez","setelement":"La Comarca"}]