[{"postalCode":"01000","state":"Ciudad de México","municipality":"Álvaro Obregón","setelement":"San Ángel"},{"postalCode":"01010","state":"Ciudad de México","municipality":"Álvaro Obregón","setelement":"Los Alpes"},{"postalCode":"01020","state":"Ciudad de México","municipality":"Álvaro Obregón","setelement":"Guadalupe Inn"},{"postalCode":"01030","state":"Ciudad de México","municipality":"Álvaro Obregón","setelement":"Axotla"},{"postalCode":"01030","state":"Ciudad de México","municipality":"Álvaro Obregón","setelement":"Florida"},{"postalCode":"01040","state":"Ciudad de México","municipality":"Álvaro Obregón","setelement":"Campestre"},{"postalCode":"01049","state":"Ciudad de México","municipality":"Álvaro Obregón","setelement":"Tlacopac"},{"postalCode":"01050","state":"Ciudad de México","municipality":"Álvaro Obregón","setelement":"Ex-Hacienda de Guadalupe Chimalistac"},{"postalCode":"01060","state":"Ciudad de México","municipality":"Álvaro Obregón","setelement":"Altavista"},{"postalCode":"01060","state":"Ciudad de México","municipality":"Álvaro Obregón","setelement":"San Ángel Inn"},{"postalCode":"01070","state":"Ciudad de México","municipality":"Álvaro Obregón","setelement":"Chimalistac"},{"postalCode":"01080","state":"Ciudad de México","municipality":"Álvaro Obregón","setelement":"Progreso Tizapan"},{"postalCode":"01089","state":"Ciudad de México","municipality":"Álvaro Obregón","setelement":"Ermita Tizapan"},{"postalCode":"01090","state":"Ciudad de México","municipality":"Álvaro Obregón","setelement":"La Otra Banda"},{"postalCode":"01090","state":"Ciudad de México","municipality":"Álvaro Obregón","setelement":"Loreto"},{"postalCode":"01090","state":"Ciudad de México","municipality":"Álvaro Obregón","setelement":"Tizapan"},{"postalCode":"01100","state":"Ciudad de México","municipality":"Álvaro Obregón","setelement":"Pólvora"},{"postalCode":"01109","state":"Ciudad de México","municipality":"Álvaro Obregón","setelement":"La Conchita"},{"postalCode":"01110","state":"Ciudad de México","municipality":"Álvaro Obregón","setelement":"Belém de las Flores"},{"postalCode":"01110","state":"Ciudad de México","municipality":"Álvaro Obregón","setelement":"El Capulín"},{"postalCode":"01110","state":"Ciudad de México","municipality":"Álvaro Obregón","setelement":"Ampliación El Capulín"},{"postalCode":"01110","state":"Ciudad de México","municipality":"Álvaro Obregón","setelement":"Liberales de 1857"},{"postalCode":"01120","state":"Ciudad de México","municipality":"Álvaro Obregón","setelement":"Acueducto"},{"postalCode":"01120","state":"Ciudad de México","municipality":"Álvaro Obregón","setelement":"Cove"},{"postalCode":"01120","state":"Ciudad de México","municipality":"Álvaro Obregón","setelement":"Hidalgo"},{"postalCode":"01120","state":"Ciudad de México","municipality":"Álvaro Obregón","setelement":"Las Américas"},{"postalCode":"01125","state":"Ciudad de México","municipality":"Álvaro Obregón","setelement":"Ampliación Acueducto"},{"postalCode":"01130","state":"Ciudad de México","municipality":"Álvaro Obregón","setelement":"Paraíso"},{"postalCode":"01130","state":"Ciudad de México","municipality":"Álvaro Obregón","setelement":"Molino de Santo Domingo"},{"postalCode":"01130","state":"Ciudad de México","municipality":"Álvaro Obregón","setelement":"Real del Monte"},{"postalCode":"01139","state":"Ciudad de México","municipality":"Álvaro Obregón","setelement":"Reacomodo Pino Suárez"},{"postalCode":"01140","state":"Ciudad de México","municipality":"Álvaro Obregón","setelement":"Bellavista"},{"postalCode":"01140","state":"Ciudad de México","municipality":"Álvaro Obregón","setelement":"José Maria Pino Suárez"},{"postalCode":"01150","state":"Ciudad de México","municipality":"Álvaro Obregón","setelement":"Cristo Rey"},{"postalCode":"01150","state":"Ciudad de México","municipality":"Álvaro Obregón","setelement":"Tolteca"},{"postalCode":"01160","state":"Ciudad de México","municipality":"Álvaro Obregón","setelement":"Bosque"},{"postalCode":"01160","state":"Ciudad de México","municipality":"Álvaro Obregón","setelement":"Isidro Fabela"},{"postalCode":"01160","state":"Ciudad de México","municipality":"Álvaro Obregón","setelement":"Maria G. de García Ruiz"},{"postalCode":"01160","state":"Ciudad de México","municipality":"Álvaro Obregón","setelement":"1a Victoria"},{"postalCode":"01170","state":"Ciudad de México","municipality":"Álvaro Obregón","setelement":"Abraham M. González"},{"postalCode":"01180","state":"Ciudad de México","municipality":"Álvaro Obregón","setelement":"Carola"},{"postalCode":"01180","state":"Ciudad de México","municipality":"Álvaro Obregón","setelement":"8 de Agosto"},{"postalCode":"01180","state":"Ciudad de México","municipality":"Álvaro Obregón","setelement":"San Pedro de los Pinos"},{"postalCode":"01200","state":"Ciudad de México","municipality":"Álvaro Obregón","setelement":"Arturo Martínez"},{"postalCode":"01210","state":"Ciudad de México","municipality":"Álvaro Obregón","setelement":"Santa Fe"},{"postalCode":"01219","state":"Ciudad de México","municipality":"Álvaro Obregón","setelement":"Lomas de Santa Fe"},{"postalCode":"01220","state":"Ciudad de México","municipality":"Álvaro Obregón","setelement":"La Estrella"},{"postalCode":"01220","state":"Ciudad de México","municipality":"Álvaro Obregón","setelement":"Bonanza"},{"postalCode":"01220","state":"Ciudad de México","municipality":"Álvaro Obregón","setelement":"Cuevitas"},{"postalCode":"01220","state":"Ciudad de México","municipality":"Álvaro Obregón","setelement":"El Cuernito"},{"postalCode":"01220","state":"Ciudad de México","municipality":"Álvaro Obregón","setelement":"Mártires de Tacubaya"},{"postalCode":"01220","state":"Ciudad de México","municipality":"Álvaro Obregón","setelement":"Zenón Delgado"},{"postalCode":"01230","state":"Ciudad de México","municipality":"Álvaro Obregón","setelement":"Campo de Tiro los Gamitos"},{"postalCode":"01230","state":"Ciudad de México","municipality":"Álvaro Obregón","setelement":"Los Gamitos"},{"postalCode":"01230","state":"Ciudad de México","municipality":"Álvaro Obregón","setelement":"Tlapechico"},{"postalCode":"01230","state":"Ciudad de México","municipality":"Álvaro Obregón","setelement":"El Piru Santa Fe"},{"postalCode":"01230","state":"Ciudad de México","municipality":"Álvaro Obregón","setelement":"El Piru 2a Ampliación"},{"postalCode":"01239","state":"Ciudad de México","municipality":"Álvaro Obregón","setelement":"La Huerta"},{"postalCode":"01240","state":"Ciudad de México","municipality":"Álvaro Obregón","setelement":"Pueblo Nuevo"},{"postalCode":"01250","state":"Ciudad de México","municipality":"Álvaro Obregón","setelement":"El Árbol"},{"postalCode":"01250","state":"Ciudad de México","municipality":"Álvaro Obregón","setelement":"Ladera"},{"postalCode":"01250","state":"Ciudad de México","municipality":"Álvaro Obregón","setelement":"Lomas de Nuevo México"},{"postalCode":"01250","state":"Ciudad de México","municipality":"Álvaro Obregón","setelement":"Margarita Maza de Juárez"},{"postalCode":"01250","state":"Ciudad de México","municipality":"Álvaro Obregón","setelement":"Tecolalco"},{"postalCode":"01259","state":"Ciudad de México","municipality":"Álvaro Obregón","setelement":"Ampliación La Cebada"},{"postalCode":"01259","state":"Ciudad de México","municipality":"Álvaro Obregón","setelement":"La Mexicana 2a Ampliación"},{"postalCode":"01260","state":"Ciudad de México","municipality":"Álvaro Obregón","setelement":"Calzada Jalalpa"},{"postalCode":"01260","state":"Ciudad de México","municipality":"Álvaro Obregón","setelement":"La Mexicana"},{"postalCode":"01260","state":"Ciudad de México","municipality":"Álvaro Obregón","setelement":"Ampliación La Mexicana"},{"postalCode":"01260","state":"Ciudad de México","municipality":"Álvaro Obregón","setelement":"La Palmita"},{"postalCode":"01260","state":"Ciudad de México","municipality":"Álvaro Obregón","setelement":"Liberación Proletaria"},{"postalCode":"01269","state":"Ciudad de México","municipality":"Álvaro Obregón","setelement":"1a Sección Cañada"},{"postalCode":"01269","state":"Ciudad de México","municipality":"Álvaro Obregón","setelement":"2a Sección Cañada"},{"postalCode":"01270","state":"Ciudad de México","municipality":"Álvaro Obregón","setelement":"El Tejocote"},{"postalCode":"01270","state":"Ciudad de México","municipality":"Álvaro Obregón","setelement":"La Presa"},{"postalCode":"01270","state":"Ciudad de México","municipality":"Álvaro Obregón","setelement":"Golondrinas"},{"postalCode":"01270","state":"Ciudad de México","municipality":"Álvaro Obregón","setelement":"Golondrinas 1a Sección"},{"postalCode":"01270","state":"Ciudad de México","municipality":"Álvaro Obregón","setelement":"Golondrinas 2a Sección"},{"postalCode":"01270","state":"Ciudad de México","municipality":"Álvaro Obregón","setelement":"Lomas de Capula"},{"postalCode":"01275","state":"Ciudad de México","municipality":"Álvaro Obregón","setelement":"Villa Solidaridad"},{"postalCode":"01276","state":"Ciudad de México","municipality":"Álvaro Obregón","setelement":"El Pirul"},{"postalCode":"01278","state":"Ciudad de México","municipality":"Álvaro Obregón","setelement":"Desarrollo Urbano"},{"postalCode":"01279","state":"Ciudad de México","municipality":"Álvaro Obregón","setelement":"Lomas de Becerra"},{"postalCode":"01280","state":"Ciudad de México","municipality":"Álvaro Obregón","setelement":"Arvide"},{"postalCode":"01280","state":"Ciudad de México","municipality":"Álvaro Obregón","setelement":"El Pocito"},{"postalCode":"01280","state":"Ciudad de México","municipality":"Álvaro Obregón","setelement":"Francisco Villa"},{"postalCode":"01280","state":"Ciudad de México","municipality":"Álvaro Obregón","setelement":"La Joya"},{"postalCode":"01285","state":"Ciudad de México","municipality":"Álvaro Obregón","setelement":"El Rodeo"},{"postalCode":"01289","state":"Ciudad de México","municipality":"Álvaro Obregón","setelement":"Reacomodo El Cuernito"},{"postalCode":"01290","state":"Ciudad de México","municipality":"Álvaro Obregón","setelement":"Piloto Adolfo López Mateos"},{"postalCode":"01290","state":"Ciudad de México","municipality":"Álvaro Obregón","setelement":"Presidentes"},{"postalCode":"01296","state":"Ciudad de México","municipality":"Álvaro Obregón","setelement":"Jalalpa Tepito 2a Ampliación"},{"postalCode":"01296","state":"Ciudad de México","municipality":"Álvaro Obregón","setelement":"Ampliación Jalalpa"},{"postalCode":"01296","state":"Ciudad de México","municipality":"Álvaro Obregón","setelement":"Jalalpa Tepito"},{"postalCode":"01298","state":"Ciudad de México","municipality":"Álvaro Obregón","setelement":"Ampliación Piloto Adolfo López Mateos"},{"postalCode":"01299","state":"Ciudad de México","municipality":"Álvaro Obregón","setelement":"1a Ampliación Presidentes"},{"postalCode":"01299","state":"Ciudad de México","municipality":"Álvaro Obregón","setelement":"2a Ampliación Presidentes"},{"postalCode":"01310","state":"Ciudad de México","municipality":"Álvaro Obregón","setelement":"San Gabriel"},{"postalCode":"01320","state":"Ciudad de México","municipality":"Álvaro Obregón","setelement":"Carlos A. Madrazo"},{"postalCode":"01330","state":"Ciudad de México","municipality":"Álvaro Obregón","setelement":"Paseo de las Lomas"},{"postalCode":"01340","state":"Ciudad de México","municipality":"Álvaro Obregón","setelement":"Bejero del Pueblo Santa Fe"},{"postalCode":"01376","state":"Ciudad de México","municipality":"Álvaro Obregón","setelement":"Santa Fe"},{"postalCode":"01376","state":"Ciudad de México","municipality":"Álvaro Obregón","setelement":"Santa Fe Peña Blanca"},{"postalCode":"01376","state":"Ciudad de México","municipality":"Álvaro Obregón","setelement":"Santa Fe La Loma"},{"postalCode":"01376","state":"Ciudad de México","municipality":"Álvaro Obregón","setelement":"Santa Fe Centro Ciudad"},{"postalCode":"01377","state":"Ciudad de México","municipality":"Álvaro Obregón","setelement":"Jalalpa El Grande"},{"postalCode":"01389","state":"Ciudad de México","municipality":"Álvaro Obregón","setelement":"Santa Fe Tlayapaca"},{"postalCode":"01400","state":"Ciudad de México","municipality":"Álvaro Obregón","setelement":"Olivar del Conde 1a Sección"},{"postalCode":"01400","state":"Ciudad de México","municipality":"Álvaro Obregón","setelement":"Preconcreto"},{"postalCode":"01407","state":"Ciudad de México","municipality":"Álvaro Obregón","setelement":"Galeana"},{"postalCode":"01408","state":"Ciudad de México","municipality":"Álvaro Obregón","setelement":"Olivar del Conde 2a Sección"},{"postalCode":"01410","state":"Ciudad de México","municipality":"Álvaro Obregón","setelement":"Barrio Norte"},{"postalCode":"01410","state":"Ciudad de México","municipality":"Álvaro Obregón","setelement":"Palmas"},{"postalCode":"01419","state":"Ciudad de México","municipality":"Álvaro Obregón","setelement":"Minas Cristo Rey"},{"postalCode":"01420","state":"Ciudad de México","municipality":"Álvaro Obregón","setelement":"Sacramento"},{"postalCode":"01420","state":"Ciudad de México","municipality":"Álvaro Obregón","setelement":"Santa María Nonoalco"},{"postalCode":"01430","state":"Ciudad de México","municipality":"Álvaro Obregón","setelement":"Colina del Sur"},{"postalCode":"01450","state":"Ciudad de México","municipality":"Álvaro Obregón","setelement":"Hogar y Redención"},{"postalCode":"01460","state":"Ciudad de México","municipality":"Álvaro Obregón","setelement":"Alfonso XIII"},{"postalCode":"01470","state":"Ciudad de México","municipality":"Álvaro Obregón","setelement":"Alfalfar"},{"postalCode":"01470","state":"Ciudad de México","municipality":"Álvaro Obregón","setelement":"Molino de Rosas"},{"postalCode":"01480","state":"Ciudad de México","municipality":"Álvaro Obregón","setelement":"Lomas de Plateros"},{"postalCode":"01490","state":"Ciudad de México","municipality":"Álvaro Obregón","setelement":"La Cascada"},{"postalCode":"01500","state":"Ciudad de México","municipality":"Álvaro Obregón","setelement":"Santa Lucía"},{"postalCode":"01500","state":"Ciudad de México","municipality":"Álvaro Obregón","setelement":"Miguel Gaona Armenta"},{"postalCode":"01509","state":"Ciudad de México","municipality":"Álvaro Obregón","setelement":"Santa Lucía Chantepec"},{"postalCode":"01510","state":"Ciudad de México","municipality":"Álvaro Obregón","setelement":"Garcimarrero"},{"postalCode":"01510","state":"Ciudad de México","municipality":"Álvaro Obregón","setelement":"La Araña"},{"postalCode":"01510","state":"Ciudad de México","municipality":"Álvaro Obregón","setelement":"Los Cedros"},{"postalCode":"01520","state":"Ciudad de México","municipality":"Álvaro Obregón","setelement":"Ampliación Los Pirules"},{"postalCode":"01520","state":"Ciudad de México","municipality":"Álvaro Obregón","setelement":"Estado de Hidalgo"},{"postalCode":"01520","state":"Ciudad de México","municipality":"Álvaro Obregón","setelement":"Ampliación Estado de Hidalgo"},{"postalCode":"01520","state":"Ciudad de México","municipality":"Álvaro Obregón","setelement":"Piru Santa Lucía"},{"postalCode":"01520","state":"Ciudad de México","municipality":"Álvaro Obregón","setelement":"El Politoco"},{"postalCode":"01530","state":"Ciudad de México","municipality":"Álvaro Obregón","setelement":"Corpus Christy"},{"postalCode":"01538","state":"Ciudad de México","municipality":"Álvaro Obregón","setelement":"Tepopotla"},{"postalCode":"01539","state":"Ciudad de México","municipality":"Álvaro Obregón","setelement":"Acuilotla"},{"postalCode":"01539","state":"Ciudad de México","municipality":"Álvaro Obregón","setelement":"Cooperativa Unión Olivos"},{"postalCode":"01540","state":"Ciudad de México","municipality":"Álvaro Obregón","setelement":"Balcones de Cehuayo"},{"postalCode":"01540","state":"Ciudad de México","municipality":"Álvaro Obregón","setelement":"Cehuaya"},{"postalCode":"01540","state":"Ciudad de México","municipality":"Álvaro Obregón","setelement":"Llano Redondo"},{"postalCode":"01540","state":"Ciudad de México","municipality":"Álvaro Obregón","setelement":"Punta de Cehuaya"},{"postalCode":"01548","state":"Ciudad de México","municipality":"Álvaro Obregón","setelement":"Villa Progresista"},{"postalCode":"01549","state":"Ciudad de México","municipality":"Álvaro Obregón","setelement":"Dos Ríos del Pueblo Santa Lucía"},{"postalCode":"01550","state":"Ciudad de México","municipality":"Álvaro Obregón","setelement":"Tepeaca"},{"postalCode":"01550","state":"Ciudad de México","municipality":"Álvaro Obregón","setelement":"Ampliación Tepeaca"},{"postalCode":"01550","state":"Ciudad de México","municipality":"Álvaro Obregón","setelement":"Rinconada Las Cuevitas"},{"postalCode":"01560","state":"Ciudad de México","municipality":"Álvaro Obregón","setelement":"Ave Real"},{"postalCode":"01560","state":"Ciudad de México","municipality":"Álvaro Obregón","setelement":"Canutillo"},{"postalCode":"01560","state":"Ciudad de México","municipality":"Álvaro Obregón","setelement":"Canutillo 3a Sección"},{"postalCode":"01560","state":"Ciudad de México","municipality":"Álvaro Obregón","setelement":"Canutillo 2a Sección"},{"postalCode":"01566","state":"Ciudad de México","municipality":"Álvaro Obregón","setelement":"Hueytlale"},{"postalCode":"01569","state":"Ciudad de México","municipality":"Álvaro Obregón","setelement":"Reacomodo Valentín Gómez Farías"},{"postalCode":"01588","state":"Ciudad de México","municipality":"Álvaro Obregón","setelement":"Tarango"},{"postalCode":"01590","state":"Ciudad de México","municipality":"Álvaro Obregón","setelement":"El Rincón"},{"postalCode":"01600","state":"Ciudad de México","municipality":"Álvaro Obregón","setelement":"Merced Gómez"},{"postalCode":"01610","state":"Ciudad de México","municipality":"Álvaro Obregón","setelement":"Colinas de Tarango"},{"postalCode":"01610","state":"Ciudad de México","municipality":"Álvaro Obregón","setelement":"Profesor J. Arturo López Martínez"},{"postalCode":"01618","state":"Ciudad de México","municipality":"Álvaro Obregón","setelement":"Arcos Centenario"},{"postalCode":"01618","state":"Ciudad de México","municipality":"Álvaro Obregón","setelement":"Ex-Hacienda de Tarango"},{"postalCode":"01619","state":"Ciudad de México","municipality":"Álvaro Obregón","setelement":"Rinconada de Tarango"},{"postalCode":"01619","state":"Ciudad de México","municipality":"Álvaro Obregón","setelement":"La Martinica"},{"postalCode":"01620","state":"Ciudad de México","municipality":"Álvaro Obregón","setelement":"Lomas de Tarango"},{"postalCode":"01630","state":"Ciudad de México","municipality":"Álvaro Obregón","setelement":"Lomas de Puerta Grande"},{"postalCode":"01630","state":"Ciudad de México","municipality":"Álvaro Obregón","setelement":"Puerta Grande"},{"postalCode":"01630","state":"Ciudad de México","municipality":"Álvaro Obregón","setelement":"Los Juristas"},{"postalCode":"01640","state":"Ciudad de México","municipality":"Álvaro Obregón","setelement":"Herón Proal"},{"postalCode":"01645","state":"Ciudad de México","municipality":"Álvaro Obregón","setelement":"Ponciano Arriaga"},{"postalCode":"01650","state":"Ciudad de México","municipality":"Álvaro Obregón","setelement":"La Milagrosa"},{"postalCode":"01650","state":"Ciudad de México","municipality":"Álvaro Obregón","setelement":"Palmas Axotitla"},{"postalCode":"01650","state":"Ciudad de México","municipality":"Álvaro Obregón","setelement":"Tlacuitlapa"},{"postalCode":"01650","state":"Ciudad de México","municipality":"Álvaro Obregón","setelement":"Ampliación Tlacuitlapa"},{"postalCode":"01650","state":"Ciudad de México","municipality":"Álvaro Obregón","setelement":"2o Reacomodo Tlacuitlapa"},{"postalCode":"01650","state":"Ciudad de México","municipality":"Álvaro Obregón","setelement":"El Ruedo"},{"postalCode":"01650","state":"Ciudad de México","municipality":"Álvaro Obregón","setelement":"Santa Lucía Chantepec"},{"postalCode":"01700","state":"Ciudad de México","municipality":"Álvaro Obregón","setelement":"La Joyita del Pueblo Tetelpan"},{"postalCode":"01700","state":"Ciudad de México","municipality":"Álvaro Obregón","setelement":"Ocotillos del Pueblo Tetelpan"},{"postalCode":"01700","state":"Ciudad de México","municipality":"Álvaro Obregón","setelement":"San Agustín del Pueblo Tetelpan"},{"postalCode":"01700","state":"Ciudad de México","municipality":"Álvaro Obregón","setelement":"2a Del Moral del Pueblo Tetelpan"},{"postalCode":"01700","state":"Ciudad de México","municipality":"Álvaro Obregón","setelement":"Tecalcapa del Pueblo Tetelpan"},{"postalCode":"01700","state":"Ciudad de México","municipality":"Álvaro Obregón","setelement":"Tetelpan"},{"postalCode":"01708","state":"Ciudad de México","municipality":"Álvaro Obregón","setelement":"El Encino del Pueblo Tetelpan"},{"postalCode":"01708","state":"Ciudad de México","municipality":"Álvaro Obregón","setelement":"El Mirador del Pueblo Tetelpan"},{"postalCode":"01710","state":"Ciudad de México","municipality":"Álvaro Obregón","setelement":"Las Águilas"},{"postalCode":"01710","state":"Ciudad de México","municipality":"Álvaro Obregón","setelement":"Ampliación Alpes"},{"postalCode":"01720","state":"Ciudad de México","municipality":"Álvaro Obregón","setelement":"Lomas de Guadalupe"},{"postalCode":"01729","state":"Ciudad de México","municipality":"Álvaro Obregón","setelement":"Alcantarilla"},{"postalCode":"01730","state":"Ciudad de México","municipality":"Álvaro Obregón","setelement":"Lomas de las Águilas"},{"postalCode":"01730","state":"Ciudad de México","municipality":"Álvaro Obregón","setelement":"Puente Colorado"},{"postalCode":"01740","state":"Ciudad de México","municipality":"Álvaro Obregón","setelement":"La Peñita del Pueblo Tetelpan"},{"postalCode":"01740","state":"Ciudad de México","municipality":"Álvaro Obregón","setelement":"San Clemente Norte"},{"postalCode":"01740","state":"Ciudad de México","municipality":"Álvaro Obregón","setelement":"San Clemente Sur"},{"postalCode":"01750","state":"Ciudad de México","municipality":"Álvaro Obregón","setelement":"Las Águilas 1a Sección"},{"postalCode":"01750","state":"Ciudad de México","municipality":"Álvaro Obregón","setelement":"Las Águilas 2o Parque"},{"postalCode":"01750","state":"Ciudad de México","municipality":"Álvaro Obregón","setelement":"Las Águilas 3er Parque"},{"postalCode":"01759","state":"Ciudad de México","municipality":"Álvaro Obregón","setelement":"Ampliación Las Águilas"},{"postalCode":"01760","state":"Ciudad de México","municipality":"Álvaro Obregón","setelement":"Atlamaya"},{"postalCode":"01760","state":"Ciudad de México","municipality":"Álvaro Obregón","setelement":"Flor de María"},{"postalCode":"01760","state":"Ciudad de México","municipality":"Álvaro Obregón","setelement":"La Herradura del Pueblo Tetelpan"},{"postalCode":"01770","state":"Ciudad de México","municipality":"Álvaro Obregón","setelement":"La Angostura"},{"postalCode":"01770","state":"Ciudad de México","municipality":"Álvaro Obregón","setelement":"San José del Olivar"},{"postalCode":"01780","state":"Ciudad de México","municipality":"Álvaro Obregón","setelement":"Olivar de los Padres"},{"postalCode":"01780","state":"Ciudad de México","municipality":"Álvaro Obregón","setelement":"Tizampampano del Pueblo Tetelpan"},{"postalCode":"01789","state":"Ciudad de México","municipality":"Álvaro Obregón","setelement":"Miguel Hidalgo"},{"postalCode":"01790","state":"Ciudad de México","municipality":"Álvaro Obregón","setelement":"Lomas de los Ángeles del Pueblo Tetelpan"},{"postalCode":"01790","state":"Ciudad de México","municipality":"Álvaro Obregón","setelement":"Lomas de San Ángel Inn"},{"postalCode":"01800","state":"Ciudad de México","municipality":"Álvaro Obregón","setelement":"San Bartolo Ameyalco"},{"postalCode":"01807","state":"Ciudad de México","municipality":"Álvaro Obregón","setelement":"Rancho San Francisco Pueblo San Bartolo Ameyalco"},{"postalCode":"01810","state":"Ciudad de México","municipality":"Álvaro Obregón","setelement":"Villa Verdún"},{"postalCode":"01820","state":"Ciudad de México","municipality":"Álvaro Obregón","setelement":"Lomas Axomiatla"},{"postalCode":"01820","state":"Ciudad de México","municipality":"Álvaro Obregón","setelement":"Ejido San Mateo"},{"postalCode":"01830","state":"Ciudad de México","municipality":"Álvaro Obregón","setelement":"Santa Rosa Xochiac"},{"postalCode":"01840","state":"Ciudad de México","municipality":"Álvaro Obregón","setelement":"Torres de Potrero"},{"postalCode":"01849","state":"Ciudad de México","municipality":"Álvaro Obregón","setelement":"Rincón de la Bolsa"},{"postalCode":"01849","state":"Ciudad de México","municipality":"Álvaro Obregón","setelement":"Rancho del Carmen del Pueblo San Bartolo Ameyalco"},{"postalCode":"01857","state":"Ciudad de México","municipality":"Álvaro Obregón","setelement":"Lomas de Chamontoya"},{"postalCode":"01859","state":"Ciudad de México","municipality":"Álvaro Obregón","setelement":"Tlacoyaque"},{"postalCode":"01860","state":"Ciudad de México","municipality":"Álvaro Obregón","setelement":"Lomas de La Era"},{"postalCode":"01863","state":"Ciudad de México","municipality":"Álvaro Obregón","setelement":"Lomas del Capulín"},{"postalCode":"01870","state":"Ciudad de México","municipality":"Álvaro Obregón","setelement":"Lomas de los Cedros"},{"postalCode":"01900","state":"Ciudad de México","municipality":"Álvaro Obregón","setelement":"Jardines del Pedregal"},{"postalCode":"01904","state":"Ciudad de México","municipality":"Álvaro Obregón","setelement":"San Jerónimo Aculco"},{"postalCode":"02000","state":"Ciudad de México","municipality":"Azcapotzalco","setelement":"Centro de Azcapotzalco"},{"postalCode":"02010","state":"Ciudad de México","municipality":"Azcapotzalco","setelement":"Los Reyes"},{"postalCode":"02010","state":"Ciudad de México","municipality":"Azcapotzalco","setelement":"San Rafael"},{"postalCode":"02010","state":"Ciudad de México","municipality":"Azcapotzalco","setelement":"Nuevo Barrio San Rafael"},{"postalCode":"02020","state":"Ciudad de México","municipality":"Azcapotzalco","setelement":"San Marcos"},{"postalCode":"02020","state":"Ciudad de México","municipality":"Azcapotzalco","setelement":"Santo Tomás"},{"postalCode":"02040","state":"Ciudad de México","municipality":"Azcapotzalco","setelement":"Del Maestro"},{"postalCode":"02040","state":"Ciudad de México","municipality":"Azcapotzalco","setelement":"San Sebastián"},{"postalCode":"02050","state":"Ciudad de México","municipality":"Azcapotzalco","setelement":"Libertad"},{"postalCode":"02050","state":"Ciudad de México","municipality":"Azcapotzalco","setelement":"Santa María Malinalco"},{"postalCode":"02060","state":"Ciudad de México","municipality":"Azcapotzalco","setelement":"Sindicato Mexicano de Electricistas"},{"postalCode":"02060","state":"Ciudad de México","municipality":"Azcapotzalco","setelement":"Un Hogar Para Cada Trabajador"},{"postalCode":"02070","state":"Ciudad de México","municipality":"Azcapotzalco","setelement":"Del Recreo"},{"postalCode":"02070","state":"Ciudad de México","municipality":"Azcapotzalco","setelement":"Nextengo"},{"postalCode":"02080","state":"Ciudad de México","municipality":"Azcapotzalco","setelement":"Clavería"},{"postalCode":"02080","state":"Ciudad de México","municipality":"Azcapotzalco","setelement":"Sector Naval"},{"postalCode":"02090","state":"Ciudad de México","municipality":"Azcapotzalco","setelement":"San Álvaro"},{"postalCode":"02099","state":"Ciudad de México","municipality":"Azcapotzalco","setelement":"Ángel Zimbrón"},{"postalCode":"02100","state":"Ciudad de México","municipality":"Azcapotzalco","setelement":"El Rosario"},{"postalCode":"02120","state":"Ciudad de México","municipality":"Azcapotzalco","setelement":"San Martín Xochinahuac"},{"postalCode":"02128","state":"Ciudad de México","municipality":"Azcapotzalco","setelement":"Nueva El Rosario"},{"postalCode":"02129","state":"Ciudad de México","municipality":"Azcapotzalco","setelement":"Nueva España"},{"postalCode":"02130","state":"Ciudad de México","municipality":"Azcapotzalco","setelement":"Tierra Nueva"},{"postalCode":"02140","state":"Ciudad de México","municipality":"Azcapotzalco","setelement":"Santa Inés"},{"postalCode":"02150","state":"Ciudad de México","municipality":"Azcapotzalco","setelement":"Pasteros"},{"postalCode":"02160","state":"Ciudad de México","municipality":"Azcapotzalco","setelement":"Santo Domingo"},{"postalCode":"02200","state":"Ciudad de México","municipality":"Azcapotzalco","setelement":"Reynosa Tamaulipas"},{"postalCode":"02230","state":"Ciudad de México","municipality":"Azcapotzalco","setelement":"Santa Bárbara"},{"postalCode":"02240","state":"Ciudad de México","municipality":"Azcapotzalco","setelement":"San Andrés"},{"postalCode":"02240","state":"Ciudad de México","municipality":"Azcapotzalco","setelement":"San Andrés"},{"postalCode":"02250","state":"Ciudad de México","municipality":"Azcapotzalco","setelement":"Santa Catarina"},{"postalCode":"02300","state":"Ciudad de México","municipality":"Azcapotzalco","setelement":"Industrial Vallejo"},{"postalCode":"02310","state":"Ciudad de México","municipality":"Azcapotzalco","setelement":"Ferrería"},{"postalCode":"02320","state":"Ciudad de México","municipality":"Azcapotzalco","setelement":"San Andrés de las Salinas"},{"postalCode":"02330","state":"Ciudad de México","municipality":"Azcapotzalco","setelement":"Huautla de las Salinas"},{"postalCode":"02340","state":"Ciudad de México","municipality":"Azcapotzalco","setelement":"Santa Cruz de las Salinas"},{"postalCode":"02360","state":"Ciudad de México","municipality":"Azcapotzalco","setelement":"Las Salinas"},{"postalCode":"02400","state":"Ciudad de México","municipality":"Azcapotzalco","setelement":"San Juan Tlihuaca"},{"postalCode":"02410","state":"Ciudad de México","municipality":"Azcapotzalco","setelement":"Prados del Rosario"},{"postalCode":"02420","state":"Ciudad de México","municipality":"Azcapotzalco","setelement":"Ex-Hacienda El Rosario"},{"postalCode":"02440","state":"Ciudad de México","municipality":"Azcapotzalco","setelement":"Providencia"},{"postalCode":"02459","state":"Ciudad de México","municipality":"Azcapotzalco","setelement":"Tezozomoc"},{"postalCode":"02460","state":"Ciudad de México","municipality":"Azcapotzalco","setelement":"La Preciosa"},{"postalCode":"02470","state":"Ciudad de México","municipality":"Azcapotzalco","setelement":"Ampliación Petrolera"},{"postalCode":"02480","state":"Ciudad de México","municipality":"Azcapotzalco","setelement":"Petrolera"},{"postalCode":"02490","state":"Ciudad de México","municipality":"Azcapotzalco","setelement":"San Mateo"},{"postalCode":"02500","state":"Ciudad de México","municipality":"Azcapotzalco","setelement":"Unidad Cuitláhuac"},{"postalCode":"02519","state":"Ciudad de México","municipality":"Azcapotzalco","setelement":"El Jagüey"},{"postalCode":"02520","state":"Ciudad de México","municipality":"Azcapotzalco","setelement":"Estación Pantaco"},{"postalCode":"02530","state":"Ciudad de México","municipality":"Azcapotzalco","setelement":"Jardín Azpeitia"},{"postalCode":"02600","state":"Ciudad de México","municipality":"Azcapotzalco","setelement":"Pro-Hogar"},{"postalCode":"02630","state":"Ciudad de México","municipality":"Azcapotzalco","setelement":"Coltongo"},{"postalCode":"02630","state":"Ciudad de México","municipality":"Azcapotzalco","setelement":"Coltongo"},{"postalCode":"02640","state":"Ciudad de México","municipality":"Azcapotzalco","setelement":"Monte Alto"},{"postalCode":"02650","state":"Ciudad de México","municipality":"Azcapotzalco","setelement":"Trabajadores de Hierro"},{"postalCode":"02660","state":"Ciudad de México","municipality":"Azcapotzalco","setelement":"Euzkadi"},{"postalCode":"02670","state":"Ciudad de México","municipality":"Azcapotzalco","setelement":"Cosmopolita"},{"postalCode":"02680","state":"Ciudad de México","municipality":"Azcapotzalco","setelement":"Potrero del Llano"},{"postalCode":"02700","state":"Ciudad de México","municipality":"Azcapotzalco","setelement":"San Miguel Amantla"},{"postalCode":"02710","state":"Ciudad de México","municipality":"Azcapotzalco","setelement":"San Pedro Xalpa"},{"postalCode":"02719","state":"Ciudad de México","municipality":"Azcapotzalco","setelement":"Ampliación San Pedro Xalpa"},{"postalCode":"02720","state":"Ciudad de México","municipality":"Azcapotzalco","setelement":"San Antonio"},{"postalCode":"02720","state":"Ciudad de México","municipality":"Azcapotzalco","setelement":"San Bartolo Cahualtongo"},{"postalCode":"02730","state":"Ciudad de México","municipality":"Azcapotzalco","setelement":"San Francisco Tetecala"},{"postalCode":"02750","state":"Ciudad de México","municipality":"Azcapotzalco","setelement":"Santiago Ahuizotla"},{"postalCode":"02760","state":"Ciudad de México","municipality":"Azcapotzalco","setelement":"Industrial San Antonio"},{"postalCode":"02760","state":"Ciudad de México","municipality":"Azcapotzalco","setelement":"Santa Lucía"},{"postalCode":"02770","state":"Ciudad de México","municipality":"Azcapotzalco","setelement":"Santa Cruz Acayucan"},{"postalCode":"02780","state":"Ciudad de México","municipality":"Azcapotzalco","setelement":"Plenitud"},{"postalCode":"02790","state":"Ciudad de México","municipality":"Azcapotzalco","setelement":"Santa Apolonia"},{"postalCode":"02800","state":"Ciudad de México","municipality":"Azcapotzalco","setelement":"Nueva Santa María"},{"postalCode":"02810","state":"Ciudad de México","municipality":"Azcapotzalco","setelement":"Ignacio Allende"},{"postalCode":"02810","state":"Ciudad de México","municipality":"Azcapotzalco","setelement":"Victoria de las Democracias"},{"postalCode":"02830","state":"Ciudad de México","municipality":"Azcapotzalco","setelement":"San Bernabé"},{"postalCode":"02840","state":"Ciudad de México","municipality":"Azcapotzalco","setelement":"Obrero Popular"},{"postalCode":"02860","state":"Ciudad de México","municipality":"Azcapotzalco","setelement":"Tlatilco"},{"postalCode":"02870","state":"Ciudad de México","municipality":"Azcapotzalco","setelement":"San Salvador Xochimanca"},{"postalCode":"02900","state":"Ciudad de México","municipality":"Azcapotzalco","setelement":"Aguilera"},{"postalCode":"02910","state":"Ciudad de México","municipality":"Azcapotzalco","setelement":"Aldana"},{"postalCode":"02920","state":"Ciudad de México","municipality":"Azcapotzalco","setelement":"Ampliación Cosmopolita"},{"postalCode":"02930","state":"Ciudad de México","municipality":"Azcapotzalco","setelement":"Liberación"},{"postalCode":"02940","state":"Ciudad de México","municipality":"Azcapotzalco","setelement":"Porvenir"},{"postalCode":"02950","state":"Ciudad de México","municipality":"Azcapotzalco","setelement":"Del Gas"},{"postalCode":"02960","state":"Ciudad de México","municipality":"Azcapotzalco","setelement":"San Francisco Xocotitla"},{"postalCode":"02970","state":"Ciudad de México","municipality":"Azcapotzalco","setelement":"Ampliación Del Gas"},{"postalCode":"02980","state":"Ciudad de México","municipality":"Azcapotzalco","setelement":"Arenal"},{"postalCode":"02980","state":"Ciudad de México","municipality":"Azcapotzalco","setelement":"Patrimonio Familiar"},{"postalCode":"02990","state":"Ciudad de México","municipality":"Azcapotzalco","setelement":"La Raza"},{"postalCode":"03000","state":"Ciudad de México","municipality":"Benito Juárez","setelement":"Piedad Narvarte"},{"postalCode":"03010","state":"Ciudad de México","municipality":"Benito Juárez","setelement":"Atenor Salas"},{"postalCode":"03020","state":"Ciudad de México","municipality":"Benito Juárez","setelement":"Narvarte Poniente"},{"postalCode":"03023","state":"Ciudad de México","municipality":"Benito Juárez","setelement":"Narvarte Oriente"},{"postalCode":"03100","state":"Ciudad de México","municipality":"Benito Juárez","setelement":"Del Valle Centro"},{"postalCode":"03100","state":"Ciudad de México","municipality":"Benito Juárez","setelement":"Insurgentes San Borja"},{"postalCode":"03103","state":"Ciudad de México","municipality":"Benito Juárez","setelement":"Del Valle Norte"},{"postalCode":"03104","state":"Ciudad de México","municipality":"Benito Juárez","setelement":"Del Valle Sur"},{"postalCode":"03200","state":"Ciudad de México","municipality":"Benito Juárez","setelement":"Tlacoquemécatl"},{"postalCode":"03230","state":"Ciudad de México","municipality":"Benito Juárez","setelement":"Actipan"},{"postalCode":"03240","state":"Ciudad de México","municipality":"Benito Juárez","setelement":"Acacias"},{"postalCode":"03300","state":"Ciudad de México","municipality":"Benito Juárez","setelement":"Portales Sur"},{"postalCode":"03303","state":"Ciudad de México","municipality":"Benito Juárez","setelement":"Portales Norte"},{"postalCode":"03310","state":"Ciudad de México","municipality":"Benito Juárez","setelement":"Santa Cruz Atoyac"},{"postalCode":"03320","state":"Ciudad de México","municipality":"Benito Juárez","setelement":"Residencial Emperadores"},{"postalCode":"03330","state":"Ciudad de México","municipality":"Benito Juárez","setelement":"Xoco"},{"postalCode":"03340","state":"Ciudad de México","municipality":"Benito Juárez","setelement":"General Pedro María Anaya"},{"postalCode":"03400","state":"Ciudad de México","municipality":"Benito Juárez","setelement":"Álamos"},{"postalCode":"03410","state":"Ciudad de México","municipality":"Benito Juárez","setelement":"Postal"},{"postalCode":"03420","state":"Ciudad de México","municipality":"Benito Juárez","setelement":"Miguel Alemán"},{"postalCode":"03430","state":"Ciudad de México","municipality":"Benito Juárez","setelement":"Josefa Ortiz de Domínguez"},{"postalCode":"03440","state":"Ciudad de México","municipality":"Benito Juárez","setelement":"Niños Héroes"},{"postalCode":"03500","state":"Ciudad de México","municipality":"Benito Juárez","setelement":"Nativitas"},{"postalCode":"03510","state":"Ciudad de México","municipality":"Benito Juárez","setelement":"Moderna"},{"postalCode":"03520","state":"Ciudad de México","municipality":"Benito Juárez","setelement":"Iztaccihuatl"},{"postalCode":"03530","state":"Ciudad de México","municipality":"Benito Juárez","setelement":"Villa de Cortes"},{"postalCode":"03540","state":"Ciudad de México","municipality":"Benito Juárez","setelement":"Del Carmen"},{"postalCode":"03550","state":"Ciudad de México","municipality":"Benito Juárez","setelement":"Zacahuitzco"},{"postalCode":"03560","state":"Ciudad de México","municipality":"Benito Juárez","setelement":"Albert"},{"postalCode":"03570","state":"Ciudad de México","municipality":"Benito Juárez","setelement":"Portales Oriente"},{"postalCode":"03580","state":"Ciudad de México","municipality":"Benito Juárez","setelement":"Miravalle"},{"postalCode":"03590","state":"Ciudad de México","municipality":"Benito Juárez","setelement":"Ermita"},{"postalCode":"03600","state":"Ciudad de México","municipality":"Benito Juárez","setelement":"Vértiz Narvarte"},{"postalCode":"03610","state":"Ciudad de México","municipality":"Benito Juárez","setelement":"Américas Unidas"},{"postalCode":"03620","state":"Ciudad de México","municipality":"Benito Juárez","setelement":"Periodista"},{"postalCode":"03630","state":"Ciudad de México","municipality":"Benito Juárez","setelement":"Independencia"},{"postalCode":"03640","state":"Ciudad de México","municipality":"Benito Juárez","setelement":"Del Lago"},{"postalCode":"03650","state":"Ciudad de México","municipality":"Benito Juárez","setelement":"Letrán Valle"},{"postalCode":"03660","state":"Ciudad de México","municipality":"Benito Juárez","setelement":"San Simón Ticumac"},{"postalCode":"03700","state":"Ciudad de México","municipality":"Benito Juárez","setelement":"Santa María Nonoalco"},{"postalCode":"03710","state":"Ciudad de México","municipality":"Benito Juárez","setelement":"Ciudad de los Deportes"},{"postalCode":"03720","state":"Ciudad de México","municipality":"Benito Juárez","setelement":"Nochebuena"},{"postalCode":"03730","state":"Ciudad de México","municipality":"Benito Juárez","setelement":"San Juan"},{"postalCode":"03740","state":"Ciudad de México","municipality":"Benito Juárez","setelement":"Extremadura Insurgentes"},{"postalCode":"03800","state":"Ciudad de México","municipality":"Benito Juárez","setelement":"San Pedro de los Pinos"},{"postalCode":"03810","state":"Ciudad de México","municipality":"Benito Juárez","setelement":"Nápoles"},{"postalCode":"03820","state":"Ciudad de México","municipality":"Benito Juárez","setelement":"8 de Agosto"},{"postalCode":"03840","state":"Ciudad de México","municipality":"Benito Juárez","setelement":"Ampliación Nápoles"},{"postalCode":"03900","state":"Ciudad de México","municipality":"Benito Juárez","setelement":"San José Insurgentes"},{"postalCode":"03910","state":"Ciudad de México","municipality":"Benito Juárez","setelement":"Mixcoac"},{"postalCode":"03920","state":"Ciudad de México","municipality":"Benito Juárez","setelement":"Insurgentes Mixcoac"},{"postalCode":"03930","state":"Ciudad de México","municipality":"Benito Juárez","setelement":"Merced Gómez"},{"postalCode":"03940","state":"Ciudad de México","municipality":"Benito Juárez","setelement":"Crédito Constructor"},{"postalCode":"04000","state":"Ciudad de México","municipality":"Coyoacán","setelement":"Villa Coyoacán"},{"postalCode":"04010","state":"Ciudad de México","municipality":"Coyoacán","setelement":"Santa Catarina"},{"postalCode":"04020","state":"Ciudad de México","municipality":"Coyoacán","setelement":"La Concepción"},{"postalCode":"04030","state":"Ciudad de México","municipality":"Coyoacán","setelement":"San Lucas"},{"postalCode":"04040","state":"Ciudad de México","municipality":"Coyoacán","setelement":"Parque San Andrés"},{"postalCode":"04100","state":"Ciudad de México","municipality":"Coyoacán","setelement":"Del Carmen"},{"postalCode":"04120","state":"Ciudad de México","municipality":"Coyoacán","setelement":"San Diego Churubusco"},{"postalCode":"04120","state":"Ciudad de México","municipality":"Coyoacán","setelement":"San Mateo"},{"postalCode":"04200","state":"Ciudad de México","municipality":"Coyoacán","setelement":"Campestre Churubusco"},{"postalCode":"04210","state":"Ciudad de México","municipality":"Coyoacán","setelement":"Churubusco Country Club"},{"postalCode":"04230","state":"Ciudad de México","municipality":"Coyoacán","setelement":"Prado Churubusco"},{"postalCode":"04240","state":"Ciudad de México","municipality":"Coyoacán","setelement":"Hermosillo"},{"postalCode":"04250","state":"Ciudad de México","municipality":"Coyoacán","setelement":"Paseos de Taxqueña"},{"postalCode":"04260","state":"Ciudad de México","municipality":"Coyoacán","setelement":"San Francisco Culhuacán Barrio de San Francisco"},{"postalCode":"04260","state":"Ciudad de México","municipality":"Coyoacán","setelement":"San Francisco Culhuacán Barrio de La Magdalena"},{"postalCode":"04260","state":"Ciudad de México","municipality":"Coyoacán","setelement":"San Francisco Culhuacán Barrio de Santa Ana"},{"postalCode":"04260","state":"Ciudad de México","municipality":"Coyoacán","setelement":"San Francisco Culhuacán Barrio de San Juan"},{"postalCode":"04300","state":"Ciudad de México","municipality":"Coyoacán","setelement":"Ajusco"},{"postalCode":"04310","state":"Ciudad de México","municipality":"Coyoacán","setelement":"Romero de Terreros"},{"postalCode":"04318","state":"Ciudad de México","municipality":"Coyoacán","setelement":"Oxtopulco Universidad"},{"postalCode":"04320","state":"Ciudad de México","municipality":"Coyoacán","setelement":"Cuadrante de San Francisco"},{"postalCode":"04320","state":"Ciudad de México","municipality":"Coyoacán","setelement":"Pedregal de San Francisco"},{"postalCode":"04330","state":"Ciudad de México","municipality":"Coyoacán","setelement":"El Rosedal"},{"postalCode":"04330","state":"Ciudad de México","municipality":"Coyoacán","setelement":"Los Reyes"},{"postalCode":"04330","state":"Ciudad de México","municipality":"Coyoacán","setelement":"Del Niño Jesús"},{"postalCode":"04340","state":"Ciudad de México","municipality":"Coyoacán","setelement":"Copilco El Bajo"},{"postalCode":"04360","state":"Ciudad de México","municipality":"Coyoacán","setelement":"Copilco El Alto"},{"postalCode":"04360","state":"Ciudad de México","municipality":"Coyoacán","setelement":"Copilco Universidad"},{"postalCode":"04369","state":"Ciudad de México","municipality":"Coyoacán","setelement":"Pedregal de Santo Domingo"},{"postalCode":"04370","state":"Ciudad de México","municipality":"Coyoacán","setelement":"Atlántida"},{"postalCode":"04370","state":"Ciudad de México","municipality":"Coyoacán","setelement":"Ciudad Jardín"},{"postalCode":"04380","state":"Ciudad de México","municipality":"Coyoacán","setelement":"El Rosario"},{"postalCode":"04380","state":"Ciudad de México","municipality":"Coyoacán","setelement":"La Candelaria"},{"postalCode":"04390","state":"Ciudad de México","municipality":"Coyoacán","setelement":"Huayamilpas"},{"postalCode":"04390","state":"Ciudad de México","municipality":"Coyoacán","setelement":"Nueva Díaz Ordaz"},{"postalCode":"04400","state":"Ciudad de México","municipality":"Coyoacán","setelement":"Educación"},{"postalCode":"04410","state":"Ciudad de México","municipality":"Coyoacán","setelement":"Petrolera Taxqueña"},{"postalCode":"04420","state":"Ciudad de México","municipality":"Coyoacán","setelement":"Ex-Ejido de San Francisco Culhuacán"},{"postalCode":"04440","state":"Ciudad de México","municipality":"Coyoacán","setelement":"Culhuacán CTM Sección V"},{"postalCode":"04440","state":"Ciudad de México","municipality":"Coyoacán","setelement":"Culhuacán CTM Sección II"},{"postalCode":"04440","state":"Ciudad de México","municipality":"Coyoacán","setelement":"Culhuacán CTM Sección I"},{"postalCode":"04450","state":"Ciudad de México","municipality":"Coyoacán","setelement":"El Centinela"},{"postalCode":"04460","state":"Ciudad de México","municipality":"Coyoacán","setelement":"Avante"},{"postalCode":"04470","state":"Ciudad de México","municipality":"Coyoacán","setelement":"Presidentes Ejidales 1a Sección"},{"postalCode":"04470","state":"Ciudad de México","municipality":"Coyoacán","setelement":"Presidentes Ejidales 2a Sección"},{"postalCode":"04480","state":"Ciudad de México","municipality":"Coyoacán","setelement":"Culhuacán CTM Sección VI"},{"postalCode":"04480","state":"Ciudad de México","municipality":"Coyoacán","setelement":"Culhuacán CTM Sección III"},{"postalCode":"04480","state":"Ciudad de México","municipality":"Coyoacán","setelement":"Culhuacán CTM CROC"},{"postalCode":"04480","state":"Ciudad de México","municipality":"Coyoacán","setelement":"Culhuacán CTM Sección X-A"},{"postalCode":"04489","state":"Ciudad de México","municipality":"Coyoacán","setelement":"Culhuacán CTM Sección VII"},{"postalCode":"04490","state":"Ciudad de México","municipality":"Coyoacán","setelement":"Culhuacán CTM Sección Piloto"},{"postalCode":"04490","state":"Ciudad de México","municipality":"Coyoacán","setelement":"Culhuacán CTM Canal Nacional"},{"postalCode":"04500","state":"Ciudad de México","municipality":"Coyoacán","setelement":"Jardines del Pedregal de San Ángel"},{"postalCode":"04510","state":"Ciudad de México","municipality":"Coyoacán","setelement":"Universidad Nacional Autónoma de México"},{"postalCode":"04519","state":"Ciudad de México","municipality":"Coyoacán","setelement":"La Otra Banda"},{"postalCode":"04530","state":"Ciudad de México","municipality":"Coyoacán","setelement":"Insurgentes Cuicuilco"},{"postalCode":"04600","state":"Ciudad de México","municipality":"Coyoacán","setelement":"Pedregal de Santa Úrsula"},{"postalCode":"04610","state":"Ciudad de México","municipality":"Coyoacán","setelement":"Xotepingo"},{"postalCode":"04620","state":"Ciudad de México","municipality":"Coyoacán","setelement":"San Pablo Tepetlapa"},{"postalCode":"04630","state":"Ciudad de México","municipality":"Coyoacán","setelement":"Adolfo Ruiz Cortínes"},{"postalCode":"04640","state":"Ciudad de México","municipality":"Coyoacán","setelement":"El Reloj"},{"postalCode":"04650","state":"Ciudad de México","municipality":"Coyoacán","setelement":"Santa Úrsula Coapa"},{"postalCode":"04660","state":"Ciudad de México","municipality":"Coyoacán","setelement":"Joyas del Pedregal"},{"postalCode":"04700","state":"Ciudad de México","municipality":"Coyoacán","setelement":"Pedregal de Carrasco"},{"postalCode":"04710","state":"Ciudad de México","municipality":"Coyoacán","setelement":"Olímpica"},{"postalCode":"04730","state":"Ciudad de México","municipality":"Coyoacán","setelement":"Cantil del Pedregal"},{"postalCode":"04730","state":"Ciudad de México","municipality":"Coyoacán","setelement":"Bosques de Tetlameya"},{"postalCode":"04739","state":"Ciudad de México","municipality":"Coyoacán","setelement":"El Caracol"},{"postalCode":"04800","state":"Ciudad de México","municipality":"Coyoacán","setelement":"Alianza Popular Revolucionaria"},{"postalCode":"04800","state":"Ciudad de México","municipality":"Coyoacán","setelement":"Los Cedros"},{"postalCode":"04810","state":"Ciudad de México","municipality":"Coyoacán","setelement":"Prados de Coyoacán"},{"postalCode":"04815","state":"Ciudad de México","municipality":"Coyoacán","setelement":"Emiliano Zapata"},{"postalCode":"04830","state":"Ciudad de México","municipality":"Coyoacán","setelement":"Los Cipreses"},{"postalCode":"04840","state":"Ciudad de México","municipality":"Coyoacán","setelement":"Ex-Ejido de San Pablo Tepetlapa"},{"postalCode":"04870","state":"Ciudad de México","municipality":"Coyoacán","setelement":"Espartaco"},{"postalCode":"04890","state":"Ciudad de México","municipality":"Coyoacán","setelement":"Jardines de Coyoacán"},{"postalCode":"04890","state":"Ciudad de México","municipality":"Coyoacán","setelement":"Los Olivos"},{"postalCode":"04899","state":"Ciudad de México","municipality":"Coyoacán","setelement":"El Parque de Coyoacán"},{"postalCode":"04909","state":"Ciudad de México","municipality":"Coyoacán","setelement":"Culhuacán CTM Sección VIII"},{"postalCode":"04909","state":"Ciudad de México","municipality":"Coyoacán","setelement":"Culhuacán CTM Sección IX-A"},{"postalCode":"04909","state":"Ciudad de México","municipality":"Coyoacán","setelement":"Culhuacán CTM Sección IX-B"},{"postalCode":"04910","state":"Ciudad de México","municipality":"Coyoacán","setelement":"Carmen Serdán"},{"postalCode":"04918","state":"Ciudad de México","municipality":"Coyoacán","setelement":"Cafetales"},{"postalCode":"04919","state":"Ciudad de México","municipality":"Coyoacán","setelement":"Emiliano Zapata Fraccionamiento Popular"},{"postalCode":"04920","state":"Ciudad de México","municipality":"Coyoacán","setelement":"Los Girasoles"},{"postalCode":"04929","state":"Ciudad de México","municipality":"Coyoacán","setelement":"Las Campanas"},{"postalCode":"04930","state":"Ciudad de México","municipality":"Coyoacán","setelement":"Santa Cecilia"},{"postalCode":"04938","state":"Ciudad de México","municipality":"Coyoacán","setelement":"Campestre Coyoacán"},{"postalCode":"04939","state":"Ciudad de México","municipality":"Coyoacán","setelement":"Culhuacán CTM Sección X"},{"postalCode":"04940","state":"Ciudad de México","municipality":"Coyoacán","setelement":"Los Sauces"},{"postalCode":"04950","state":"Ciudad de México","municipality":"Coyoacán","setelement":"El Mirador"},{"postalCode":"04960","state":"Ciudad de México","municipality":"Coyoacán","setelement":"Villa Quietud"},{"postalCode":"04970","state":"Ciudad de México","municipality":"Coyoacán","setelement":"Haciendas de Coyoacán"},{"postalCode":"04980","state":"Ciudad de México","municipality":"Coyoacán","setelement":"Ex-Ejido de Santa Úrsula Coapa"},{"postalCode":"04980","state":"Ciudad de México","municipality":"Coyoacán","setelement":"Ex-Hacienda Coapa"},{"postalCode":"04980","state":"Ciudad de México","municipality":"Coyoacán","setelement":"Viejo Ejido de Santa Úrsula Coapa"},{"postalCode":"05000","state":"Ciudad de México","municipality":"Cuajimalpa de Morelos","setelement":"Cuajimalpa"},{"postalCode":"05010","state":"Ciudad de México","municipality":"Cuajimalpa de Morelos","setelement":"Zentlapatl"},{"postalCode":"05020","state":"Ciudad de México","municipality":"Cuajimalpa de Morelos","setelement":"Loma del Padre"},{"postalCode":"05030","state":"Ciudad de México","municipality":"Cuajimalpa de Morelos","setelement":"San Pedro"},{"postalCode":"05030","state":"Ciudad de México","municipality":"Cuajimalpa de Morelos","setelement":"La Manzanita"},{"postalCode":"05050","state":"Ciudad de México","municipality":"Cuajimalpa de Morelos","setelement":"San Pablo Chimalpa"},{"postalCode":"05100","state":"Ciudad de México","municipality":"Cuajimalpa de Morelos","setelement":"Lomas de Vista Hermosa"},{"postalCode":"05110","state":"Ciudad de México","municipality":"Cuajimalpa de Morelos","setelement":"Cooperativa Palo Alto"},{"postalCode":"05118","state":"Ciudad de México","municipality":"Cuajimalpa de Morelos","setelement":"Granjas Palo Alto"},{"postalCode":"05119","state":"Ciudad de México","municipality":"Cuajimalpa de Morelos","setelement":"Campestre Palo Alto"},{"postalCode":"05120","state":"Ciudad de México","municipality":"Cuajimalpa de Morelos","setelement":"Bosques de las Lomas"},{"postalCode":"05129","state":"Ciudad de México","municipality":"Cuajimalpa de Morelos","setelement":"Lomas del Chamizal"},{"postalCode":"05200","state":"Ciudad de México","municipality":"Cuajimalpa de Morelos","setelement":"San José de los Cedros"},{"postalCode":"05219","state":"Ciudad de México","municipality":"Cuajimalpa de Morelos","setelement":"Granjas Navidad"},{"postalCode":"05220","state":"Ciudad de México","municipality":"Cuajimalpa de Morelos","setelement":"Tepetongo"},{"postalCode":"05230","state":"Ciudad de México","municipality":"Cuajimalpa de Morelos","setelement":"El Ébano"},{"postalCode":"05240","state":"Ciudad de México","municipality":"Cuajimalpa de Morelos","setelement":"El Molino"},{"postalCode":"05260","state":"Ciudad de México","municipality":"Cuajimalpa de Morelos","setelement":"Jesús del Monte"},{"postalCode":"05269","state":"Ciudad de México","municipality":"Cuajimalpa de Morelos","setelement":"Amado Nervo"},{"postalCode":"05270","state":"Ciudad de México","municipality":"Cuajimalpa de Morelos","setelement":"Manzanastitla"},{"postalCode":"05280","state":"Ciudad de México","municipality":"Cuajimalpa de Morelos","setelement":"Adolfo López Mateos"},{"postalCode":"05310","state":"Ciudad de México","municipality":"Cuajimalpa de Morelos","setelement":"El Molinito"},{"postalCode":"05320","state":"Ciudad de México","municipality":"Cuajimalpa de Morelos","setelement":"El Yaqui"},{"postalCode":"05330","state":"Ciudad de México","municipality":"Cuajimalpa de Morelos","setelement":"Lomas de Memetla"},{"postalCode":"05330","state":"Ciudad de México","municipality":"Cuajimalpa de Morelos","setelement":"Memetla"},{"postalCode":"05330","state":"Ciudad de México","municipality":"Cuajimalpa de Morelos","setelement":"Ampliación Memetla"},{"postalCode":"05330","state":"Ciudad de México","municipality":"Cuajimalpa de Morelos","setelement":"Ampliación el Yaqui"},{"postalCode":"05348","state":"Ciudad de México","municipality":"Cuajimalpa de Morelos","setelement":"Santa Fe Cuajimalpa"},{"postalCode":"05360","state":"Ciudad de México","municipality":"Cuajimalpa de Morelos","setelement":"Locaxco"},{"postalCode":"05370","state":"Ciudad de México","municipality":"Cuajimalpa de Morelos","setelement":"Las Tinajas"},{"postalCode":"05379","state":"Ciudad de México","municipality":"Cuajimalpa de Morelos","setelement":"Lomas de San Pedro"},{"postalCode":"05400","state":"Ciudad de México","municipality":"Cuajimalpa de Morelos","setelement":"El Tianguillo"},{"postalCode":"05410","state":"Ciudad de México","municipality":"Cuajimalpa de Morelos","setelement":"San Lorenzo Acopilco"},{"postalCode":"05410","state":"Ciudad de México","municipality":"Cuajimalpa de Morelos","setelement":"1° de Mayo"},{"postalCode":"05500","state":"Ciudad de México","municipality":"Cuajimalpa de Morelos","setelement":"Contadero"},{"postalCode":"05520","state":"Ciudad de México","municipality":"Cuajimalpa de Morelos","setelement":"La Venta"},{"postalCode":"05530","state":"Ciudad de México","municipality":"Cuajimalpa de Morelos","setelement":"Abdías García Soto"},{"postalCode":"05600","state":"Ciudad de México","municipality":"Cuajimalpa de Morelos","setelement":"San Mateo Tlaltenango"},{"postalCode":"05610","state":"Ciudad de México","municipality":"Cuajimalpa de Morelos","setelement":"Santa Rosa Xochiac"},{"postalCode":"05700","state":"Ciudad de México","municipality":"Cuajimalpa de Morelos","setelement":"Cruz Blanca"},{"postalCode":"05710","state":"Ciudad de México","municipality":"Cuajimalpa de Morelos","setelement":"Las Maromas"},{"postalCode":"05730","state":"Ciudad de México","municipality":"Cuajimalpa de Morelos","setelement":"Xalpa"},{"postalCode":"05750","state":"Ciudad de México","municipality":"Cuajimalpa de Morelos","setelement":"La Pila"},{"postalCode":"05760","state":"Ciudad de México","municipality":"Cuajimalpa de Morelos","setelement":"Las Lajas"},{"postalCode":"05780","state":"Ciudad de México","municipality":"Cuajimalpa de Morelos","setelement":"Agua Bendita"},{"postalCode":"06000","state":"Ciudad de México","municipality":"Cuauhtémoc","setelement":"Centro (Área 1)"},{"postalCode":"06010","state":"Ciudad de México","municipality":"Cuauhtémoc","setelement":"Centro (Área 2)"},{"postalCode":"06020","state":"Ciudad de México","municipality":"Cuauhtémoc","setelement":"Centro (Área 3)"},{"postalCode":"06030","state":"Ciudad de México","municipality":"Cuauhtémoc","setelement":"Tabacalera"},{"postalCode":"06040","state":"Ciudad de México","municipality":"Cuauhtémoc","setelement":"Centro (Área 4)"},{"postalCode":"06050","state":"Ciudad de México","municipality":"Cuauhtémoc","setelement":"Centro (Área 5)"},{"postalCode":"06060","state":"Ciudad de México","municipality":"Cuauhtémoc","setelement":"Centro (Área 6)"},{"postalCode":"06070","state":"Ciudad de México","municipality":"Cuauhtémoc","setelement":"Centro (Área 7)"},{"postalCode":"06080","state":"Ciudad de México","municipality":"Cuauhtémoc","setelement":"Centro (Área 8)"},{"postalCode":"06090","state":"Ciudad de México","municipality":"Cuauhtémoc","setelement":"Centro (Área 9)"},{"postalCode":"06100","state":"Ciudad de México","municipality":"Cuauhtémoc","setelement":"Hipódromo"},{"postalCode":"06140","state":"Ciudad de México","municipality":"Cuauhtémoc","setelement":"Condesa"},{"postalCode":"06170","state":"Ciudad de México","municipality":"Cuauhtémoc","setelement":"Hipódromo Condesa"},{"postalCode":"06200","state":"Ciudad de México","municipality":"Cuauhtémoc","setelement":"Morelos"},{"postalCode":"06220","state":"Ciudad de México","municipality":"Cuauhtémoc","setelement":"Peralvillo"},{"postalCode":"06240","state":"Ciudad de México","municipality":"Cuauhtémoc","setelement":"Valle Gómez"},{"postalCode":"06250","state":"Ciudad de México","municipality":"Cuauhtémoc","setelement":"Ex-Hipódromo de Peralvillo"},{"postalCode":"06270","state":"Ciudad de México","municipality":"Cuauhtémoc","setelement":"Maza"},{"postalCode":"06280","state":"Ciudad de México","municipality":"Cuauhtémoc","setelement":"Felipe Pescador"},{"postalCode":"06300","state":"Ciudad de México","municipality":"Cuauhtémoc","setelement":"Guerrero"},{"postalCode":"06350","state":"Ciudad de México","municipality":"Cuauhtémoc","setelement":"Buenavista"},{"postalCode":"06400","state":"Ciudad de México","municipality":"Cuauhtémoc","setelement":"Santa María la Ribera"},{"postalCode":"06430","state":"Ciudad de México","municipality":"Cuauhtémoc","setelement":"Santa María Insurgentes"},{"postalCode":"06450","state":"Ciudad de México","municipality":"Cuauhtémoc","setelement":"Atlampa"},{"postalCode":"06470","state":"Ciudad de México","municipality":"Cuauhtémoc","setelement":"San Rafael"},{"postalCode":"06500","state":"Ciudad de México","municipality":"Cuauhtémoc","setelement":"Cuauhtémoc"},{"postalCode":"06600","state":"Ciudad de México","municipality":"Cuauhtémoc","setelement":"Juárez"},{"postalCode":"06700","state":"Ciudad de México","municipality":"Cuauhtémoc","setelement":"Roma Norte"},{"postalCode":"06720","state":"Ciudad de México","municipality":"Cuauhtémoc","setelement":"Doctores"},{"postalCode":"06760","state":"Ciudad de México","municipality":"Cuauhtémoc","setelement":"Roma Sur"},{"postalCode":"06780","state":"Ciudad de México","municipality":"Cuauhtémoc","setelement":"Buenos Aires"},{"postalCode":"06800","state":"Ciudad de México","municipality":"Cuauhtémoc","setelement":"Obrera"},{"postalCode":"06820","state":"Ciudad de México","municipality":"Cuauhtémoc","setelement":"Tránsito"},{"postalCode":"06840","state":"Ciudad de México","municipality":"Cuauhtémoc","setelement":"Esperanza"},{"postalCode":"06850","state":"Ciudad de México","municipality":"Cuauhtémoc","setelement":"Asturias"},{"postalCode":"06860","state":"Ciudad de México","municipality":"Cuauhtémoc","setelement":"Vista Alegre"},{"postalCode":"06870","state":"Ciudad de México","municipality":"Cuauhtémoc","setelement":"Paulino Navarro"},{"postalCode":"06880","state":"Ciudad de México","municipality":"Cuauhtémoc","setelement":"Algarin"},{"postalCode":"06890","state":"Ciudad de México","municipality":"Cuauhtémoc","setelement":"Ampliación Asturias"},{"postalCode":"06900","state":"Ciudad de México","municipality":"Cuauhtémoc","setelement":"Nonoalco Tlatelolco"},{"postalCode":"06920","state":"Ciudad de México","municipality":"Cuauhtémoc","setelement":"San Simón Tolnáhuac"},{"postalCode":"07000","state":"Ciudad de México","municipality":"Gustavo A. Madero","setelement":"Aragón la Villa"},{"postalCode":"07010","state":"Ciudad de México","municipality":"Gustavo A. Madero","setelement":"Rosas del Tepeyac"},{"postalCode":"07010","state":"Ciudad de México","municipality":"Gustavo A. Madero","setelement":"Santa Isabel Tola"},{"postalCode":"07010","state":"Ciudad de México","municipality":"Gustavo A. Madero","setelement":"Tepetates"},{"postalCode":"07020","state":"Ciudad de México","municipality":"Gustavo A. Madero","setelement":"Tepeyac Insurgentes"},{"postalCode":"07040","state":"Ciudad de México","municipality":"Gustavo A. Madero","setelement":"Santiago Atzacoalco"},{"postalCode":"07050","state":"Ciudad de México","municipality":"Gustavo A. Madero","setelement":"Villa Gustavo A. Madero"},{"postalCode":"07058","state":"Ciudad de México","municipality":"Gustavo A. Madero","setelement":"15 de Agosto"},{"postalCode":"07060","state":"Ciudad de México","municipality":"Gustavo A. Madero","setelement":"Estanzuela"},{"postalCode":"07069","state":"Ciudad de México","municipality":"Gustavo A. Madero","setelement":"Triunfo de La República"},{"postalCode":"07070","state":"Ciudad de México","municipality":"Gustavo A. Madero","setelement":"La Cruz"},{"postalCode":"07070","state":"Ciudad de México","municipality":"Gustavo A. Madero","setelement":"Dinamita"},{"postalCode":"07070","state":"Ciudad de México","municipality":"Gustavo A. Madero","setelement":"Martín Carrera"},{"postalCode":"07080","state":"Ciudad de México","municipality":"Gustavo A. Madero","setelement":"Gabriel Hernández"},{"postalCode":"07089","state":"Ciudad de México","municipality":"Gustavo A. Madero","setelement":"Ampliación Gabriel Hernández"},{"postalCode":"07090","state":"Ciudad de México","municipality":"Gustavo A. Madero","setelement":"C.T.M. Atzacoalco"},{"postalCode":"07090","state":"Ciudad de México","municipality":"Gustavo A. Madero","setelement":"C.T.M. El Risco"},{"postalCode":"07100","state":"Ciudad de México","municipality":"Gustavo A. Madero","setelement":"Cuautepec Barrio Alto"},{"postalCode":"07100","state":"Ciudad de México","municipality":"Gustavo A. Madero","setelement":"San Miguel"},{"postalCode":"07109","state":"Ciudad de México","municipality":"Gustavo A. Madero","setelement":"San Antonio"},{"postalCode":"07110","state":"Ciudad de México","municipality":"Gustavo A. Madero","setelement":"Lomas de Cuautepec"},{"postalCode":"07119","state":"Ciudad de México","municipality":"Gustavo A. Madero","setelement":"Malacates"},{"postalCode":"07119","state":"Ciudad de México","municipality":"Gustavo A. Madero","setelement":"Ampliación Malacates"},{"postalCode":"07130","state":"Ciudad de México","municipality":"Gustavo A. Madero","setelement":"Compositores Mexicanos"},{"postalCode":"07130","state":"Ciudad de México","municipality":"Gustavo A. Madero","setelement":"El Tepetatal"},{"postalCode":"07140","state":"Ciudad de México","municipality":"Gustavo A. Madero","setelement":"Arboledas"},{"postalCode":"07140","state":"Ciudad de México","municipality":"Gustavo A. Madero","setelement":"Ampliación Arboledas"},{"postalCode":"07140","state":"Ciudad de México","municipality":"Gustavo A. Madero","setelement":"Forestal"},{"postalCode":"07140","state":"Ciudad de México","municipality":"Gustavo A. Madero","setelement":"Forestal I"},{"postalCode":"07144","state":"Ciudad de México","municipality":"Gustavo A. Madero","setelement":"Forestal II"},{"postalCode":"07144","state":"Ciudad de México","municipality":"Gustavo A. Madero","setelement":"La Lengüeta"},{"postalCode":"07149","state":"Ciudad de México","municipality":"Gustavo A. Madero","setelement":"Parque Metropolitano"},{"postalCode":"07150","state":"Ciudad de México","municipality":"Gustavo A. Madero","setelement":"Juventino Rosas"},{"postalCode":"07150","state":"Ciudad de México","municipality":"Gustavo A. Madero","setelement":"La Casilda"},{"postalCode":"07160","state":"Ciudad de México","municipality":"Gustavo A. Madero","setelement":"Loma La Palma"},{"postalCode":"07164","state":"Ciudad de México","municipality":"Gustavo A. Madero","setelement":"Luis Donaldo Colosio"},{"postalCode":"07164","state":"Ciudad de México","municipality":"Gustavo A. Madero","setelement":"Tlacaélel"},{"postalCode":"07164","state":"Ciudad de México","municipality":"Gustavo A. Madero","setelement":"Graciano Sánchez"},{"postalCode":"07164","state":"Ciudad de México","municipality":"Gustavo A. Madero","setelement":"Prados de Cuautepec"},{"postalCode":"07170","state":"Ciudad de México","municipality":"Gustavo A. Madero","setelement":"Palmatitla"},{"postalCode":"07180","state":"Ciudad de México","municipality":"Gustavo A. Madero","setelement":"Cocoyotes"},{"postalCode":"07180","state":"Ciudad de México","municipality":"Gustavo A. Madero","setelement":"General Felipe Berriozabal"},{"postalCode":"07180","state":"Ciudad de México","municipality":"Gustavo A. Madero","setelement":"Ampliación Cocoyotes"},{"postalCode":"07183","state":"Ciudad de México","municipality":"Gustavo A. Madero","setelement":"6 de Junio"},{"postalCode":"07187","state":"Ciudad de México","municipality":"Gustavo A. Madero","setelement":"Vista Hermosa"},{"postalCode":"07188","state":"Ciudad de México","municipality":"Gustavo A. Madero","setelement":"Tlalpexco"},{"postalCode":"07189","state":"Ciudad de México","municipality":"Gustavo A. Madero","setelement":"Ahuehuetes"},{"postalCode":"07190","state":"Ciudad de México","municipality":"Gustavo A. Madero","setelement":"Valle de Madero"},{"postalCode":"07199","state":"Ciudad de México","municipality":"Gustavo A. Madero","setelement":"Del Carmen"},{"postalCode":"07200","state":"Ciudad de México","municipality":"Gustavo A. Madero","setelement":"Cuautepec de Madero"},{"postalCode":"07207","state":"Ciudad de México","municipality":"Gustavo A. Madero","setelement":"Del Bosque"},{"postalCode":"07209","state":"Ciudad de México","municipality":"Gustavo A. Madero","setelement":"Guadalupe Victoria Cuautepec"},{"postalCode":"07210","state":"Ciudad de México","municipality":"Gustavo A. Madero","setelement":"Chalma de Guadalupe"},{"postalCode":"07214","state":"Ciudad de México","municipality":"Gustavo A. Madero","setelement":"Ampliación Chalma de Guadalupe"},{"postalCode":"07220","state":"Ciudad de México","municipality":"Gustavo A. Madero","setelement":"Castillo Chico"},{"postalCode":"07220","state":"Ciudad de México","municipality":"Gustavo A. Madero","setelement":"Castillo Grande"},{"postalCode":"07224","state":"Ciudad de México","municipality":"Gustavo A. Madero","setelement":"Ampliación Castillo Grande"},{"postalCode":"07230","state":"Ciudad de México","municipality":"Gustavo A. Madero","setelement":"Zona Escolar"},{"postalCode":"07239","state":"Ciudad de México","municipality":"Gustavo A. Madero","setelement":"Zona Escolar Oriente"},{"postalCode":"07240","state":"Ciudad de México","municipality":"Gustavo A. Madero","setelement":"El Arbolillo"},{"postalCode":"07250","state":"Ciudad de México","municipality":"Gustavo A. Madero","setelement":"Benito Juárez"},{"postalCode":"07259","state":"Ciudad de México","municipality":"Gustavo A. Madero","setelement":"Ampliación Benito Juárez"},{"postalCode":"07268","state":"Ciudad de México","municipality":"Gustavo A. Madero","setelement":"Solidaridad Nacional"},{"postalCode":"07270","state":"Ciudad de México","municipality":"Gustavo A. Madero","setelement":"Residencial Acueducto de Guadalupe"},{"postalCode":"07279","state":"Ciudad de México","municipality":"Gustavo A. Madero","setelement":"Acueducto de Guadalupe"},{"postalCode":"07280","state":"Ciudad de México","municipality":"Gustavo A. Madero","setelement":"Jorge Negrete"},{"postalCode":"07290","state":"Ciudad de México","municipality":"Gustavo A. Madero","setelement":"La Pastora"},{"postalCode":"07300","state":"Ciudad de México","municipality":"Gustavo A. Madero","setelement":"Lindavista Norte"},{"postalCode":"07300","state":"Ciudad de México","municipality":"Gustavo A. Madero","setelement":"Lindavista Sur"},{"postalCode":"07310","state":"Ciudad de México","municipality":"Gustavo A. Madero","setelement":"Candelaria Ticomán"},{"postalCode":"07320","state":"Ciudad de México","municipality":"Gustavo A. Madero","setelement":"La Purísima Ticomán"},{"postalCode":"07320","state":"Ciudad de México","municipality":"Gustavo A. Madero","setelement":"Residencial la Escalera"},{"postalCode":"07330","state":"Ciudad de México","municipality":"Gustavo A. Madero","setelement":"Santa María Ticomán"},{"postalCode":"07340","state":"Ciudad de México","municipality":"Gustavo A. Madero","setelement":"La Laguna Ticomán"},{"postalCode":"07340","state":"Ciudad de México","municipality":"Gustavo A. Madero","setelement":"San José Ticomán"},{"postalCode":"07350","state":"Ciudad de México","municipality":"Gustavo A. Madero","setelement":"Guadalupe Ticomán"},{"postalCode":"07350","state":"Ciudad de México","municipality":"Gustavo A. Madero","setelement":"San Juan y Guadalupe Ticomán"},{"postalCode":"07359","state":"Ciudad de México","municipality":"Gustavo A. Madero","setelement":"San Rafael Ticomán"},{"postalCode":"07360","state":"Ciudad de México","municipality":"Gustavo A. Madero","setelement":"San Pedro Zacatenco"},{"postalCode":"07369","state":"Ciudad de México","municipality":"Gustavo A. Madero","setelement":"Residencial Zacatenco"},{"postalCode":"07370","state":"Ciudad de México","municipality":"Gustavo A. Madero","setelement":"Capultitlan"},{"postalCode":"07380","state":"Ciudad de México","municipality":"Gustavo A. Madero","setelement":"Maximino Ávila Camacho"},{"postalCode":"07380","state":"Ciudad de México","municipality":"Gustavo A. Madero","setelement":"Tlacamaca"},{"postalCode":"07400","state":"Ciudad de México","municipality":"Gustavo A. Madero","setelement":"Salvador Díaz Mirón"},{"postalCode":"07410","state":"Ciudad de México","municipality":"Gustavo A. Madero","setelement":"Juan González Romero"},{"postalCode":"07410","state":"Ciudad de México","municipality":"Gustavo A. Madero","setelement":"Villa Hermosa"},{"postalCode":"07420","state":"Ciudad de México","municipality":"Gustavo A. Madero","setelement":"El Coyol"},{"postalCode":"07420","state":"Ciudad de México","municipality":"Gustavo A. Madero","setelement":"Nueva Atzacoalco"},{"postalCode":"07430","state":"Ciudad de México","municipality":"Gustavo A. Madero","setelement":"Del Obrero"},{"postalCode":"07440","state":"Ciudad de México","municipality":"Gustavo A. Madero","setelement":"Vasco de Quiroga"},{"postalCode":"07450","state":"Ciudad de México","municipality":"Gustavo A. Madero","setelement":"DM Nacional"},{"postalCode":"07455","state":"Ciudad de México","municipality":"Gustavo A. Madero","setelement":"Ferrocarrilera"},{"postalCode":"07456","state":"Ciudad de México","municipality":"Gustavo A. Madero","setelement":"LI Legislatura"},{"postalCode":"07460","state":"Ciudad de México","municipality":"Gustavo A. Madero","setelement":"Granjas Modernas"},{"postalCode":"07469","state":"Ciudad de México","municipality":"Gustavo A. Madero","setelement":"Constitución de la República"},{"postalCode":"07470","state":"Ciudad de México","municipality":"Gustavo A. Madero","setelement":"Ampliación San Juan de Aragón"},{"postalCode":"07480","state":"Ciudad de México","municipality":"Gustavo A. Madero","setelement":"San Pedro El Chico"},{"postalCode":"07500","state":"Ciudad de México","municipality":"Gustavo A. Madero","setelement":"La Pradera"},{"postalCode":"07509","state":"Ciudad de México","municipality":"Gustavo A. Madero","setelement":"Pradera II Sección"},{"postalCode":"07510","state":"Ciudad de México","municipality":"Gustavo A. Madero","setelement":"San Felipe de Jesús"},{"postalCode":"07520","state":"Ciudad de México","municipality":"Gustavo A. Madero","setelement":"25 de Julio"},{"postalCode":"07530","state":"Ciudad de México","municipality":"Gustavo A. Madero","setelement":"Campestre Aragón"},{"postalCode":"07540","state":"Ciudad de México","municipality":"Gustavo A. Madero","setelement":"La Esmeralda"},{"postalCode":"07550","state":"Ciudad de México","municipality":"Gustavo A. Madero","setelement":"Providencia"},{"postalCode":"07560","state":"Ciudad de México","municipality":"Gustavo A. Madero","setelement":"Ampliación Providencia"},{"postalCode":"07570","state":"Ciudad de México","municipality":"Gustavo A. Madero","setelement":"Villa de Aragón"},{"postalCode":"07580","state":"Ciudad de México","municipality":"Gustavo A. Madero","setelement":"Ampliación Casas Alemán"},{"postalCode":"07600","state":"Ciudad de México","municipality":"Gustavo A. Madero","setelement":"Progreso Nacional"},{"postalCode":"07620","state":"Ciudad de México","municipality":"Gustavo A. Madero","setelement":"Santa Rosa"},{"postalCode":"07630","state":"Ciudad de México","municipality":"Gustavo A. Madero","setelement":"San José de la Escalera"},{"postalCode":"07640","state":"Ciudad de México","municipality":"Gustavo A. Madero","setelement":"Santiago Atepetlac"},{"postalCode":"07650","state":"Ciudad de México","municipality":"Gustavo A. Madero","setelement":"Ampliación Progreso Nacional"},{"postalCode":"07670","state":"Ciudad de México","municipality":"Gustavo A. Madero","setelement":"Guadalupe Proletaria"},{"postalCode":"07680","state":"Ciudad de México","municipality":"Gustavo A. Madero","setelement":"Ampliación Guadalupe Proletaria"},{"postalCode":"07700","state":"Ciudad de México","municipality":"Gustavo A. Madero","setelement":"Nueva Industrial Vallejo"},{"postalCode":"07707","state":"Ciudad de México","municipality":"Gustavo A. Madero","setelement":"Siete Maravillas"},{"postalCode":"07708","state":"Ciudad de México","municipality":"Gustavo A. Madero","setelement":"Torres Lindavista"},{"postalCode":"07720","state":"Ciudad de México","municipality":"Gustavo A. Madero","setelement":"Lindavista Vallejo I Sección"},{"postalCode":"07730","state":"Ciudad de México","municipality":"Gustavo A. Madero","setelement":"Churubusco Tepeyac"},{"postalCode":"07730","state":"Ciudad de México","municipality":"Gustavo A. Madero","setelement":"Montevideo"},{"postalCode":"07730","state":"Ciudad de México","municipality":"Gustavo A. Madero","setelement":"San Bartolo Atepehuacan"},{"postalCode":"07739","state":"Ciudad de México","municipality":"Gustavo A. Madero","setelement":"Planetario Lindavista"},{"postalCode":"07740","state":"Ciudad de México","municipality":"Gustavo A. Madero","setelement":"Valle del Tepeyac"},{"postalCode":"07750","state":"Ciudad de México","municipality":"Gustavo A. Madero","setelement":"Nueva Vallejo"},{"postalCode":"07754","state":"Ciudad de México","municipality":"Gustavo A. Madero","setelement":"Lindavista Vallejo III Sección"},{"postalCode":"07755","state":"Ciudad de México","municipality":"Gustavo A. Madero","setelement":"Lindavista Vallejo II Sección"},{"postalCode":"07760","state":"Ciudad de México","municipality":"Gustavo A. Madero","setelement":"Magdalena de las Salinas"},{"postalCode":"07770","state":"Ciudad de México","municipality":"Gustavo A. Madero","setelement":"Panamericana"},{"postalCode":"07770","state":"Ciudad de México","municipality":"Gustavo A. Madero","setelement":"Ampliación Panamericana"},{"postalCode":"07780","state":"Ciudad de México","municipality":"Gustavo A. Madero","setelement":"Defensores de La República"},{"postalCode":"07780","state":"Ciudad de México","municipality":"Gustavo A. Madero","setelement":"Héroe de Nacozari"},{"postalCode":"07790","state":"Ciudad de México","municipality":"Gustavo A. Madero","setelement":"Guadalupe Victoria"},{"postalCode":"07790","state":"Ciudad de México","municipality":"Gustavo A. Madero","setelement":"Vallejo Poniente"},{"postalCode":"07800","state":"Ciudad de México","municipality":"Gustavo A. Madero","setelement":"Industrial"},{"postalCode":"07810","state":"Ciudad de México","municipality":"Gustavo A. Madero","setelement":"Estrella"},{"postalCode":"07820","state":"Ciudad de México","municipality":"Gustavo A. Madero","setelement":"Aragón Inguarán"},{"postalCode":"07820","state":"Ciudad de México","municipality":"Gustavo A. Madero","setelement":"Tres Estrellas"},{"postalCode":"07830","state":"Ciudad de México","municipality":"Gustavo A. Madero","setelement":"Gertrudis Sánchez 1a Sección"},{"postalCode":"07838","state":"Ciudad de México","municipality":"Gustavo A. Madero","setelement":"Gertrudis Sánchez 3a Sección"},{"postalCode":"07839","state":"Ciudad de México","municipality":"Gustavo A. Madero","setelement":"Gertrudis Sánchez 2a Sección"},{"postalCode":"07840","state":"Ciudad de México","municipality":"Gustavo A. Madero","setelement":"Guadalupe Tepeyac"},{"postalCode":"07840","state":"Ciudad de México","municipality":"Gustavo A. Madero","setelement":"7 de Noviembre"},{"postalCode":"07850","state":"Ciudad de México","municipality":"Gustavo A. Madero","setelement":"Bondojito"},{"postalCode":"07850","state":"Ciudad de México","municipality":"Gustavo A. Madero","setelement":"Faja de Oro"},{"postalCode":"07858","state":"Ciudad de México","municipality":"Gustavo A. Madero","setelement":"Ampliación Emiliano Zapata"},{"postalCode":"07859","state":"Ciudad de México","municipality":"Gustavo A. Madero","setelement":"Ampliación Mártires de Río Blanco"},{"postalCode":"07860","state":"Ciudad de México","municipality":"Gustavo A. Madero","setelement":"La Joyita"},{"postalCode":"07860","state":"Ciudad de México","municipality":"Gustavo A. Madero","setelement":"Tablas de San Agustín"},{"postalCode":"07869","state":"Ciudad de México","municipality":"Gustavo A. Madero","setelement":"Belisario Domínguez"},{"postalCode":"07870","state":"Ciudad de México","municipality":"Gustavo A. Madero","setelement":"Guadalupe Insurgentes"},{"postalCode":"07870","state":"Ciudad de México","municipality":"Gustavo A. Madero","setelement":"Vallejo"},{"postalCode":"07880","state":"Ciudad de México","municipality":"Gustavo A. Madero","setelement":"Mártires de Río Blanco"},{"postalCode":"07889","state":"Ciudad de México","municipality":"Gustavo A. Madero","setelement":"Emiliano Zapata"},{"postalCode":"07890","state":"Ciudad de México","municipality":"Gustavo A. Madero","setelement":"Nueva Tenochtitlán"},{"postalCode":"07890","state":"Ciudad de México","municipality":"Gustavo A. Madero","setelement":"Cuchilla La Joya"},{"postalCode":"07890","state":"Ciudad de México","municipality":"Gustavo A. Madero","setelement":"La Joya"},{"postalCode":"07899","state":"Ciudad de México","municipality":"Gustavo A. Madero","setelement":"La Malinche"},{"postalCode":"07900","state":"Ciudad de México","municipality":"Gustavo A. Madero","setelement":"Cuchilla del Tesoro"},{"postalCode":"07910","state":"Ciudad de México","municipality":"Gustavo A. Madero","setelement":"San Juan de Aragón VII Sección"},{"postalCode":"07918","state":"Ciudad de México","municipality":"Gustavo A. Madero","setelement":"San Juan de Aragón VI Sección"},{"postalCode":"07919","state":"Ciudad de México","municipality":"Gustavo A. Madero","setelement":"Ex Ejido San Juan de Aragón Sector 32"},{"postalCode":"07920","state":"Ciudad de México","municipality":"Gustavo A. Madero","setelement":"El Olivo"},{"postalCode":"07920","state":"Ciudad de México","municipality":"Gustavo A. Madero","setelement":"San Juan de Aragón"},{"postalCode":"07930","state":"Ciudad de México","municipality":"Gustavo A. Madero","setelement":"Indeco"},{"postalCode":"07939","state":"Ciudad de México","municipality":"Gustavo A. Madero","setelement":"Héroes de Chapultepec"},{"postalCode":"07940","state":"Ciudad de México","municipality":"Gustavo A. Madero","setelement":"Ex Ejido San Juan de Aragón Sector 33"},{"postalCode":"07950","state":"Ciudad de México","municipality":"Gustavo A. Madero","setelement":"San Juan de Aragón"},{"postalCode":"07960","state":"Ciudad de México","municipality":"Gustavo A. Madero","setelement":"Héroes de Cerro Prieto"},{"postalCode":"07960","state":"Ciudad de México","municipality":"Gustavo A. Madero","setelement":"Ex Escuela de Tiro"},{"postalCode":"07960","state":"Ciudad de México","municipality":"Gustavo A. Madero","setelement":"Fernando Casas Alemán"},{"postalCode":"07969","state":"Ciudad de México","municipality":"Gustavo A. Madero","setelement":"San Juan de Aragón I Sección"},{"postalCode":"07969","state":"Ciudad de México","municipality":"Gustavo A. Madero","setelement":"San Juan de Aragón II Sección"},{"postalCode":"07970","state":"Ciudad de México","municipality":"Gustavo A. Madero","setelement":"San Juan de Aragón III Sección"},{"postalCode":"07979","state":"Ciudad de México","municipality":"Gustavo A. Madero","setelement":"San Juan de Aragón IV Sección"},{"postalCode":"07979","state":"Ciudad de México","municipality":"Gustavo A. Madero","setelement":"San Juan de Aragón V Sección"},{"postalCode":"07980","state":"Ciudad de México","municipality":"Gustavo A. Madero","setelement":"Narciso Bassols"},{"postalCode":"07990","state":"Ciudad de México","municipality":"Gustavo A. Madero","setelement":"C.T.M. Aragón"},{"postalCode":"08000","state":"Ciudad de México","municipality":"Iztacalco","setelement":"Gabriel Ramos Millán Sección Bramadero"},{"postalCode":"08010","state":"Ciudad de México","municipality":"Iztacalco","setelement":"Ex-Ejido de La Magdalena Mixiuhca"},{"postalCode":"08020","state":"Ciudad de México","municipality":"Iztacalco","setelement":"Ampliación Gabriel Ramos Millán"},{"postalCode":"08030","state":"Ciudad de México","municipality":"Iztacalco","setelement":"Gabriel Ramos Millán Sección Cuchilla"},{"postalCode":"08040","state":"Ciudad de México","municipality":"Iztacalco","setelement":"Carlos Zapata Vela"},{"postalCode":"08100","state":"Ciudad de México","municipality":"Iztacalco","setelement":"Agrícola Pantitlán"},{"postalCode":"08200","state":"Ciudad de México","municipality":"Iztacalco","setelement":"Viaducto Piedad"},{"postalCode":"08210","state":"Ciudad de México","municipality":"Iztacalco","setelement":"Nueva Santa Anita"},{"postalCode":"08220","state":"Ciudad de México","municipality":"Iztacalco","setelement":"San Pedro"},{"postalCode":"08230","state":"Ciudad de México","municipality":"Iztacalco","setelement":"San Francisco Xicaltongo"},{"postalCode":"08240","state":"Ciudad de México","municipality":"Iztacalco","setelement":"Santiago Norte"},{"postalCode":"08300","state":"Ciudad de México","municipality":"Iztacalco","setelement":"Santa Anita"},{"postalCode":"08310","state":"Ciudad de México","municipality":"Iztacalco","setelement":"La Cruz"},{"postalCode":"08320","state":"Ciudad de México","municipality":"Iztacalco","setelement":"Fraccionamiento Coyuya"},{"postalCode":"08400","state":"Ciudad de México","municipality":"Iztacalco","setelement":"Granjas México"},{"postalCode":"08420","state":"Ciudad de México","municipality":"Iztacalco","setelement":"Cuchilla Agrícola Oriental"},{"postalCode":"08500","state":"Ciudad de México","municipality":"Iztacalco","setelement":"Agrícola Oriental"},{"postalCode":"08510","state":"Ciudad de México","municipality":"Iztacalco","setelement":"El Rodeo"},{"postalCode":"08600","state":"Ciudad de México","municipality":"Iztacalco","setelement":"La Asunción"},{"postalCode":"08610","state":"Ciudad de México","municipality":"Iztacalco","setelement":"Zapotla"},{"postalCode":"08620","state":"Ciudad de México","municipality":"Iztacalco","setelement":"Los Reyes"},{"postalCode":"08650","state":"Ciudad de México","municipality":"Iztacalco","setelement":"San Miguel"},{"postalCode":"08700","state":"Ciudad de México","municipality":"Iztacalco","setelement":"Juventino Rosas"},{"postalCode":"08710","state":"Ciudad de México","municipality":"Iztacalco","setelement":"Tlazintla"},{"postalCode":"08720","state":"Ciudad de México","municipality":"Iztacalco","setelement":"Gabriel Ramos Millán Sección Tlacotal"},{"postalCode":"08730","state":"Ciudad de México","municipality":"Iztacalco","setelement":"Gabriel Ramos Millán"},{"postalCode":"08760","state":"Ciudad de México","municipality":"Iztacalco","setelement":"INPI Picos"},{"postalCode":"08760","state":"Ciudad de México","municipality":"Iztacalco","setelement":"Los Picos de Iztacalco Sección 2A"},{"postalCode":"08760","state":"Ciudad de México","municipality":"Iztacalco","setelement":"Los Picos de Iztacalco Sección 1B"},{"postalCode":"08770","state":"Ciudad de México","municipality":"Iztacalco","setelement":"Los Picos de Iztacalco Sección 1A"},{"postalCode":"08800","state":"Ciudad de México","municipality":"Iztacalco","setelement":"Santiago Sur"},{"postalCode":"08810","state":"Ciudad de México","municipality":"Iztacalco","setelement":"Reforma Iztaccíhuatl Norte"},{"postalCode":"08830","state":"Ciudad de México","municipality":"Iztacalco","setelement":"Militar Marte"},{"postalCode":"08840","state":"Ciudad de México","municipality":"Iztacalco","setelement":"Reforma Iztaccíhuatl Sur"},{"postalCode":"08900","state":"Ciudad de México","municipality":"Iztacalco","setelement":"INFONAVIT Iztacalco"},{"postalCode":"08910","state":"Ciudad de México","municipality":"Iztacalco","setelement":"Santa Cruz"},{"postalCode":"08920","state":"Ciudad de México","municipality":"Iztacalco","setelement":"Jardines Tecma"},{"postalCode":"08930","state":"Ciudad de México","municipality":"Iztacalco","setelement":"Campamento 2 de Octubre"},{"postalCode":"09000","state":"Ciudad de México","municipality":"Iztapalapa","setelement":"La Asunción"},{"postalCode":"09000","state":"Ciudad de México","municipality":"Iztapalapa","setelement":"San Ignacio"},{"postalCode":"09000","state":"Ciudad de México","municipality":"Iztapalapa","setelement":"San José"},{"postalCode":"09000","state":"Ciudad de México","municipality":"Iztapalapa","setelement":"San Lucas"},{"postalCode":"09000","state":"Ciudad de México","municipality":"Iztapalapa","setelement":"San Pablo"},{"postalCode":"09000","state":"Ciudad de México","municipality":"Iztapalapa","setelement":"San Pedro"},{"postalCode":"09000","state":"Ciudad de México","municipality":"Iztapalapa","setelement":"Santa Bárbara"},{"postalCode":"09010","state":"Ciudad de México","municipality":"Iztapalapa","setelement":"Real del Moral"},{"postalCode":"09020","state":"Ciudad de México","municipality":"Iztapalapa","setelement":"Dr. Alfonso Ortiz Tirado"},{"postalCode":"09030","state":"Ciudad de México","municipality":"Iztapalapa","setelement":"Paseos de Churubusco"},{"postalCode":"09040","state":"Ciudad de México","municipality":"Iztapalapa","setelement":"Central de Abasto"},{"postalCode":"09060","state":"Ciudad de México","municipality":"Iztapalapa","setelement":"Escuadrón 201"},{"postalCode":"09060","state":"Ciudad de México","municipality":"Iztapalapa","setelement":"Sector Popular"},{"postalCode":"09070","state":"Ciudad de México","municipality":"Iztapalapa","setelement":"Granjas de San Antonio"},{"postalCode":"09080","state":"Ciudad de México","municipality":"Iztapalapa","setelement":"Cacama"},{"postalCode":"09089","state":"Ciudad de México","municipality":"Iztapalapa","setelement":"Unidad Modelo"},{"postalCode":"09090","state":"Ciudad de México","municipality":"Iztapalapa","setelement":"Héroes de Churubusco"},{"postalCode":"09099","state":"Ciudad de México","municipality":"Iztapalapa","setelement":"Mexicaltzingo"},{"postalCode":"09100","state":"Ciudad de México","municipality":"Iztapalapa","setelement":"Juan Escutia"},{"postalCode":"09130","state":"Ciudad de México","municipality":"Iztapalapa","setelement":"San Lorenzo Xicotencatl"},{"postalCode":"09140","state":"Ciudad de México","municipality":"Iztapalapa","setelement":"Santa Martha Acatitla Norte"},{"postalCode":"09180","state":"Ciudad de México","municipality":"Iztapalapa","setelement":"Ermita Zaragoza"},{"postalCode":"09200","state":"Ciudad de México","municipality":"Iztapalapa","setelement":"Unidad Vicente Guerrero"},{"postalCode":"09208","state":"Ciudad de México","municipality":"Iztapalapa","setelement":"Chinampac de Juárez"},{"postalCode":"09209","state":"Ciudad de México","municipality":"Iztapalapa","setelement":"Renovación"},{"postalCode":"09210","state":"Ciudad de México","municipality":"Iztapalapa","setelement":"Tepalcates"},{"postalCode":"09220","state":"Ciudad de México","municipality":"Iztapalapa","setelement":"Unidad Ejército Constitucionalista"},{"postalCode":"09230","state":"Ciudad de México","municipality":"Iztapalapa","setelement":"Álvaro Obregón"},{"postalCode":"09230","state":"Ciudad de México","municipality":"Iztapalapa","setelement":"Ejército de Oriente"},{"postalCode":"09230","state":"Ciudad de México","municipality":"Iztapalapa","setelement":"El Paraíso"},{"postalCode":"09230","state":"Ciudad de México","municipality":"Iztapalapa","setelement":"José María Morelos y Pavón"},{"postalCode":"09239","state":"Ciudad de México","municipality":"Iztapalapa","setelement":"Ejército de Oriente Zona Peñón"},{"postalCode":"09240","state":"Ciudad de México","municipality":"Iztapalapa","setelement":"Progresista"},{"postalCode":"09250","state":"Ciudad de México","municipality":"Iztapalapa","setelement":"La Regadera"},{"postalCode":"09260","state":"Ciudad de México","municipality":"Iztapalapa","setelement":"Constitución de 1917"},{"postalCode":"09270","state":"Ciudad de México","municipality":"Iztapalapa","setelement":"Colonial Iztapalapa"},{"postalCode":"09280","state":"Ciudad de México","municipality":"Iztapalapa","setelement":"Jacarandas"},{"postalCode":"09290","state":"Ciudad de México","municipality":"Iztapalapa","setelement":"Santa Cruz Meyehualco"},{"postalCode":"09300","state":"Ciudad de México","municipality":"Iztapalapa","setelement":"Guadalupe del Moral"},{"postalCode":"09310","state":"Ciudad de México","municipality":"Iztapalapa","setelement":"Leyes de Reforma 1a Sección"},{"postalCode":"09310","state":"Ciudad de México","municipality":"Iztapalapa","setelement":"Leyes de Reforma 2a Sección"},{"postalCode":"09310","state":"Ciudad de México","municipality":"Iztapalapa","setelement":"Leyes de Reforma 3a Sección"},{"postalCode":"09319","state":"Ciudad de México","municipality":"Iztapalapa","setelement":"Cuchilla del Moral"},{"postalCode":"09320","state":"Ciudad de México","municipality":"Iztapalapa","setelement":"Sideral"},{"postalCode":"09350","state":"Ciudad de México","municipality":"Iztapalapa","setelement":"Albarrada"},{"postalCode":"09359","state":"Ciudad de México","municipality":"Iztapalapa","setelement":"Eva Sámano de López Mateos"},{"postalCode":"09360","state":"Ciudad de México","municipality":"Iztapalapa","setelement":"Ampliación San Miguel"},{"postalCode":"09360","state":"Ciudad de México","municipality":"Iztapalapa","setelement":"San Miguel"},{"postalCode":"09400","state":"Ciudad de México","municipality":"Iztapalapa","setelement":"San Juanico Nextipac"},{"postalCode":"09400","state":"Ciudad de México","municipality":"Iztapalapa","setelement":"El Sifón"},{"postalCode":"09410","state":"Ciudad de México","municipality":"Iztapalapa","setelement":"Aculco"},{"postalCode":"09410","state":"Ciudad de México","municipality":"Iztapalapa","setelement":"Jardines de Churubusco"},{"postalCode":"09410","state":"Ciudad de México","municipality":"Iztapalapa","setelement":"Magdalena Atlazolpa"},{"postalCode":"09410","state":"Ciudad de México","municipality":"Iztapalapa","setelement":"San José Aculco"},{"postalCode":"09420","state":"Ciudad de México","municipality":"Iztapalapa","setelement":"Los Picos VI-B"},{"postalCode":"09420","state":"Ciudad de México","municipality":"Iztapalapa","setelement":"Nueva Rosita"},{"postalCode":"09429","state":"Ciudad de México","municipality":"Iztapalapa","setelement":"Purísima Atlazolpa"},{"postalCode":"09430","state":"Ciudad de México","municipality":"Iztapalapa","setelement":"Apatlaco"},{"postalCode":"09430","state":"Ciudad de México","municipality":"Iztapalapa","setelement":"El Triunfo"},{"postalCode":"09438","state":"Ciudad de México","municipality":"Iztapalapa","setelement":"Ampliación El Triunfo"},{"postalCode":"09440","state":"Ciudad de México","municipality":"Iztapalapa","setelement":"El Retoño"},{"postalCode":"09440","state":"Ciudad de México","municipality":"Iztapalapa","setelement":"San Andrés Tetepilco"},{"postalCode":"09440","state":"Ciudad de México","municipality":"Iztapalapa","setelement":"Zacahuitzco"},{"postalCode":"09450","state":"Ciudad de México","municipality":"Iztapalapa","setelement":"Banjidal"},{"postalCode":"09460","state":"Ciudad de México","municipality":"Iztapalapa","setelement":"Justo Sierra"},{"postalCode":"09470","state":"Ciudad de México","municipality":"Iztapalapa","setelement":"Sinatel"},{"postalCode":"09479","state":"Ciudad de México","municipality":"Iztapalapa","setelement":"Ampliación Sinatel"},{"postalCode":"09480","state":"Ciudad de México","municipality":"Iztapalapa","setelement":"El Prado"},{"postalCode":"09500","state":"Ciudad de México","municipality":"Iztapalapa","setelement":"Santa María Aztahuacán"},{"postalCode":"09500","state":"Ciudad de México","municipality":"Iztapalapa","setelement":"Santa María Aztahuacán Ampliación"},{"postalCode":"09510","state":"Ciudad de México","municipality":"Iztapalapa","setelement":"Santa Martha Acatitla"},{"postalCode":"09520","state":"Ciudad de México","municipality":"Iztapalapa","setelement":"El Edén"},{"postalCode":"09520","state":"Ciudad de México","municipality":"Iztapalapa","setelement":"San Sebastián Tecoloxtitla"},{"postalCode":"09530","state":"Ciudad de México","municipality":"Iztapalapa","setelement":"Santa Martha Acatitla Sur"},{"postalCode":"09550","state":"Ciudad de México","municipality":"Iztapalapa","setelement":"Monte Alban"},{"postalCode":"09560","state":"Ciudad de México","municipality":"Iztapalapa","setelement":"Paraje Zacatepec"},{"postalCode":"09570","state":"Ciudad de México","municipality":"Iztapalapa","setelement":"Santa María Aztahuacán"},{"postalCode":"09578","state":"Ciudad de México","municipality":"Iztapalapa","setelement":"Ejército de Agua Prieta"},{"postalCode":"09600","state":"Ciudad de México","municipality":"Iztapalapa","setelement":"Santiago Acahualtepec"},{"postalCode":"09608","state":"Ciudad de México","municipality":"Iztapalapa","setelement":"Santiago Acahualtepec 1ra. Ampliación"},{"postalCode":"09609","state":"Ciudad de México","municipality":"Iztapalapa","setelement":"Santiago Acahualtepec 2a. Ampliación"},{"postalCode":"09620","state":"Ciudad de México","municipality":"Iztapalapa","setelement":"Lomas de Zaragoza"},{"postalCode":"09630","state":"Ciudad de México","municipality":"Iztapalapa","setelement":"San Miguel Teotongo Sección Corrales"},{"postalCode":"09630","state":"Ciudad de México","municipality":"Iztapalapa","setelement":"San Miguel Teotongo Sección Acorralado"},{"postalCode":"09630","state":"Ciudad de México","municipality":"Iztapalapa","setelement":"San Miguel Teotongo Sección Avisadero"},{"postalCode":"09630","state":"Ciudad de México","municipality":"Iztapalapa","setelement":"San Miguel Teotongo Sección Capilla"},{"postalCode":"09630","state":"Ciudad de México","municipality":"Iztapalapa","setelement":"San Miguel Teotongo Sección Guadalupe"},{"postalCode":"09630","state":"Ciudad de México","municipality":"Iztapalapa","setelement":"San Miguel Teotongo Sección Iztlahuaca"},{"postalCode":"09630","state":"Ciudad de México","municipality":"Iztapalapa","setelement":"San Miguel Teotongo Sección Jardines"},{"postalCode":"09630","state":"Ciudad de México","municipality":"Iztapalapa","setelement":"San Miguel Teotongo Sección La Cruz"},{"postalCode":"09630","state":"Ciudad de México","municipality":"Iztapalapa","setelement":"San Miguel Teotongo Sección Loma Alta"},{"postalCode":"09630","state":"Ciudad de México","municipality":"Iztapalapa","setelement":"San Miguel Teotongo Sección Mercedes"},{"postalCode":"09630","state":"Ciudad de México","municipality":"Iztapalapa","setelement":"San Miguel Teotongo Sección Palmitas"},{"postalCode":"09630","state":"Ciudad de México","municipality":"Iztapalapa","setelement":"San Miguel Teotongo Sección Puente"},{"postalCode":"09630","state":"Ciudad de México","municipality":"Iztapalapa","setelement":"San Miguel Teotongo Sección Ranchito"},{"postalCode":"09630","state":"Ciudad de México","municipality":"Iztapalapa","setelement":"San Miguel Teotongo Sección Rancho Bajo"},{"postalCode":"09630","state":"Ciudad de México","municipality":"Iztapalapa","setelement":"San Miguel Teotongo Sección Torres"},{"postalCode":"09637","state":"Ciudad de México","municipality":"Iztapalapa","setelement":"Campestre Potrero"},{"postalCode":"09638","state":"Ciudad de México","municipality":"Iztapalapa","setelement":"Ampliación Emiliano Zapata"},{"postalCode":"09640","state":"Ciudad de México","municipality":"Iztapalapa","setelement":"Lomas de la Estancia"},{"postalCode":"09640","state":"Ciudad de México","municipality":"Iztapalapa","setelement":"Xalpa"},{"postalCode":"09648","state":"Ciudad de México","municipality":"Iztapalapa","setelement":"San Pablo"},{"postalCode":"09660","state":"Ciudad de México","municipality":"Iztapalapa","setelement":"Citlalli"},{"postalCode":"09670","state":"Ciudad de México","municipality":"Iztapalapa","setelement":"Palmitas"},{"postalCode":"09680","state":"Ciudad de México","municipality":"Iztapalapa","setelement":"Tenorios"},{"postalCode":"09689","state":"Ciudad de México","municipality":"Iztapalapa","setelement":"Barranca de Guadalupe"},{"postalCode":"09690","state":"Ciudad de México","municipality":"Iztapalapa","setelement":"Iztlahuacán"},{"postalCode":"09696","state":"Ciudad de México","municipality":"Iztapalapa","setelement":"Miravalles"},{"postalCode":"09698","state":"Ciudad de México","municipality":"Iztapalapa","setelement":"Miguel de La Madrid Hurtado"},{"postalCode":"09700","state":"Ciudad de México","municipality":"Iztapalapa","setelement":"Buenavista"},{"postalCode":"09700","state":"Ciudad de México","municipality":"Iztapalapa","setelement":"Carlos Hank Gonzalez"},{"postalCode":"09700","state":"Ciudad de México","municipality":"Iztapalapa","setelement":"Desarrollo Urbano Quetzalcoatl"},{"postalCode":"09700","state":"Ciudad de México","municipality":"Iztapalapa","setelement":"Santa Cruz Meyehualco"},{"postalCode":"09704","state":"Ciudad de México","municipality":"Iztapalapa","setelement":"Degollado"},{"postalCode":"09705","state":"Ciudad de México","municipality":"Iztapalapa","setelement":"Degollado - Mexicatlalli"},{"postalCode":"09706","state":"Ciudad de México","municipality":"Iztapalapa","setelement":"San José Buenavista"},{"postalCode":"09708","state":"Ciudad de México","municipality":"Iztapalapa","setelement":"Mixcoatl"},{"postalCode":"09709","state":"Ciudad de México","municipality":"Iztapalapa","setelement":"Lomas de Santa Cruz"},{"postalCode":"09710","state":"Ciudad de México","municipality":"Iztapalapa","setelement":"Los Ángeles Apanoaya"},{"postalCode":"09720","state":"Ciudad de México","municipality":"Iztapalapa","setelement":"Francisco Villa"},{"postalCode":"09720","state":"Ciudad de México","municipality":"Iztapalapa","setelement":"La Era"},{"postalCode":"09730","state":"Ciudad de México","municipality":"Iztapalapa","setelement":"Reforma Política"},{"postalCode":"09740","state":"Ciudad de México","municipality":"Iztapalapa","setelement":"Presidentes de México"},{"postalCode":"09750","state":"Ciudad de México","municipality":"Iztapalapa","setelement":"Insurgentes"},{"postalCode":"09750","state":"Ciudad de México","municipality":"Iztapalapa","setelement":"La Polvorilla"},{"postalCode":"09750","state":"Ciudad de México","municipality":"Iztapalapa","setelement":"Las Peñas"},{"postalCode":"09760","state":"Ciudad de México","municipality":"Iztapalapa","setelement":"Consejo Agrarista Mexicano"},{"postalCode":"09769","state":"Ciudad de México","municipality":"Iztapalapa","setelement":"El Triángulo"},{"postalCode":"09770","state":"Ciudad de México","municipality":"Iztapalapa","setelement":"Puente Blanco"},{"postalCode":"09780","state":"Ciudad de México","municipality":"Iztapalapa","setelement":"Año de Juárez"},{"postalCode":"09780","state":"Ciudad de México","municipality":"Iztapalapa","setelement":"Lomas de San Lorenzo"},{"postalCode":"09790","state":"Ciudad de México","municipality":"Iztapalapa","setelement":"San Lorenzo Tezonco"},{"postalCode":"09800","state":"Ciudad de México","municipality":"Iztapalapa","setelement":"Culhuacán"},{"postalCode":"09800","state":"Ciudad de México","municipality":"Iztapalapa","setelement":"El Mirador"},{"postalCode":"09800","state":"Ciudad de México","municipality":"Iztapalapa","setelement":"Estrella Culhuacán"},{"postalCode":"09800","state":"Ciudad de México","municipality":"Iztapalapa","setelement":"Fuego Nuevo"},{"postalCode":"09800","state":"Ciudad de México","municipality":"Iztapalapa","setelement":"San Antonio Culhuacán"},{"postalCode":"09800","state":"Ciudad de México","municipality":"Iztapalapa","setelement":"San Antonio Culhuacán"},{"postalCode":"09800","state":"Ciudad de México","municipality":"Iztapalapa","setelement":"San Simón Culhuacán"},{"postalCode":"09800","state":"Ciudad de México","municipality":"Iztapalapa","setelement":"Tula"},{"postalCode":"09800","state":"Ciudad de México","municipality":"Iztapalapa","setelement":"Valle de Luces"},{"postalCode":"09810","state":"Ciudad de México","municipality":"Iztapalapa","setelement":"Granjas Esmeralda"},{"postalCode":"09810","state":"Ciudad de México","municipality":"Iztapalapa","setelement":"Los Cipreses"},{"postalCode":"09810","state":"Ciudad de México","municipality":"Iztapalapa","setelement":"Minerva"},{"postalCode":"09810","state":"Ciudad de México","municipality":"Iztapalapa","setelement":"Progreso del Sur"},{"postalCode":"09819","state":"Ciudad de México","municipality":"Iztapalapa","setelement":"Valle del Sur"},{"postalCode":"09820","state":"Ciudad de México","municipality":"Iztapalapa","setelement":"El Santuario"},{"postalCode":"09820","state":"Ciudad de México","municipality":"Iztapalapa","setelement":"Estrella del Sur"},{"postalCode":"09820","state":"Ciudad de México","municipality":"Iztapalapa","setelement":"Ricardo Flores Magón"},{"postalCode":"09820","state":"Ciudad de México","municipality":"Iztapalapa","setelement":"Santa Isabel Industrial"},{"postalCode":"09828","state":"Ciudad de México","municipality":"Iztapalapa","setelement":"Ampliación Ricardo Flores Magón"},{"postalCode":"09829","state":"Ciudad de México","municipality":"Iztapalapa","setelement":"Ampliación El Santuario"},{"postalCode":"09830","state":"Ciudad de México","municipality":"Iztapalapa","setelement":"El Manto"},{"postalCode":"09830","state":"Ciudad de México","municipality":"Iztapalapa","setelement":"El Molino"},{"postalCode":"09830","state":"Ciudad de México","municipality":"Iztapalapa","setelement":"Lomas El Manto"},{"postalCode":"09830","state":"Ciudad de México","municipality":"Iztapalapa","setelement":"Los Ángeles"},{"postalCode":"09830","state":"Ciudad de México","municipality":"Iztapalapa","setelement":"Paraje San Juan"},{"postalCode":"09837","state":"Ciudad de México","municipality":"Iztapalapa","setelement":"San Miguel 8va. Ampliación"},{"postalCode":"09838","state":"Ciudad de México","municipality":"Iztapalapa","setelement":"Plan de Iguala"},{"postalCode":"09839","state":"Ciudad de México","municipality":"Iztapalapa","setelement":"Ampliación Paraje San Juan"},{"postalCode":"09839","state":"Ciudad de México","municipality":"Iztapalapa","setelement":"San Juan Joya"},{"postalCode":"09840","state":"Ciudad de México","municipality":"Iztapalapa","setelement":"Los Reyes Culhuacán"},{"postalCode":"09849","state":"Ciudad de México","municipality":"Iztapalapa","setelement":"Ampliación Los Reyes"},{"postalCode":"09850","state":"Ciudad de México","municipality":"Iztapalapa","setelement":"San Juan Xalpa"},{"postalCode":"09850","state":"Ciudad de México","municipality":"Iztapalapa","setelement":"San Nicolás Tolentino"},{"postalCode":"09850","state":"Ciudad de México","municipality":"Iztapalapa","setelement":"Santa María del Monte"},{"postalCode":"09856","state":"Ciudad de México","municipality":"Iztapalapa","setelement":"Estado de Veracruz"},{"postalCode":"09856","state":"Ciudad de México","municipality":"Iztapalapa","setelement":"Ampliación Veracruzana"},{"postalCode":"09858","state":"Ciudad de México","municipality":"Iztapalapa","setelement":"Paraje San Juan Cerro"},{"postalCode":"09859","state":"Ciudad de México","municipality":"Iztapalapa","setelement":"Benito Juárez"},{"postalCode":"09860","state":"Ciudad de México","municipality":"Iztapalapa","setelement":"Bellavista"},{"postalCode":"09860","state":"Ciudad de México","municipality":"Iztapalapa","setelement":"Ampliación Bellavista"},{"postalCode":"09860","state":"Ciudad de México","municipality":"Iztapalapa","setelement":"Casa Blanca"},{"postalCode":"09860","state":"Ciudad de México","municipality":"Iztapalapa","setelement":"Cerro de La Estrella"},{"postalCode":"09860","state":"Ciudad de México","municipality":"Iztapalapa","setelement":"Parque Nacional Cerro  de la Estrella"},{"postalCode":"09860","state":"Ciudad de México","municipality":"Iztapalapa","setelement":"El Rodeo"},{"postalCode":"09868","state":"Ciudad de México","municipality":"Iztapalapa","setelement":"San Juan Estrella"},{"postalCode":"09870","state":"Ciudad de México","municipality":"Iztapalapa","setelement":"12 de Diciembre"},{"postalCode":"09870","state":"Ciudad de México","municipality":"Iztapalapa","setelement":"San Andrés Tomatlán"},{"postalCode":"09870","state":"Ciudad de México","municipality":"Iztapalapa","setelement":"San Andrés Tomatlán"},{"postalCode":"09870","state":"Ciudad de México","municipality":"Iztapalapa","setelement":"Santa María Tomatlán"},{"postalCode":"09880","state":"Ciudad de México","municipality":"Iztapalapa","setelement":"El Vergel"},{"postalCode":"09880","state":"Ciudad de México","municipality":"Iztapalapa","setelement":"Granjas Estrella"},{"postalCode":"09890","state":"Ciudad de México","municipality":"Iztapalapa","setelement":"Lomas Estrella"},{"postalCode":"09897","state":"Ciudad de México","municipality":"Iztapalapa","setelement":"Carlos Jonguitud Barrios"},{"postalCode":"09900","state":"Ciudad de México","municipality":"Iztapalapa","setelement":"Guadalupe"},{"postalCode":"09900","state":"Ciudad de México","municipality":"Iztapalapa","setelement":"San Antonio"},{"postalCode":"09900","state":"Ciudad de México","municipality":"Iztapalapa","setelement":"San Lorenzo"},{"postalCode":"09910","state":"Ciudad de México","municipality":"Iztapalapa","setelement":"La Esperanza"},{"postalCode":"09920","state":"Ciudad de México","municipality":"Iztapalapa","setelement":"José López Portillo"},{"postalCode":"09930","state":"Ciudad de México","municipality":"Iztapalapa","setelement":"El Rosario"},{"postalCode":"09940","state":"Ciudad de México","municipality":"Iztapalapa","setelement":"Jardines de San Lorenzo Tezonco"},{"postalCode":"09960","state":"Ciudad de México","municipality":"Iztapalapa","setelement":"Celoalliotli"},{"postalCode":"09960","state":"Ciudad de México","municipality":"Iztapalapa","setelement":"USCOVI"},{"postalCode":"09960","state":"Ciudad de México","municipality":"Iztapalapa","setelement":"El Molino Tezonco"},{"postalCode":"09960","state":"Ciudad de México","municipality":"Iztapalapa","setelement":"Allapetlalli"},{"postalCode":"09960","state":"Ciudad de México","municipality":"Iztapalapa","setelement":"La Planta"},{"postalCode":"09969","state":"Ciudad de México","municipality":"Iztapalapa","setelement":"Cananea"},{"postalCode":"09970","state":"Ciudad de México","municipality":"Iztapalapa","setelement":"Valle de San Lorenzo"},{"postalCode":"10000","state":"Ciudad de México","municipality":"La Magdalena Contreras","setelement":"Lomas Quebradas"},{"postalCode":"10010","state":"Ciudad de México","municipality":"La Magdalena Contreras","setelement":"La Malinche"},{"postalCode":"10010","state":"Ciudad de México","municipality":"La Magdalena Contreras","setelement":"San Bartolo Ameyalco"},{"postalCode":"10020","state":"Ciudad de México","municipality":"La Magdalena Contreras","setelement":"Cuauhtémoc"},{"postalCode":"10130","state":"Ciudad de México","municipality":"La Magdalena Contreras","setelement":"El Maestro"},{"postalCode":"10200","state":"Ciudad de México","municipality":"La Magdalena Contreras","setelement":"San Jerónimo Lídice"},{"postalCode":"10300","state":"Ciudad de México","municipality":"La Magdalena Contreras","setelement":"San Bernabé Ocotepec"},{"postalCode":"10320","state":"Ciudad de México","municipality":"La Magdalena Contreras","setelement":"El Tanque"},{"postalCode":"10330","state":"Ciudad de México","municipality":"La Magdalena Contreras","setelement":"Las Cruces"},{"postalCode":"10340","state":"Ciudad de México","municipality":"La Magdalena Contreras","setelement":"Los Padres"},{"postalCode":"10350","state":"Ciudad de México","municipality":"La Magdalena Contreras","setelement":"Lomas de San Bernabé"},{"postalCode":"10360","state":"Ciudad de México","municipality":"La Magdalena Contreras","setelement":"Huayatla"},{"postalCode":"10368","state":"Ciudad de México","municipality":"La Magdalena Contreras","setelement":"Ampliación Potrerillo"},{"postalCode":"10369","state":"Ciudad de México","municipality":"La Magdalena Contreras","setelement":"Ampliación Lomas de San Bernabé"},{"postalCode":"10369","state":"Ciudad de México","municipality":"La Magdalena Contreras","setelement":"Tierra Unida"},{"postalCode":"10370","state":"Ciudad de México","municipality":"La Magdalena Contreras","setelement":"Palmas"},{"postalCode":"10378","state":"Ciudad de México","municipality":"La Magdalena Contreras","setelement":"Atacaxco"},{"postalCode":"10379","state":"Ciudad de México","municipality":"La Magdalena Contreras","setelement":"Vista Hermosa"},{"postalCode":"10380","state":"Ciudad de México","municipality":"La Magdalena Contreras","setelement":"Barros Sierra"},{"postalCode":"10400","state":"Ciudad de México","municipality":"La Magdalena Contreras","setelement":"San Jerónimo Aculco"},{"postalCode":"10500","state":"Ciudad de México","municipality":"La Magdalena Contreras","setelement":"Barrio San Francisco"},{"postalCode":"10580","state":"Ciudad de México","municipality":"La Magdalena Contreras","setelement":"Barranca Seca"},{"postalCode":"10600","state":"Ciudad de México","municipality":"La Magdalena Contreras","setelement":"El Rosal"},{"postalCode":"10610","state":"Ciudad de México","municipality":"La Magdalena Contreras","setelement":"El Toro"},{"postalCode":"10620","state":"Ciudad de México","municipality":"La Magdalena Contreras","setelement":"Potrerillo"},{"postalCode":"10630","state":"Ciudad de México","municipality":"La Magdalena Contreras","setelement":"El Ocotal"},{"postalCode":"10640","state":"Ciudad de México","municipality":"La Magdalena Contreras","setelement":"La Carbonera"},{"postalCode":"10640","state":"Ciudad de México","municipality":"La Magdalena Contreras","setelement":"Pueblo Nuevo Alto"},{"postalCode":"10640","state":"Ciudad de México","municipality":"La Magdalena Contreras","setelement":"Pueblo Nuevo Bajo"},{"postalCode":"10660","state":"Ciudad de México","municipality":"La Magdalena Contreras","setelement":"El Ermitaño"},{"postalCode":"10700","state":"Ciudad de México","municipality":"La Magdalena Contreras","setelement":"Héroes de Padierna"},{"postalCode":"10710","state":"Ciudad de México","municipality":"La Magdalena Contreras","setelement":"Santa Teresa"},{"postalCode":"10800","state":"Ciudad de México","municipality":"La Magdalena Contreras","setelement":"La Cruz"},{"postalCode":"10810","state":"Ciudad de México","municipality":"La Magdalena Contreras","setelement":"San Francisco"},{"postalCode":"10820","state":"Ciudad de México","municipality":"La Magdalena Contreras","setelement":"La Guadalupe"},{"postalCode":"10830","state":"Ciudad de México","municipality":"La Magdalena Contreras","setelement":"La Concepción"},{"postalCode":"10840","state":"Ciudad de México","municipality":"La Magdalena Contreras","setelement":"Las Calles"},{"postalCode":"10840","state":"Ciudad de México","municipality":"La Magdalena Contreras","setelement":"Plazuela del Pedregal"},{"postalCode":"10900","state":"Ciudad de México","municipality":"La Magdalena Contreras","setelement":"San Nicolás Totolapan"},{"postalCode":"10910","state":"Ciudad de México","municipality":"La Magdalena Contreras","setelement":"La Magdalena"},{"postalCode":"10920","state":"Ciudad de México","municipality":"La Magdalena Contreras","setelement":"Las Huertas"},{"postalCode":"10926","state":"Ciudad de México","municipality":"La Magdalena Contreras","setelement":"Tierra Colorada"},{"postalCode":"11000","state":"Ciudad de México","municipality":"Miguel Hidalgo","setelement":"Lomas de Chapultepec I Sección"},{"postalCode":"11000","state":"Ciudad de México","municipality":"Miguel Hidalgo","setelement":"Lomas de Chapultepec VIII Sección"},{"postalCode":"11000","state":"Ciudad de México","municipality":"Miguel Hidalgo","setelement":"Lomas de Chapultepec II Sección"},{"postalCode":"11000","state":"Ciudad de México","municipality":"Miguel Hidalgo","setelement":"Lomas de Chapultepec III Sección"},{"postalCode":"11000","state":"Ciudad de México","municipality":"Miguel Hidalgo","setelement":"Lomas de Chapultepec IV Sección"},{"postalCode":"11000","state":"Ciudad de México","municipality":"Miguel Hidalgo","setelement":"Lomas de Chapultepec V Sección"},{"postalCode":"11000","state":"Ciudad de México","municipality":"Miguel Hidalgo","setelement":"Lomas de Chapultepec VI Sección"},{"postalCode":"11000","state":"Ciudad de México","municipality":"Miguel Hidalgo","setelement":"Lomas de Chapultepec VII Sección"},{"postalCode":"11040","state":"Ciudad de México","municipality":"Miguel Hidalgo","setelement":"Molino del Rey"},{"postalCode":"11100","state":"Ciudad de México","municipality":"Miguel Hidalgo","setelement":"Bosque de Chapultepec II Sección"},{"postalCode":"11100","state":"Ciudad de México","municipality":"Miguel Hidalgo","setelement":"Bosque de Chapultepec III Sección"},{"postalCode":"11200","state":"Ciudad de México","municipality":"Miguel Hidalgo","setelement":"Lomas Hermosa"},{"postalCode":"11200","state":"Ciudad de México","municipality":"Miguel Hidalgo","setelement":"Lomas de Sotelo"},{"postalCode":"11210","state":"Ciudad de México","municipality":"Miguel Hidalgo","setelement":"San Lorenzo Tlaltenango"},{"postalCode":"11220","state":"Ciudad de México","municipality":"Miguel Hidalgo","setelement":"Periodista"},{"postalCode":"11230","state":"Ciudad de México","municipality":"Miguel Hidalgo","setelement":"Argentina Poniente"},{"postalCode":"11240","state":"Ciudad de México","municipality":"Miguel Hidalgo","setelement":"Ignacio Manuel Altamirano"},{"postalCode":"11250","state":"Ciudad de México","municipality":"Miguel Hidalgo","setelement":"10 de Abril"},{"postalCode":"11260","state":"Ciudad de México","municipality":"Miguel Hidalgo","setelement":"México Nuevo"},{"postalCode":"11260","state":"Ciudad de México","municipality":"Miguel Hidalgo","setelement":"San Joaquín"},{"postalCode":"11270","state":"Ciudad de México","municipality":"Miguel Hidalgo","setelement":"Argentina Antigua"},{"postalCode":"11280","state":"Ciudad de México","municipality":"Miguel Hidalgo","setelement":"Torre Blanca"},{"postalCode":"11289","state":"Ciudad de México","municipality":"Miguel Hidalgo","setelement":"Ampliación Torre Blanca"},{"postalCode":"11290","state":"Ciudad de México","municipality":"Miguel Hidalgo","setelement":"Huíchapan"},{"postalCode":"11290","state":"Ciudad de México","municipality":"Miguel Hidalgo","setelement":"San Diego Ocoyoacac"},{"postalCode":"11300","state":"Ciudad de México","municipality":"Miguel Hidalgo","setelement":"Verónica Anzures"},{"postalCode":"11310","state":"Ciudad de México","municipality":"Miguel Hidalgo","setelement":"Mariano Escobedo"},{"postalCode":"11320","state":"Ciudad de México","municipality":"Miguel Hidalgo","setelement":"Anáhuac I Sección"},{"postalCode":"11320","state":"Ciudad de México","municipality":"Miguel Hidalgo","setelement":"Anáhuac II Sección"},{"postalCode":"11330","state":"Ciudad de México","municipality":"Miguel Hidalgo","setelement":"Un Hogar Para Nosotros"},{"postalCode":"11340","state":"Ciudad de México","municipality":"Miguel Hidalgo","setelement":"Santo Tomas"},{"postalCode":"11350","state":"Ciudad de México","municipality":"Miguel Hidalgo","setelement":"Plutarco Elías Calles"},{"postalCode":"11360","state":"Ciudad de México","municipality":"Miguel Hidalgo","setelement":"Agricultura"},{"postalCode":"11370","state":"Ciudad de México","municipality":"Miguel Hidalgo","setelement":"Tlaxpana"},{"postalCode":"11400","state":"Ciudad de México","municipality":"Miguel Hidalgo","setelement":"Popotla"},{"postalCode":"11410","state":"Ciudad de México","municipality":"Miguel Hidalgo","setelement":"Legaria"},{"postalCode":"11410","state":"Ciudad de México","municipality":"Miguel Hidalgo","setelement":"Tacuba"},{"postalCode":"11420","state":"Ciudad de México","municipality":"Miguel Hidalgo","setelement":"Nextitla"},{"postalCode":"11430","state":"Ciudad de México","municipality":"Miguel Hidalgo","setelement":"Pensil Norte"},{"postalCode":"11430","state":"Ciudad de México","municipality":"Miguel Hidalgo","setelement":"Ventura Pérez de Alva"},{"postalCode":"11440","state":"Ciudad de México","municipality":"Miguel Hidalgo","setelement":"Reforma Pensil"},{"postalCode":"11440","state":"Ciudad de México","municipality":"Miguel Hidalgo","setelement":"San Juanico"},{"postalCode":"11450","state":"Ciudad de México","municipality":"Miguel Hidalgo","setelement":"Ahuehuetes Anáhuac"},{"postalCode":"11450","state":"Ciudad de México","municipality":"Miguel Hidalgo","setelement":"Modelo Pensil"},{"postalCode":"11450","state":"Ciudad de México","municipality":"Miguel Hidalgo","setelement":"Peralitos"},{"postalCode":"11460","state":"Ciudad de México","municipality":"Miguel Hidalgo","setelement":"Dos Lagos"},{"postalCode":"11460","state":"Ciudad de México","municipality":"Miguel Hidalgo","setelement":"Lago Norte"},{"postalCode":"11460","state":"Ciudad de México","municipality":"Miguel Hidalgo","setelement":"Lago Sur"},{"postalCode":"11460","state":"Ciudad de México","municipality":"Miguel Hidalgo","setelement":"Los Manzanos"},{"postalCode":"11470","state":"Ciudad de México","municipality":"Miguel Hidalgo","setelement":"5 de Mayo"},{"postalCode":"11470","state":"Ciudad de México","municipality":"Miguel Hidalgo","setelement":"Deportivo Pensil"},{"postalCode":"11480","state":"Ciudad de México","municipality":"Miguel Hidalgo","setelement":"Francisco I Madero"},{"postalCode":"11480","state":"Ciudad de México","municipality":"Miguel Hidalgo","setelement":"Popo"},{"postalCode":"11489","state":"Ciudad de México","municipality":"Miguel Hidalgo","setelement":"Ampliación Popo"},{"postalCode":"11490","state":"Ciudad de México","municipality":"Miguel Hidalgo","setelement":"Cuauhtémoc Pensil"},{"postalCode":"11490","state":"Ciudad de México","municipality":"Miguel Hidalgo","setelement":"Pensil Sur"},{"postalCode":"11500","state":"Ciudad de México","municipality":"Miguel Hidalgo","setelement":"Irrigación"},{"postalCode":"11510","state":"Ciudad de México","municipality":"Miguel Hidalgo","setelement":"Polanco I Sección"},{"postalCode":"11520","state":"Ciudad de México","municipality":"Miguel Hidalgo","setelement":"Granada"},{"postalCode":"11529","state":"Ciudad de México","municipality":"Miguel Hidalgo","setelement":"Ampliación Granada"},{"postalCode":"11530","state":"Ciudad de México","municipality":"Miguel Hidalgo","setelement":"Polanco II Sección"},{"postalCode":"11540","state":"Ciudad de México","municipality":"Miguel Hidalgo","setelement":"Polanco III Sección"},{"postalCode":"11550","state":"Ciudad de México","municipality":"Miguel Hidalgo","setelement":"Polanco IV Sección"},{"postalCode":"11560","state":"Ciudad de México","municipality":"Miguel Hidalgo","setelement":"Polanco V Sección"},{"postalCode":"11570","state":"Ciudad de México","municipality":"Miguel Hidalgo","setelement":"Chapultepec Morales"},{"postalCode":"11580","state":"Ciudad de México","municipality":"Miguel Hidalgo","setelement":"Bosque de Chapultepec I Sección"},{"postalCode":"11590","state":"Ciudad de México","municipality":"Miguel Hidalgo","setelement":"Anzures"},{"postalCode":"11600","state":"Ciudad de México","municipality":"Miguel Hidalgo","setelement":"Residencial Militar"},{"postalCode":"11610","state":"Ciudad de México","municipality":"Miguel Hidalgo","setelement":"Manuel Avila Camacho"},{"postalCode":"11619","state":"Ciudad de México","municipality":"Miguel Hidalgo","setelement":"Campo Militar 1"},{"postalCode":"11650","state":"Ciudad de México","municipality":"Miguel Hidalgo","setelement":"Reforma Social"},{"postalCode":"11700","state":"Ciudad de México","municipality":"Miguel Hidalgo","setelement":"Bosque de las Lomas"},{"postalCode":"11800","state":"Ciudad de México","municipality":"Miguel Hidalgo","setelement":"Escandón I Sección"},{"postalCode":"11800","state":"Ciudad de México","municipality":"Miguel Hidalgo","setelement":"Escandón II Sección"},{"postalCode":"11810","state":"Ciudad de México","municipality":"Miguel Hidalgo","setelement":"16 de Septiembre"},{"postalCode":"11820","state":"Ciudad de México","municipality":"Miguel Hidalgo","setelement":"América"},{"postalCode":"11830","state":"Ciudad de México","municipality":"Miguel Hidalgo","setelement":"Daniel Garza"},{"postalCode":"11840","state":"Ciudad de México","municipality":"Miguel Hidalgo","setelement":"Ampliación Daniel Garza"},{"postalCode":"11850","state":"Ciudad de México","municipality":"Miguel Hidalgo","setelement":"San Miguel Chapultepec I Sección"},{"postalCode":"11850","state":"Ciudad de México","municipality":"Miguel Hidalgo","setelement":"San Miguel Chapultepec II Sección"},{"postalCode":"11860","state":"Ciudad de México","municipality":"Miguel Hidalgo","setelement":"Observatorio"},{"postalCode":"11870","state":"Ciudad de México","municipality":"Miguel Hidalgo","setelement":"Tacubaya"},{"postalCode":"11910","state":"Ciudad de México","municipality":"Miguel Hidalgo","setelement":"Lomas de Bezares"},{"postalCode":"11920","state":"Ciudad de México","municipality":"Miguel Hidalgo","setelement":"Real de las Lomas"},{"postalCode":"11930","state":"Ciudad de México","municipality":"Miguel Hidalgo","setelement":"Lomas de Reforma"},{"postalCode":"11950","state":"Ciudad de México","municipality":"Miguel Hidalgo","setelement":"Lomas Altas"},{"postalCode":"12000","state":"Ciudad de México","municipality":"Milpa Alta","setelement":"La Concepción"},{"postalCode":"12000","state":"Ciudad de México","municipality":"Milpa Alta","setelement":"La Luz"},{"postalCode":"12000","state":"Ciudad de México","municipality":"Milpa Alta","setelement":"Los Ángeles"},{"postalCode":"12000","state":"Ciudad de México","municipality":"Milpa Alta","setelement":"San Mateo"},{"postalCode":"12000","state":"Ciudad de México","municipality":"Milpa Alta","setelement":"Santa Cruz"},{"postalCode":"12000","state":"Ciudad de México","municipality":"Milpa Alta","setelement":"Santa Martha"},{"postalCode":"12000","state":"Ciudad de México","municipality":"Milpa Alta","setelement":"Villa Milpa Alta Centro"},{"postalCode":"12070","state":"Ciudad de México","municipality":"Milpa Alta","setelement":"San Agustin"},{"postalCode":"12080","state":"Ciudad de México","municipality":"Milpa Alta","setelement":"San Agustin Ohtenco"},{"postalCode":"12100","state":"Ciudad de México","municipality":"Milpa Alta","setelement":"Cruztitla"},{"postalCode":"12100","state":"Ciudad de México","municipality":"Milpa Alta","setelement":"Tecaxtitla"},{"postalCode":"12100","state":"Ciudad de México","municipality":"Milpa Alta","setelement":"Tenantitla"},{"postalCode":"12100","state":"Ciudad de México","municipality":"Milpa Alta","setelement":"Xaltipac"},{"postalCode":"12100","state":"Ciudad de México","municipality":"Milpa Alta","setelement":"Xochitepec"},{"postalCode":"12110","state":"Ciudad de México","municipality":"Milpa Alta","setelement":"Emiliano Zapata"},{"postalCode":"12110","state":"Ciudad de México","municipality":"Milpa Alta","setelement":"La Conchita"},{"postalCode":"12200","state":"Ciudad de México","municipality":"Milpa Alta","setelement":"Nochtla"},{"postalCode":"12200","state":"Ciudad de México","municipality":"Milpa Alta","setelement":"Ocotitla"},{"postalCode":"12200","state":"Ciudad de México","municipality":"Milpa Alta","setelement":"Panchimalco"},{"postalCode":"12200","state":"Ciudad de México","municipality":"Milpa Alta","setelement":"Tula"},{"postalCode":"12250","state":"Ciudad de México","municipality":"Milpa Alta","setelement":"San Bartolomé Xicomulco"},{"postalCode":"12300","state":"Ciudad de México","municipality":"Milpa Alta","setelement":"San Salvador Cuauhtenco"},{"postalCode":"12400","state":"Ciudad de México","municipality":"Milpa Alta","setelement":"Centro"},{"postalCode":"12400","state":"Ciudad de México","municipality":"Milpa Alta","setelement":"San Juan"},{"postalCode":"12400","state":"Ciudad de México","municipality":"Milpa Alta","setelement":"San Miguel"},{"postalCode":"12410","state":"Ciudad de México","municipality":"Milpa Alta","setelement":"Chalmita"},{"postalCode":"12500","state":"Ciudad de México","municipality":"Milpa Alta","setelement":"San Lorenzo Tlacoyucan"},{"postalCode":"12600","state":"Ciudad de México","municipality":"Milpa Alta","setelement":"San Jerónimo Miacatlán"},{"postalCode":"12700","state":"Ciudad de México","municipality":"Milpa Alta","setelement":"San Francisco Tecoxpa"},{"postalCode":"12800","state":"Ciudad de México","municipality":"Milpa Alta","setelement":"San Juan Tepenahuac"},{"postalCode":"12910","state":"Ciudad de México","municipality":"Milpa Alta","setelement":"La Lupita Teticpac"},{"postalCode":"12920","state":"Ciudad de México","municipality":"Milpa Alta","setelement":"San Marcos"},{"postalCode":"12930","state":"Ciudad de México","municipality":"Milpa Alta","setelement":"San Miguel"},{"postalCode":"12940","state":"Ciudad de México","municipality":"Milpa Alta","setelement":"San José"},{"postalCode":"12950","state":"Ciudad de México","municipality":"Milpa Alta","setelement":"La Lupita Xolco"},{"postalCode":"13000","state":"Ciudad de México","municipality":"Tláhuac","setelement":"La Asunción"},{"postalCode":"13010","state":"Ciudad de México","municipality":"Tláhuac","setelement":"Santa Cecilia"},{"postalCode":"13020","state":"Ciudad de México","municipality":"Tláhuac","setelement":"San José"},{"postalCode":"13030","state":"Ciudad de México","municipality":"Tláhuac","setelement":"San Juan"},{"postalCode":"13040","state":"Ciudad de México","municipality":"Tláhuac","setelement":"San Mateo"},{"postalCode":"13050","state":"Ciudad de México","municipality":"Tláhuac","setelement":"La Habana"},{"postalCode":"13060","state":"Ciudad de México","municipality":"Tláhuac","setelement":"La Guadalupe"},{"postalCode":"13060","state":"Ciudad de México","municipality":"Tláhuac","setelement":"Santa Ana"},{"postalCode":"13070","state":"Ciudad de México","municipality":"Tláhuac","setelement":"La Magdalena"},{"postalCode":"13070","state":"Ciudad de México","municipality":"Tláhuac","setelement":"San Miguel"},{"postalCode":"13080","state":"Ciudad de México","municipality":"Tláhuac","setelement":"Los Reyes"},{"postalCode":"13090","state":"Ciudad de México","municipality":"Tláhuac","setelement":"Quiahuatla"},{"postalCode":"13093","state":"Ciudad de México","municipality":"Tláhuac","setelement":"San Sebastián"},{"postalCode":"13094","state":"Ciudad de México","municipality":"Tláhuac","setelement":"San Isidro"},{"postalCode":"13099","state":"Ciudad de México","municipality":"Tláhuac","setelement":"San Andrés"},{"postalCode":"13100","state":"Ciudad de México","municipality":"Tláhuac","setelement":"La Guadalupe"},{"postalCode":"13120","state":"Ciudad de México","municipality":"Tláhuac","setelement":"Ampliación Santa Catarina"},{"postalCode":"13120","state":"Ciudad de México","municipality":"Tláhuac","setelement":"Santiago"},{"postalCode":"13150","state":"Ciudad de México","municipality":"Tláhuac","setelement":"La Concepción"},{"postalCode":"13180","state":"Ciudad de México","municipality":"Tláhuac","setelement":"San Miguel"},{"postalCode":"13200","state":"Ciudad de México","municipality":"Tláhuac","setelement":"Miguel Hidalgo"},{"postalCode":"13210","state":"Ciudad de México","municipality":"Tláhuac","setelement":"Los Olivos"},{"postalCode":"13219","state":"Ciudad de México","municipality":"Tláhuac","setelement":"Las Arboledas"},{"postalCode":"13219","state":"Ciudad de México","municipality":"Tláhuac","setelement":"Ampliación Los Olivos"},{"postalCode":"13220","state":"Ciudad de México","municipality":"Tláhuac","setelement":"La Nopalera"},{"postalCode":"13230","state":"Ciudad de México","municipality":"Tláhuac","setelement":"Granjas Cabrera"},{"postalCode":"13250","state":"Ciudad de México","municipality":"Tláhuac","setelement":"La Turba"},{"postalCode":"13270","state":"Ciudad de México","municipality":"Tláhuac","setelement":"Del Mar"},{"postalCode":"13273","state":"Ciudad de México","municipality":"Tláhuac","setelement":"La Draga"},{"postalCode":"13278","state":"Ciudad de México","municipality":"Tláhuac","setelement":"Villa Centroamericana"},{"postalCode":"13280","state":"Ciudad de México","municipality":"Tláhuac","setelement":"Agrícola Metropolitana"},{"postalCode":"13300","state":"Ciudad de México","municipality":"Tláhuac","setelement":"Santa Ana Centro"},{"postalCode":"13300","state":"Ciudad de México","municipality":"Tláhuac","setelement":"Santiago Centro"},{"postalCode":"13300","state":"Ciudad de México","municipality":"Tláhuac","setelement":"Santa Ana Poniente"},{"postalCode":"13300","state":"Ciudad de México","municipality":"Tláhuac","setelement":"Santa Ana Norte"},{"postalCode":"13300","state":"Ciudad de México","municipality":"Tláhuac","setelement":"Santiago Norte"},{"postalCode":"13310","state":"Ciudad de México","municipality":"Tláhuac","setelement":"Zapotitla"},{"postalCode":"13315","state":"Ciudad de México","municipality":"Tláhuac","setelement":"Ampliación Zapotitla"},{"postalCode":"13319","state":"Ciudad de México","municipality":"Tláhuac","setelement":"La Estación"},{"postalCode":"13360","state":"Ciudad de México","municipality":"Tláhuac","setelement":"La Conchita Zapotitlán"},{"postalCode":"13360","state":"Ciudad de México","municipality":"Tláhuac","setelement":"Santa Ana Sur"},{"postalCode":"13360","state":"Ciudad de México","municipality":"Tláhuac","setelement":"Santiago Sur"},{"postalCode":"13400","state":"Ciudad de México","municipality":"Tláhuac","setelement":"San Francisco Tlaltenco"},{"postalCode":"13410","state":"Ciudad de México","municipality":"Tláhuac","setelement":"López Portillo"},{"postalCode":"13419","state":"Ciudad de México","municipality":"Tláhuac","setelement":"Ampliación José López Portillo"},{"postalCode":"13420","state":"Ciudad de México","municipality":"Tláhuac","setelement":"Selene"},{"postalCode":"13430","state":"Ciudad de México","municipality":"Tláhuac","setelement":"Ampliación Selene"},{"postalCode":"13440","state":"Ciudad de México","municipality":"Tláhuac","setelement":"Zacatenco"},{"postalCode":"13450","state":"Ciudad de México","municipality":"Tláhuac","setelement":"Guadalupe Tlaltenco"},{"postalCode":"13450","state":"Ciudad de México","municipality":"Tláhuac","setelement":"Ojo de Agua"},{"postalCode":"13460","state":"Ciudad de México","municipality":"Tláhuac","setelement":"El Triángulo"},{"postalCode":"13508","state":"Ciudad de México","municipality":"Tláhuac","setelement":"San Agustín"},{"postalCode":"13508","state":"Ciudad de México","municipality":"Tláhuac","setelement":"La Soledad"},{"postalCode":"13509","state":"Ciudad de México","municipality":"Tláhuac","setelement":"La Concepción"},{"postalCode":"13510","state":"Ciudad de México","municipality":"Tláhuac","setelement":"La Lupita"},{"postalCode":"13520","state":"Ciudad de México","municipality":"Tláhuac","setelement":"Francisco Villa"},{"postalCode":"13530","state":"Ciudad de México","municipality":"Tláhuac","setelement":"Jaime Torres Bodet"},{"postalCode":"13530","state":"Ciudad de México","municipality":"Tláhuac","setelement":"La Asunción"},{"postalCode":"13540","state":"Ciudad de México","municipality":"Tláhuac","setelement":"El Rosario"},{"postalCode":"13540","state":"Ciudad de México","municipality":"Tláhuac","setelement":"Tierra Blanca"},{"postalCode":"13545","state":"Ciudad de México","municipality":"Tláhuac","setelement":"Ampliación La Conchita"},{"postalCode":"13549","state":"Ciudad de México","municipality":"Tláhuac","setelement":"Peña Alta"},{"postalCode":"13550","state":"Ciudad de México","municipality":"Tláhuac","setelement":"Jardines del Llano"},{"postalCode":"13550","state":"Ciudad de México","municipality":"Tláhuac","setelement":"Potrero del Llano"},{"postalCode":"13600","state":"Ciudad de México","municipality":"Tláhuac","setelement":"San Bartolomé"},{"postalCode":"13610","state":"Ciudad de México","municipality":"Tláhuac","setelement":"Los Reyes"},{"postalCode":"13625","state":"Ciudad de México","municipality":"Tláhuac","setelement":"Santa Cruz"},{"postalCode":"13630","state":"Ciudad de México","municipality":"Tláhuac","setelement":"San Agustín"},{"postalCode":"13640","state":"Ciudad de México","municipality":"Tláhuac","setelement":"San Miguel"},{"postalCode":"13700","state":"Ciudad de México","municipality":"Tláhuac","setelement":"San Nicolás Tetelco"},{"postalCode":"13700","state":"Ciudad de México","municipality":"Tláhuac","setelement":"Tepantitlamilco"},{"postalCode":"14000","state":"Ciudad de México","municipality":"Tlalpan","setelement":"Tlalpan Centro"},{"postalCode":"14000","state":"Ciudad de México","municipality":"Tlalpan","setelement":"Tlalpan"},{"postalCode":"14010","state":"Ciudad de México","municipality":"Tlalpan","setelement":"Parque del Pedregal"},{"postalCode":"14020","state":"Ciudad de México","municipality":"Tlalpan","setelement":"Villa Olímpica"},{"postalCode":"14030","state":"Ciudad de México","municipality":"Tlalpan","setelement":"Isidro Fabela"},{"postalCode":"14039","state":"Ciudad de México","municipality":"Tlalpan","setelement":"Ampliación Isidro Fabela"},{"postalCode":"14040","state":"Ciudad de México","municipality":"Tlalpan","setelement":"Cantera Puente de Piedra"},{"postalCode":"14040","state":"Ciudad de México","municipality":"Tlalpan","setelement":"Pueblo Quieto"},{"postalCode":"14049","state":"Ciudad de México","municipality":"Tlalpan","setelement":"Comuneros de Santa Úrsula"},{"postalCode":"14050","state":"Ciudad de México","municipality":"Tlalpan","setelement":"Toriello Guerra"},{"postalCode":"14060","state":"Ciudad de México","municipality":"Tlalpan","setelement":"Peña Pobre"},{"postalCode":"14070","state":"Ciudad de México","municipality":"Tlalpan","setelement":"Rómulo Sánchez Mireles"},{"postalCode":"14070","state":"Ciudad de México","municipality":"Tlalpan","setelement":"San Fernando"},{"postalCode":"14070","state":"Ciudad de México","municipality":"Tlalpan","setelement":"San Pedro Apóstol"},{"postalCode":"14080","state":"Ciudad de México","municipality":"Tlalpan","setelement":"Belisario Domínguez Sección XVI"},{"postalCode":"14080","state":"Ciudad de México","municipality":"Tlalpan","setelement":"Del Niño Jesús"},{"postalCode":"14090","state":"Ciudad de México","municipality":"Tlalpan","setelement":"La Joya"},{"postalCode":"14100","state":"Ciudad de México","municipality":"Tlalpan","setelement":"Pedregal de San Nicolás 1A Sección"},{"postalCode":"14100","state":"Ciudad de México","municipality":"Tlalpan","setelement":"Pedregal de San Nicolás 2A Sección"},{"postalCode":"14100","state":"Ciudad de México","municipality":"Tlalpan","setelement":"Pedregal de San Nicolás 3A Sección"},{"postalCode":"14100","state":"Ciudad de México","municipality":"Tlalpan","setelement":"Pedregal de San Nicolás 4A Sección"},{"postalCode":"14100","state":"Ciudad de México","municipality":"Tlalpan","setelement":"Pedregal de San Nicolás 5ª Sección"},{"postalCode":"14108","state":"Ciudad de México","municipality":"Tlalpan","setelement":"Chichicaspatl"},{"postalCode":"14110","state":"Ciudad de México","municipality":"Tlalpan","setelement":"Ampliación Fuentes del Pedregal"},{"postalCode":"14120","state":"Ciudad de México","municipality":"Tlalpan","setelement":"Rincón del Pedregal"},{"postalCode":"14140","state":"Ciudad de México","municipality":"Tlalpan","setelement":"Fuentes del Pedregal"},{"postalCode":"14150","state":"Ciudad de México","municipality":"Tlalpan","setelement":"Lomas del Pedregal Framboyanes"},{"postalCode":"14160","state":"Ciudad de México","municipality":"Tlalpan","setelement":"Popular Santa Teresa"},{"postalCode":"14200","state":"Ciudad de México","municipality":"Tlalpan","setelement":"Héroes de Padierna"},{"postalCode":"14200","state":"Ciudad de México","municipality":"Tlalpan","setelement":"Jardines del Ajusco"},{"postalCode":"14208","state":"Ciudad de México","municipality":"Tlalpan","setelement":"Colinas del Ajusco"},{"postalCode":"14209","state":"Ciudad de México","municipality":"Tlalpan","setelement":"Torres de Padierna"},{"postalCode":"14210","state":"Ciudad de México","municipality":"Tlalpan","setelement":"Jardines en la Montaña"},{"postalCode":"14219","state":"Ciudad de México","municipality":"Tlalpan","setelement":"Six Flags (Reino Aventura)"},{"postalCode":"14219","state":"Ciudad de México","municipality":"Tlalpan","setelement":"Parque Nacional Bosque del Pedregal"},{"postalCode":"14220","state":"Ciudad de México","municipality":"Tlalpan","setelement":"Cuchilla de Padierna"},{"postalCode":"14220","state":"Ciudad de México","municipality":"Tlalpan","setelement":"Lomas del Pedregal"},{"postalCode":"14230","state":"Ciudad de México","municipality":"Tlalpan","setelement":"Cultura Maya"},{"postalCode":"14239","state":"Ciudad de México","municipality":"Tlalpan","setelement":"Los Encinos"},{"postalCode":"14240","state":"Ciudad de México","municipality":"Tlalpan","setelement":"Lomas de Padierna"},{"postalCode":"14240","state":"Ciudad de México","municipality":"Tlalpan","setelement":"Lomas Hidalgo"},{"postalCode":"14248","state":"Ciudad de México","municipality":"Tlalpan","setelement":"Cruz del Farol"},{"postalCode":"14250","state":"Ciudad de México","municipality":"Tlalpan","setelement":"Miguel Hidalgo 2A Sección"},{"postalCode":"14250","state":"Ciudad de México","municipality":"Tlalpan","setelement":"Miguel Hidalgo 3A Sección"},{"postalCode":"14250","state":"Ciudad de México","municipality":"Tlalpan","setelement":"Miguel Hidalgo 4A Sección"},{"postalCode":"14250","state":"Ciudad de México","municipality":"Tlalpan","setelement":"Miguel Hidalgo"},{"postalCode":"14260","state":"Ciudad de México","municipality":"Tlalpan","setelement":"El Capulín"},{"postalCode":"14260","state":"Ciudad de México","municipality":"Tlalpan","setelement":"Miguel Hidalgo 1A Sección"},{"postalCode":"14266","state":"Ciudad de México","municipality":"Tlalpan","setelement":"Zacayucan Peña Pobre"},{"postalCode":"14267","state":"Ciudad de México","municipality":"Tlalpan","setelement":"De Caramagüey"},{"postalCode":"14268","state":"Ciudad de México","municipality":"Tlalpan","setelement":"La Lonja"},{"postalCode":"14269","state":"Ciudad de México","municipality":"Tlalpan","setelement":"La Fama"},{"postalCode":"14270","state":"Ciudad de México","municipality":"Tlalpan","setelement":"Primavera"},{"postalCode":"14270","state":"Ciudad de México","municipality":"Tlalpan","setelement":"Verano"},{"postalCode":"14275","state":"Ciudad de México","municipality":"Tlalpan","setelement":"Paraje 38"},{"postalCode":"14300","state":"Ciudad de México","municipality":"Tlalpan","setelement":"Nueva Oriental Coapa"},{"postalCode":"14300","state":"Ciudad de México","municipality":"Tlalpan","setelement":"Residencial Acoxpa"},{"postalCode":"14300","state":"Ciudad de México","municipality":"Tlalpan","setelement":"Residencial Miramontes"},{"postalCode":"14308","state":"Ciudad de México","municipality":"Tlalpan","setelement":"Ex Hacienda Coapa"},{"postalCode":"14310","state":"Ciudad de México","municipality":"Tlalpan","setelement":"Belisario Domínguez"},{"postalCode":"14310","state":"Ciudad de México","municipality":"Tlalpan","setelement":"Floresta Coyoacán"},{"postalCode":"14320","state":"Ciudad de México","municipality":"Tlalpan","setelement":"Vergel Coapa"},{"postalCode":"14325","state":"Ciudad de México","municipality":"Tlalpan","setelement":"Rinconada Coapa 2A Sección"},{"postalCode":"14326","state":"Ciudad de México","municipality":"Tlalpan","setelement":"Tenorios"},{"postalCode":"14330","state":"Ciudad de México","municipality":"Tlalpan","setelement":"Granjas Coapa"},{"postalCode":"14330","state":"Ciudad de México","municipality":"Tlalpan","setelement":"Rinconada Coapa 1A Sección"},{"postalCode":"14340","state":"Ciudad de México","municipality":"Tlalpan","setelement":"Vergel de Coyoacán"},{"postalCode":"14340","state":"Ciudad de México","municipality":"Tlalpan","setelement":"Vergel del Sur"},{"postalCode":"14350","state":"Ciudad de México","municipality":"Tlalpan","setelement":"Prado Coapa 1A Sección"},{"postalCode":"14357","state":"Ciudad de México","municipality":"Tlalpan","setelement":"Prado Coapa 2A Sección"},{"postalCode":"14357","state":"Ciudad de México","municipality":"Tlalpan","setelement":"Prado Coapa 3A Sección"},{"postalCode":"14360","state":"Ciudad de México","municipality":"Tlalpan","setelement":"Magisterial"},{"postalCode":"14360","state":"Ciudad de México","municipality":"Tlalpan","setelement":"Magisterial Coapa"},{"postalCode":"14370","state":"Ciudad de México","municipality":"Tlalpan","setelement":"Residencial Chimali"},{"postalCode":"14370","state":"Ciudad de México","municipality":"Tlalpan","setelement":"San Lorenzo Huipulco"},{"postalCode":"14370","state":"Ciudad de México","municipality":"Tlalpan","setelement":"Villa Lázaro Cárdenas"},{"postalCode":"14376","state":"Ciudad de México","municipality":"Tlalpan","setelement":"Arboledas del Sur"},{"postalCode":"14377","state":"Ciudad de México","municipality":"Tlalpan","setelement":"Hacienda San Juan"},{"postalCode":"14380","state":"Ciudad de México","municipality":"Tlalpan","setelement":"A.M.S.A"},{"postalCode":"14380","state":"Ciudad de México","municipality":"Tlalpan","setelement":"San Bartolo El Chico"},{"postalCode":"14386","state":"Ciudad de México","municipality":"Tlalpan","setelement":"Rancho los Colorines"},{"postalCode":"14387","state":"Ciudad de México","municipality":"Tlalpan","setelement":"Ex Hacienda San Juan de Dios"},{"postalCode":"14388","state":"Ciudad de México","municipality":"Tlalpan","setelement":"Guadalupe"},{"postalCode":"14389","state":"Ciudad de México","municipality":"Tlalpan","setelement":"Arenal de Guadalupe"},{"postalCode":"14390","state":"Ciudad de México","municipality":"Tlalpan","setelement":"Rinconada Las Hadas"},{"postalCode":"14390","state":"Ciudad de México","municipality":"Tlalpan","setelement":"Narciso Mendoza"},{"postalCode":"14390","state":"Ciudad de México","municipality":"Tlalpan","setelement":"Residencial Villa Coapa"},{"postalCode":"14390","state":"Ciudad de México","municipality":"Tlalpan","setelement":"Villa Coapa"},{"postalCode":"14400","state":"Ciudad de México","municipality":"Tlalpan","setelement":"San Andrés Totoltepec"},{"postalCode":"14406","state":"Ciudad de México","municipality":"Tlalpan","setelement":"Divisadero"},{"postalCode":"14408","state":"Ciudad de México","municipality":"Tlalpan","setelement":"Nuevo Renacimiento de Axalco"},{"postalCode":"14409","state":"Ciudad de México","municipality":"Tlalpan","setelement":"Tecorral"},{"postalCode":"14410","state":"Ciudad de México","municipality":"Tlalpan","setelement":"Bosques de Tepeximilpa"},{"postalCode":"14410","state":"Ciudad de México","municipality":"Tlalpan","setelement":"Fuentes Brotantes"},{"postalCode":"14420","state":"Ciudad de México","municipality":"Tlalpan","setelement":"Cumbres de Tepetongo"},{"postalCode":"14420","state":"Ciudad de México","municipality":"Tlalpan","setelement":"Mesa de los Hornos"},{"postalCode":"14420","state":"Ciudad de México","municipality":"Tlalpan","setelement":"Santa Úrsula Xitla"},{"postalCode":"14426","state":"Ciudad de México","municipality":"Tlalpan","setelement":"Texcaltenco"},{"postalCode":"14426","state":"Ciudad de México","municipality":"Tlalpan","setelement":"Tlaxcaltenco la Mesa"},{"postalCode":"14427","state":"Ciudad de México","municipality":"Tlalpan","setelement":"San Juan Tepeximilpa"},{"postalCode":"14427","state":"Ciudad de México","municipality":"Tlalpan","setelement":"Tepeximilpa la Paz"},{"postalCode":"14429","state":"Ciudad de México","municipality":"Tlalpan","setelement":"Santísima Trinidad"},{"postalCode":"14430","state":"Ciudad de México","municipality":"Tlalpan","setelement":"El Truenito"},{"postalCode":"14430","state":"Ciudad de México","municipality":"Tlalpan","setelement":"Tlalcoligia"},{"postalCode":"14438","state":"Ciudad de México","municipality":"Tlalpan","setelement":"Pedregal de Santa Úrsula Xitla"},{"postalCode":"14439","state":"Ciudad de México","municipality":"Tlalpan","setelement":"Pedregal de las Águilas"},{"postalCode":"14440","state":"Ciudad de México","municipality":"Tlalpan","setelement":"Los Volcanes"},{"postalCode":"14449","state":"Ciudad de México","municipality":"Tlalpan","setelement":"El Mirador 1A Sección"},{"postalCode":"14449","state":"Ciudad de México","municipality":"Tlalpan","setelement":"El Mirador 2A Sección"},{"postalCode":"14449","state":"Ciudad de México","municipality":"Tlalpan","setelement":"El Mirador 3A Sección"},{"postalCode":"14460","state":"Ciudad de México","municipality":"Tlalpan","setelement":"Tlalpuente"},{"postalCode":"14470","state":"Ciudad de México","municipality":"Tlalpan","setelement":"Plan de Ayala"},{"postalCode":"14476","state":"Ciudad de México","municipality":"Tlalpan","setelement":"La Palma"},{"postalCode":"14479","state":"Ciudad de México","municipality":"Tlalpan","setelement":"Viveros Coatectlán"},{"postalCode":"14480","state":"Ciudad de México","municipality":"Tlalpan","setelement":"La Magdalena Petlacalco"},{"postalCode":"14490","state":"Ciudad de México","municipality":"Tlalpan","setelement":"San Miguel Xicalco"},{"postalCode":"14500","state":"Ciudad de México","municipality":"Tlalpan","setelement":"San Miguel Topilejo"},{"postalCode":"14600","state":"Ciudad de México","municipality":"Tlalpan","setelement":"Valle Escondido"},{"postalCode":"14608","state":"Ciudad de México","municipality":"Tlalpan","setelement":"Colinas del Bosque"},{"postalCode":"14609","state":"Ciudad de México","municipality":"Tlalpan","setelement":"Las Tórtolas"},{"postalCode":"14610","state":"Ciudad de México","municipality":"Tlalpan","setelement":"Arenal Tepepan"},{"postalCode":"14620","state":"Ciudad de México","municipality":"Tlalpan","setelement":"Club de Golf México"},{"postalCode":"14629","state":"Ciudad de México","municipality":"Tlalpan","setelement":"San Buenaventura"},{"postalCode":"14630","state":"Ciudad de México","municipality":"Tlalpan","setelement":"Chimalcoyoc"},{"postalCode":"14630","state":"Ciudad de México","municipality":"Tlalpan","setelement":"Villa Tlalpan"},{"postalCode":"14640","state":"Ciudad de México","municipality":"Tlalpan","setelement":"Ejidos de San Pedro Mártir"},{"postalCode":"14643","state":"Ciudad de México","municipality":"Tlalpan","setelement":"Fuentes de Tepepan"},{"postalCode":"14646","state":"Ciudad de México","municipality":"Tlalpan","setelement":"Valle de Tepepan"},{"postalCode":"14647","state":"Ciudad de México","municipality":"Tlalpan","setelement":"Juventud Unida"},{"postalCode":"14647","state":"Ciudad de México","municipality":"Tlalpan","setelement":"Movimiento Organizado de Tlalpan"},{"postalCode":"14647","state":"Ciudad de México","municipality":"Tlalpan","setelement":"Rinconada El Mirador"},{"postalCode":"14650","state":"Ciudad de México","municipality":"Tlalpan","setelement":"San Pedro Mártir"},{"postalCode":"14653","state":"Ciudad de México","municipality":"Tlalpan","setelement":"Heróico Colegio Militar"},{"postalCode":"14655","state":"Ciudad de México","municipality":"Tlalpan","setelement":"Valle Verde"},{"postalCode":"14657","state":"Ciudad de México","municipality":"Tlalpan","setelement":"Tlalmille"},{"postalCode":"14658","state":"Ciudad de México","municipality":"Tlalpan","setelement":"Mirador del Valle"},{"postalCode":"14659","state":"Ciudad de México","municipality":"Tlalpan","setelement":"María Esther Zuno de Echeverría"},{"postalCode":"14700","state":"Ciudad de México","municipality":"Tlalpan","setelement":"San Miguel Ajusco"},{"postalCode":"14710","state":"Ciudad de México","municipality":"Tlalpan","setelement":"Santo Tomas Ajusco"},{"postalCode":"14720","state":"Ciudad de México","municipality":"Tlalpan","setelement":"Belvedere Ajusco"},{"postalCode":"14730","state":"Ciudad de México","municipality":"Tlalpan","setelement":"Lomas de Cuilotepec"},{"postalCode":"14734","state":"Ciudad de México","municipality":"Tlalpan","setelement":"El Zacatón"},{"postalCode":"14735","state":"Ciudad de México","municipality":"Tlalpan","setelement":"Lomas de Tepemecatl"},{"postalCode":"14737","state":"Ciudad de México","municipality":"Tlalpan","setelement":"Vistas del Pedregal"},{"postalCode":"14738","state":"Ciudad de México","municipality":"Tlalpan","setelement":"Bosques del Pedregal"},{"postalCode":"14739","state":"Ciudad de México","municipality":"Tlalpan","setelement":"2 de Octubre"},{"postalCode":"14740","state":"Ciudad de México","municipality":"Tlalpan","setelement":"Lomas de Padierna Sur"},{"postalCode":"14748","state":"Ciudad de México","municipality":"Tlalpan","setelement":"Mirador I"},{"postalCode":"14748","state":"Ciudad de México","municipality":"Tlalpan","setelement":"Mirador II"},{"postalCode":"14749","state":"Ciudad de México","municipality":"Tlalpan","setelement":"Chimilli"},{"postalCode":"14760","state":"Ciudad de México","municipality":"Tlalpan","setelement":"Héroes de 1910"},{"postalCode":"14900","state":"Ciudad de México","municipality":"Tlalpan","setelement":"Parres El Guarda"},{"postalCode":"15000","state":"Ciudad de México","municipality":"Venustiano Carranza","setelement":"General Ignacio Zaragoza"},{"postalCode":"15010","state":"Ciudad de México","municipality":"Venustiano Carranza","setelement":"Valentín Gómez Farias"},{"postalCode":"15020","state":"Ciudad de México","municipality":"Venustiano Carranza","setelement":"Puebla"},{"postalCode":"15100","state":"Ciudad de México","municipality":"Venustiano Carranza","setelement":"Zona Centro"},{"postalCode":"15200","state":"Ciudad de México","municipality":"Venustiano Carranza","setelement":"Janitzio"},{"postalCode":"15210","state":"Ciudad de México","municipality":"Venustiano Carranza","setelement":"Valle Gómez"},{"postalCode":"15220","state":"Ciudad de México","municipality":"Venustiano Carranza","setelement":"Nicolás Bravo"},{"postalCode":"15220","state":"Ciudad de México","municipality":"Venustiano Carranza","setelement":"Popular Rastro"},{"postalCode":"15230","state":"Ciudad de México","municipality":"Venustiano Carranza","setelement":"Emilio Carranza"},{"postalCode":"15240","state":"Ciudad de México","municipality":"Venustiano Carranza","setelement":"Michoacana"},{"postalCode":"15250","state":"Ciudad de México","municipality":"Venustiano Carranza","setelement":"Ampliación Michoacana"},{"postalCode":"15260","state":"Ciudad de México","municipality":"Venustiano Carranza","setelement":"Ampliación 20 de Noviembre"},{"postalCode":"15270","state":"Ciudad de México","municipality":"Venustiano Carranza","setelement":"Morelos"},{"postalCode":"15280","state":"Ciudad de México","municipality":"Venustiano Carranza","setelement":"Penitenciaria"},{"postalCode":"15290","state":"Ciudad de México","municipality":"Venustiano Carranza","setelement":"10 de Mayo"},{"postalCode":"15300","state":"Ciudad de México","municipality":"Venustiano Carranza","setelement":"20 de Noviembre"},{"postalCode":"15309","state":"Ciudad de México","municipality":"Venustiano Carranza","setelement":"5o Tramo 20 de Noviembre"},{"postalCode":"15310","state":"Ciudad de México","municipality":"Venustiano Carranza","setelement":"Felipe Ángeles"},{"postalCode":"15320","state":"Ciudad de México","municipality":"Venustiano Carranza","setelement":"Azteca"},{"postalCode":"15330","state":"Ciudad de México","municipality":"Venustiano Carranza","setelement":"Tres Mosqueteros"},{"postalCode":"15339","state":"Ciudad de México","municipality":"Venustiano Carranza","setelement":"Ampliación Venustiano Carranza"},{"postalCode":"15340","state":"Ciudad de México","municipality":"Venustiano Carranza","setelement":"Venustiano Carranza"},{"postalCode":"15350","state":"Ciudad de México","municipality":"Venustiano Carranza","setelement":"Ampliación Penitenciaria"},{"postalCode":"15370","state":"Ciudad de México","municipality":"Venustiano Carranza","setelement":"Progresista"},{"postalCode":"15380","state":"Ciudad de México","municipality":"Venustiano Carranza","setelement":"Escuela de Tiro"},{"postalCode":"15390","state":"Ciudad de México","municipality":"Venustiano Carranza","setelement":"7 de Julio"},{"postalCode":"15400","state":"Ciudad de México","municipality":"Venustiano Carranza","setelement":"Romero Rubio"},{"postalCode":"15410","state":"Ciudad de México","municipality":"Venustiano Carranza","setelement":"Simón Bolívar"},{"postalCode":"15420","state":"Ciudad de México","municipality":"Venustiano Carranza","setelement":"Ampliación Simón Bolívar"},{"postalCode":"15430","state":"Ciudad de México","municipality":"Venustiano Carranza","setelement":"Aquiles Serdán"},{"postalCode":"15440","state":"Ciudad de México","municipality":"Venustiano Carranza","setelement":"1° de Mayo"},{"postalCode":"15450","state":"Ciudad de México","municipality":"Venustiano Carranza","setelement":"Damián Carmona"},{"postalCode":"15460","state":"Ciudad de México","municipality":"Venustiano Carranza","setelement":"Revolución"},{"postalCode":"15470","state":"Ciudad de México","municipality":"Venustiano Carranza","setelement":"Miguel Hidalgo"},{"postalCode":"15500","state":"Ciudad de México","municipality":"Venustiano Carranza","setelement":"Moctezuma 1a Sección"},{"postalCode":"15510","state":"Ciudad de México","municipality":"Venustiano Carranza","setelement":"Pensador Mexicano"},{"postalCode":"15520","state":"Ciudad de México","municipality":"Venustiano Carranza","setelement":"Peñón de los Baños"},{"postalCode":"15530","state":"Ciudad de México","municipality":"Venustiano Carranza","setelement":"Moctezuma 2a Sección"},{"postalCode":"15540","state":"Ciudad de México","municipality":"Venustiano Carranza","setelement":"Santa Cruz Aviación"},{"postalCode":"15600","state":"Ciudad de México","municipality":"Venustiano Carranza","setelement":"Arenal 1a Sección"},{"postalCode":"15610","state":"Ciudad de México","municipality":"Venustiano Carranza","setelement":"Cuchilla Pantitlán"},{"postalCode":"15620","state":"Ciudad de México","municipality":"Venustiano Carranza","setelement":"México (Lic. Benito Juárez)"},{"postalCode":"15630","state":"Ciudad de México","municipality":"Venustiano Carranza","setelement":"Caracol"},{"postalCode":"15640","state":"Ciudad de México","municipality":"Venustiano Carranza","setelement":"Arenal 4a Sección"},{"postalCode":"15640","state":"Ciudad de México","municipality":"Venustiano Carranza","setelement":"Arenal Puerto Aéreo"},{"postalCode":"15650","state":"Ciudad de México","municipality":"Venustiano Carranza","setelement":"Ampliación Caracol"},{"postalCode":"15660","state":"Ciudad de México","municipality":"Venustiano Carranza","setelement":"Arenal 3a Sección"},{"postalCode":"15670","state":"Ciudad de México","municipality":"Venustiano Carranza","setelement":"Adolfo López Mateos"},{"postalCode":"15680","state":"Ciudad de México","municipality":"Venustiano Carranza","setelement":"Arenal 2a Sección"},{"postalCode":"15700","state":"Ciudad de México","municipality":"Venustiano Carranza","setelement":"Federal"},{"postalCode":"15710","state":"Ciudad de México","municipality":"Venustiano Carranza","setelement":"Industrial Puerto Aéreo"},{"postalCode":"15730","state":"Ciudad de México","municipality":"Venustiano Carranza","setelement":"4 Árboles"},{"postalCode":"15740","state":"Ciudad de México","municipality":"Venustiano Carranza","setelement":"Aviación Civil"},{"postalCode":"15750","state":"Ciudad de México","municipality":"Venustiano Carranza","setelement":"Ampliación Aviación Civil"},{"postalCode":"15800","state":"Ciudad de México","municipality":"Venustiano Carranza","setelement":"Jamaica"},{"postalCode":"15810","state":"Ciudad de México","municipality":"Venustiano Carranza","setelement":"Merced Balbuena"},{"postalCode":"15820","state":"Ciudad de México","municipality":"Venustiano Carranza","setelement":"Lorenzo Boturini"},{"postalCode":"15830","state":"Ciudad de México","municipality":"Venustiano Carranza","setelement":"Artes Gráficas"},{"postalCode":"15840","state":"Ciudad de México","municipality":"Venustiano Carranza","setelement":"Sevilla"},{"postalCode":"15850","state":"Ciudad de México","municipality":"Venustiano Carranza","setelement":"Magdalena Mixiuhca"},{"postalCode":"15860","state":"Ciudad de México","municipality":"Venustiano Carranza","setelement":"La Magdalena Mixiuhca"},{"postalCode":"15870","state":"Ciudad de México","municipality":"Venustiano Carranza","setelement":"Aarón Sáenz"},{"postalCode":"15900","state":"Ciudad de México","municipality":"Venustiano Carranza","setelement":"Jardín Balbuena"},{"postalCode":"15960","state":"Ciudad de México","municipality":"Venustiano Carranza","setelement":"Del Parque"},{"postalCode":"15970","state":"Ciudad de México","municipality":"Venustiano Carranza","setelement":"Aeronáutica Militar"},{"postalCode":"15980","state":"Ciudad de México","municipality":"Venustiano Carranza","setelement":"24 de Abril"},{"postalCode":"15990","state":"Ciudad de México","municipality":"Venustiano Carranza","setelement":"Álvaro Obregón"},{"postalCode":"16000","state":"Ciudad de México","municipality":"Xochimilco","setelement":"La Concepción Tlacoapa"},{"postalCode":"16000","state":"Ciudad de México","municipality":"Xochimilco","setelement":"San Antonio"},{"postalCode":"16000","state":"Ciudad de México","municipality":"Xochimilco","setelement":"San Juan"},{"postalCode":"16010","state":"Ciudad de México","municipality":"Xochimilco","setelement":"Bosque Residencial del Sur"},{"postalCode":"16010","state":"Ciudad de México","municipality":"Xochimilco","setelement":"Las Peritas"},{"postalCode":"16010","state":"Ciudad de México","municipality":"Xochimilco","setelement":"Paseos del Sur"},{"postalCode":"16010","state":"Ciudad de México","municipality":"Xochimilco","setelement":"San Bartolo El Chico"},{"postalCode":"16020","state":"Ciudad de México","municipality":"Xochimilco","setelement":"San Juan Tepepan"},{"postalCode":"16020","state":"Ciudad de México","municipality":"Xochimilco","setelement":"Santa María Tepepan"},{"postalCode":"16029","state":"Ciudad de México","municipality":"Xochimilco","setelement":"Ampliación Tepepan"},{"postalCode":"16030","state":"Ciudad de México","municipality":"Xochimilco","setelement":"Huichapan"},{"postalCode":"16030","state":"Ciudad de México","municipality":"Xochimilco","setelement":"La Noria"},{"postalCode":"16030","state":"Ciudad de México","municipality":"Xochimilco","setelement":"Potrero de San Bernardino"},{"postalCode":"16030","state":"Ciudad de México","municipality":"Xochimilco","setelement":"Ampliación La Noria"},{"postalCode":"16034","state":"Ciudad de México","municipality":"Xochimilco","setelement":"18"},{"postalCode":"16035","state":"Ciudad de México","municipality":"Xochimilco","setelement":"San Lorenzo La Cebada"},{"postalCode":"16035","state":"Ciudad de México","municipality":"Xochimilco","setelement":"Rinconada Coapa"},{"postalCode":"16036","state":"Ciudad de México","municipality":"Xochimilco","setelement":"Mercado de Flores Plantas y Hortalizas"},{"postalCode":"16038","state":"Ciudad de México","municipality":"Xochimilco","setelement":"Ampliación San Marcos Norte"},{"postalCode":"16040","state":"Ciudad de México","municipality":"Xochimilco","setelement":"La Asunción"},{"postalCode":"16040","state":"Ciudad de México","municipality":"Xochimilco","setelement":"San Lorenzo"},{"postalCode":"16050","state":"Ciudad de México","municipality":"Xochimilco","setelement":"Jardines del Sur"},{"postalCode":"16050","state":"Ciudad de México","municipality":"Xochimilco","setelement":"San Marcos"},{"postalCode":"16050","state":"Ciudad de México","municipality":"Xochimilco","setelement":"Tierra Nueva"},{"postalCode":"16059","state":"Ciudad de México","municipality":"Xochimilco","setelement":"Pblo. Stgo.Tepalcatlalpan, U. H. Rinconada del Sur"},{"postalCode":"16060","state":"Ciudad de México","municipality":"Xochimilco","setelement":"El Mirador"},{"postalCode":"16070","state":"Ciudad de México","municipality":"Xochimilco","setelement":"Belén"},{"postalCode":"16070","state":"Ciudad de México","municipality":"Xochimilco","setelement":"El Rosario"},{"postalCode":"16070","state":"Ciudad de México","municipality":"Xochimilco","setelement":"La Guadalupita"},{"postalCode":"16070","state":"Ciudad de México","municipality":"Xochimilco","setelement":"Santa Crucita"},{"postalCode":"16080","state":"Ciudad de México","municipality":"Xochimilco","setelement":"La Santísima"},{"postalCode":"16080","state":"Ciudad de México","municipality":"Xochimilco","setelement":"San Cristóbal"},{"postalCode":"16080","state":"Ciudad de México","municipality":"Xochimilco","setelement":"San Diego"},{"postalCode":"16080","state":"Ciudad de México","municipality":"Xochimilco","setelement":"San Esteban"},{"postalCode":"16083","state":"Ciudad de México","municipality":"Xochimilco","setelement":"Caltongo"},{"postalCode":"16090","state":"Ciudad de México","municipality":"Xochimilco","setelement":"San Pedro"},{"postalCode":"16090","state":"Ciudad de México","municipality":"Xochimilco","setelement":"Tablas de San Lorenzo"},{"postalCode":"16090","state":"Ciudad de México","municipality":"Xochimilco","setelement":"Xaltocan"},{"postalCode":"16100","state":"Ciudad de México","municipality":"Xochimilco","setelement":"Santa Cruz Xochitepec"},{"postalCode":"16200","state":"Ciudad de México","municipality":"Xochimilco","setelement":"Santiago Tepalcatlalpan"},{"postalCode":"16210","state":"Ciudad de México","municipality":"Xochimilco","setelement":"La Concha"},{"postalCode":"16240","state":"Ciudad de México","municipality":"Xochimilco","setelement":"Tlaxopan"},{"postalCode":"16300","state":"Ciudad de México","municipality":"Xochimilco","setelement":"San Lucas Xochimanca"},{"postalCode":"16310","state":"Ciudad de México","municipality":"Xochimilco","setelement":"La Cañada"},{"postalCode":"16320","state":"Ciudad de México","municipality":"Xochimilco","setelement":"San Lucas Oriente"},{"postalCode":"16340","state":"Ciudad de México","municipality":"Xochimilco","setelement":"Texmic"},{"postalCode":"16400","state":"Ciudad de México","municipality":"Xochimilco","setelement":"San Lorenzo Atemoaya"},{"postalCode":"16410","state":"Ciudad de México","municipality":"Xochimilco","setelement":"Lomas de Tonalco"},{"postalCode":"16420","state":"Ciudad de México","municipality":"Xochimilco","setelement":"San Jerónimo"},{"postalCode":"16428","state":"Ciudad de México","municipality":"Xochimilco","setelement":"El Jazmín"},{"postalCode":"16429","state":"Ciudad de México","municipality":"Xochimilco","setelement":"Rancho Tejomulco"},{"postalCode":"16430","state":"Ciudad de México","municipality":"Xochimilco","setelement":"Xochipilli"},{"postalCode":"16440","state":"Ciudad de México","municipality":"Xochimilco","setelement":"Año de Juárez"},{"postalCode":"16443","state":"Ciudad de México","municipality":"Xochimilco","setelement":"Pocitos"},{"postalCode":"16450","state":"Ciudad de México","municipality":"Xochimilco","setelement":"Santa María Nativitas"},{"postalCode":"16457","state":"Ciudad de México","municipality":"Xochimilco","setelement":"Lomas de Nativitas"},{"postalCode":"16459","state":"Ciudad de México","municipality":"Xochimilco","setelement":"Ampliación Nativitas"},{"postalCode":"16500","state":"Ciudad de México","municipality":"Xochimilco","setelement":"Santa Cruz Acalpixca"},{"postalCode":"16513","state":"Ciudad de México","municipality":"Xochimilco","setelement":"Apatlaco"},{"postalCode":"16513","state":"Ciudad de México","municipality":"Xochimilco","setelement":"Del Puente"},{"postalCode":"16514","state":"Ciudad de México","municipality":"Xochimilco","setelement":"La Gallera"},{"postalCode":"16514","state":"Ciudad de México","municipality":"Xochimilco","setelement":"Tetitla"},{"postalCode":"16514","state":"Ciudad de México","municipality":"Xochimilco","setelement":"Calpulco"},{"postalCode":"16520","state":"Ciudad de México","municipality":"Xochimilco","setelement":"La Planta"},{"postalCode":"16530","state":"Ciudad de México","municipality":"Xochimilco","setelement":"Las Cruces"},{"postalCode":"16530","state":"Ciudad de México","municipality":"Xochimilco","setelement":"Las Flores"},{"postalCode":"16533","state":"Ciudad de México","municipality":"Xochimilco","setelement":"Ahualapa"},{"postalCode":"16550","state":"Ciudad de México","municipality":"Xochimilco","setelement":"Valle de Santa María"},{"postalCode":"16600","state":"Ciudad de México","municipality":"Xochimilco","setelement":"San Gregorio Atlapulco"},{"postalCode":"16604","state":"Ciudad de México","municipality":"Xochimilco","setelement":"San Andrés"},{"postalCode":"16605","state":"Ciudad de México","municipality":"Xochimilco","setelement":"Los Reyes"},{"postalCode":"16606","state":"Ciudad de México","municipality":"Xochimilco","setelement":"3 de Mayo"},{"postalCode":"16607","state":"Ciudad de México","municipality":"Xochimilco","setelement":"San Antonio"},{"postalCode":"16609","state":"Ciudad de México","municipality":"Xochimilco","setelement":"La Candelaria"},{"postalCode":"16610","state":"Ciudad de México","municipality":"Xochimilco","setelement":"San Luis Tlaxialtemalco"},{"postalCode":"16614","state":"Ciudad de México","municipality":"Xochimilco","setelement":"Niños Héroes"},{"postalCode":"16615","state":"Ciudad de México","municipality":"Xochimilco","setelement":"La Asunción"},{"postalCode":"16616","state":"Ciudad de México","municipality":"Xochimilco","setelement":"Santa Cecilia"},{"postalCode":"16617","state":"Ciudad de México","municipality":"Xochimilco","setelement":"San Sebastián"},{"postalCode":"16620","state":"Ciudad de México","municipality":"Xochimilco","setelement":"San José"},{"postalCode":"16629","state":"Ciudad de México","municipality":"Xochimilco","setelement":"La Guadalupana"},{"postalCode":"16629","state":"Ciudad de México","municipality":"Xochimilco","setelement":"San Juan"},{"postalCode":"16630","state":"Ciudad de México","municipality":"Xochimilco","setelement":"San Juan Moyotepec"},{"postalCode":"16640","state":"Ciudad de México","municipality":"Xochimilco","setelement":"San Juan Minas"},{"postalCode":"16710","state":"Ciudad de México","municipality":"Xochimilco","setelement":"Quirino Mendoza"},{"postalCode":"16720","state":"Ciudad de México","municipality":"Xochimilco","setelement":"Del Carmen"},{"postalCode":"16739","state":"Ciudad de México","municipality":"Xochimilco","setelement":"San Isidro"},{"postalCode":"16740","state":"Ciudad de México","municipality":"Xochimilco","setelement":"Guadalupita"},{"postalCode":"16749","state":"Ciudad de México","municipality":"Xochimilco","setelement":"Las Animas"},{"postalCode":"16750","state":"Ciudad de México","municipality":"Xochimilco","setelement":"Calyequita"},{"postalCode":"16770","state":"Ciudad de México","municipality":"Xochimilco","setelement":"San Felipe"},{"postalCode":"16776","state":"Ciudad de México","municipality":"Xochimilco","setelement":"Santiaguito"},{"postalCode":"16776","state":"Ciudad de México","municipality":"Xochimilco","setelement":"El Mirador"},{"postalCode":"16780","state":"Ciudad de México","municipality":"Xochimilco","setelement":"Cerrillos Primera Sección"},{"postalCode":"16780","state":"Ciudad de México","municipality":"Xochimilco","setelement":"El Sacrificio"},{"postalCode":"16780","state":"Ciudad de México","municipality":"Xochimilco","setelement":"Cristo Rey"},{"postalCode":"16780","state":"Ciudad de México","municipality":"Xochimilco","setelement":"Cerrillos Segunda Sección"},{"postalCode":"16780","state":"Ciudad de México","municipality":"Xochimilco","setelement":"Cerrillos Tercera Sección"},{"postalCode":"16797","state":"Ciudad de México","municipality":"Xochimilco","setelement":"Nativitas"},{"postalCode":"16799","state":"Ciudad de México","municipality":"Xochimilco","setelement":"Las Mesitas"},{"postalCode":"16800","state":"Ciudad de México","municipality":"Xochimilco","setelement":"San Mateo Xalpa"},{"postalCode":"16810","state":"Ciudad de México","municipality":"Xochimilco","setelement":"San Andrés Ahuayucan"},{"postalCode":"16810","state":"Ciudad de México","municipality":"Xochimilco","setelement":"Santa Inés"},{"postalCode":"16810","state":"Ciudad de México","municipality":"Xochimilco","setelement":"Rosario Tlali"},{"postalCode":"16813","state":"Ciudad de México","municipality":"Xochimilco","setelement":"El Calvario"},{"postalCode":"16840","state":"Ciudad de México","municipality":"Xochimilco","setelement":"Santa Cruz Chavarrieta"},{"postalCode":"16850","state":"Ciudad de México","municipality":"Xochimilco","setelement":"Chapultepec"},{"postalCode":"16860","state":"Ciudad de México","municipality":"Xochimilco","setelement":"Santa Cruz de Guadalupe"},{"postalCode":"16880","state":"Ciudad de México","municipality":"Xochimilco","setelement":"Santa Cecilia Tepetlapa"},{"postalCode":"16900","state":"Ciudad de México","municipality":"Xochimilco","setelement":"San Francisco Tlalnepantla"}]