[{"postalCode":"62000","state":"Morelos","municipality":"Cuernavaca","setelement":"Cuernavaca Centro"},{"postalCode":"62009","state":"Morelos","municipality":"Cuernavaca","setelement":"Palacio de Gobierno del Estado de Morelos"},{"postalCode":"62010","state":"Morelos","municipality":"Cuernavaca","setelement":"Altavista"},{"postalCode":"62010","state":"Morelos","municipality":"Cuernavaca","setelement":"Las Piletas"},{"postalCode":"62017","state":"Morelos","municipality":"Cuernavaca","setelement":"Margarita Maza de Juárez"},{"postalCode":"62018","state":"Morelos","municipality":"Cuernavaca","setelement":"Altavista Barrancas"},{"postalCode":"62019","state":"Morelos","municipality":"Cuernavaca","setelement":"Loma Hermosa"},{"postalCode":"62019","state":"Morelos","municipality":"Cuernavaca","setelement":"Plan de Ayala Barrancas"},{"postalCode":"62019","state":"Morelos","municipality":"Cuernavaca","setelement":"Provinciana"},{"postalCode":"62019","state":"Morelos","municipality":"Cuernavaca","setelement":"Tepeyehualco"},{"postalCode":"62020","state":"Morelos","municipality":"Cuernavaca","setelement":"Lomas de San Antón"},{"postalCode":"62020","state":"Morelos","municipality":"Cuernavaca","setelement":"José López Portillo"},{"postalCode":"62020","state":"Morelos","municipality":"Cuernavaca","setelement":"Sacatierra"},{"postalCode":"62020","state":"Morelos","municipality":"Cuernavaca","setelement":"San Antón"},{"postalCode":"62020","state":"Morelos","municipality":"Cuernavaca","setelement":"Las Terrazas"},{"postalCode":"62020","state":"Morelos","municipality":"Cuernavaca","setelement":"Ampliación Sacatierra"},{"postalCode":"62028","state":"Morelos","municipality":"Cuernavaca","setelement":"Loma de los Amates (Loma de la Lagunilla)"},{"postalCode":"62028","state":"Morelos","municipality":"Cuernavaca","setelement":"Nueva Santa María"},{"postalCode":"62028","state":"Morelos","municipality":"Cuernavaca","setelement":"Santa Fe"},{"postalCode":"62029","state":"Morelos","municipality":"Cuernavaca","setelement":"Chulavista"},{"postalCode":"62030","state":"Morelos","municipality":"Cuernavaca","setelement":"Club de Golf"},{"postalCode":"62037","state":"Morelos","municipality":"Cuernavaca","setelement":"Jardines del Edén"},{"postalCode":"62037","state":"Morelos","municipality":"Cuernavaca","setelement":"Benito Juárez (Lagunilla)"},{"postalCode":"62037","state":"Morelos","municipality":"Cuernavaca","setelement":"Tenochtitlan"},{"postalCode":"62037","state":"Morelos","municipality":"Cuernavaca","setelement":"La Unión"},{"postalCode":"62038","state":"Morelos","municipality":"Cuernavaca","setelement":"Lagunillas Barrancas"},{"postalCode":"62039","state":"Morelos","municipality":"Cuernavaca","setelement":"Lagunilla del Salto"},{"postalCode":"62040","state":"Morelos","municipality":"Cuernavaca","setelement":"Miguel Hidalgo"},{"postalCode":"62050","state":"Morelos","municipality":"Cuernavaca","setelement":"Benito Juárez (Centro)"},{"postalCode":"62050","state":"Morelos","municipality":"Cuernavaca","setelement":"Las Palmas"},{"postalCode":"62057","state":"Morelos","municipality":"Cuernavaca","setelement":"Pilares"},{"postalCode":"62059","state":"Morelos","municipality":"Cuernavaca","setelement":"Bondies"},{"postalCode":"62060","state":"Morelos","municipality":"Cuernavaca","setelement":"Quintana Roo"},{"postalCode":"62070","state":"Morelos","municipality":"Cuernavaca","setelement":"Chipitlán"},{"postalCode":"62070","state":"Morelos","municipality":"Cuernavaca","setelement":"Mina Cinco"},{"postalCode":"62076","state":"Morelos","municipality":"Cuernavaca","setelement":"El Polvorín"},{"postalCode":"62076","state":"Morelos","municipality":"Cuernavaca","setelement":"Adolfo López Mateos (Polvorín)"},{"postalCode":"62076","state":"Morelos","municipality":"Cuernavaca","setelement":"Bosques de Palmira"},{"postalCode":"62080","state":"Morelos","municipality":"Cuernavaca","setelement":"Lázaro Cárdenas"},{"postalCode":"62080","state":"Morelos","municipality":"Cuernavaca","setelement":"Loma Bonita"},{"postalCode":"62083","state":"Morelos","municipality":"Cuernavaca","setelement":"Lázaro Cárdenas 1ra. Ampliación"},{"postalCode":"62083","state":"Morelos","municipality":"Cuernavaca","setelement":"Lázaro Cárdenas 2da. Ampliación"},{"postalCode":"62084","state":"Morelos","municipality":"Cuernavaca","setelement":"La Parota"},{"postalCode":"62100","state":"Morelos","municipality":"Cuernavaca","setelement":"Santa María Ahuacatitlán"},{"postalCode":"62103","state":"Morelos","municipality":"Cuernavaca","setelement":"Santa Elena de La Cruz"},{"postalCode":"62115","state":"Morelos","municipality":"Cuernavaca","setelement":"Independencia"},{"postalCode":"62115","state":"Morelos","municipality":"Cuernavaca","setelement":"La Caminera"},{"postalCode":"62115","state":"Morelos","municipality":"Cuernavaca","setelement":"Loma Bonita"},{"postalCode":"62115","state":"Morelos","municipality":"Cuernavaca","setelement":"Adolfo López Mateos"},{"postalCode":"62115","state":"Morelos","municipality":"Cuernavaca","setelement":"Ocotera"},{"postalCode":"62116","state":"Morelos","municipality":"Cuernavaca","setelement":"Balcones de Tepuente"},{"postalCode":"62116","state":"Morelos","municipality":"Cuernavaca","setelement":"Tepuente"},{"postalCode":"62116","state":"Morelos","municipality":"Cuernavaca","setelement":"Valle Tepuente"},{"postalCode":"62116","state":"Morelos","municipality":"Cuernavaca","setelement":"Cruz de La Misión"},{"postalCode":"62116","state":"Morelos","municipality":"Cuernavaca","setelement":"Mirador Universidad"},{"postalCode":"62116","state":"Morelos","municipality":"Cuernavaca","setelement":"Paraje de Tepuente"},{"postalCode":"62117","state":"Morelos","municipality":"Cuernavaca","setelement":"Provincias de Jerusalén"},{"postalCode":"62120","state":"Morelos","municipality":"Cuernavaca","setelement":"El Monasterio"},{"postalCode":"62120","state":"Morelos","municipality":"Cuernavaca","setelement":"Rancho Cortes"},{"postalCode":"62123","state":"Morelos","municipality":"Cuernavaca","setelement":"Ocotitla"},{"postalCode":"62130","state":"Morelos","municipality":"Cuernavaca","setelement":"Buenavista"},{"postalCode":"62130","state":"Morelos","municipality":"Cuernavaca","setelement":"Tetela del Monte"},{"postalCode":"62130","state":"Morelos","municipality":"Cuernavaca","setelement":"Lomas de Ahuatlán"},{"postalCode":"62130","state":"Morelos","municipality":"Cuernavaca","setelement":"Jardines de Ahuatlán"},{"postalCode":"62130","state":"Morelos","municipality":"Cuernavaca","setelement":"Terrazas Ahuatlán"},{"postalCode":"62130","state":"Morelos","municipality":"Cuernavaca","setelement":"Ahuatlán Tzompantle"},{"postalCode":"62130","state":"Morelos","municipality":"Cuernavaca","setelement":"Real de Tetela"},{"postalCode":"62136","state":"Morelos","municipality":"Cuernavaca","setelement":"Jardín Tetela"},{"postalCode":"62137","state":"Morelos","municipality":"Cuernavaca","setelement":"La Mojonera"},{"postalCode":"62137","state":"Morelos","municipality":"Cuernavaca","setelement":"Lienzo El Charro"},{"postalCode":"62139","state":"Morelos","municipality":"Cuernavaca","setelement":"Loma Linda"},{"postalCode":"62140","state":"Morelos","municipality":"Cuernavaca","setelement":"Bellavista"},{"postalCode":"62143","state":"Morelos","municipality":"Cuernavaca","setelement":"Zona Militar"},{"postalCode":"62144","state":"Morelos","municipality":"Cuernavaca","setelement":"Condominios Bugambilias"},{"postalCode":"62144","state":"Morelos","municipality":"Cuernavaca","setelement":"El Ángel"},{"postalCode":"62144","state":"Morelos","municipality":"Cuernavaca","setelement":"Trevi I"},{"postalCode":"62144","state":"Morelos","municipality":"Cuernavaca","setelement":"Trevi II"},{"postalCode":"62144","state":"Morelos","municipality":"Cuernavaca","setelement":"Trevi III"},{"postalCode":"62145","state":"Morelos","municipality":"Cuernavaca","setelement":"Lomas de La Selva Norte"},{"postalCode":"62145","state":"Morelos","municipality":"Cuernavaca","setelement":"Conjunto Colorines"},{"postalCode":"62150","state":"Morelos","municipality":"Cuernavaca","setelement":"Del Bosque"},{"postalCode":"62150","state":"Morelos","municipality":"Cuernavaca","setelement":"Campo El Alambrado"},{"postalCode":"62154","state":"Morelos","municipality":"Cuernavaca","setelement":"Lomas del Pinar"},{"postalCode":"62156","state":"Morelos","municipality":"Cuernavaca","setelement":"Lomas de Tetela"},{"postalCode":"62156","state":"Morelos","municipality":"Cuernavaca","setelement":"Lomas del Sol"},{"postalCode":"62157","state":"Morelos","municipality":"Cuernavaca","setelement":"Lomas de Tzompantle"},{"postalCode":"62159","state":"Morelos","municipality":"Cuernavaca","setelement":"Adolfo Ruiz Cortines"},{"postalCode":"62160","state":"Morelos","municipality":"Cuernavaca","setelement":"Hacienda Tetela"},{"postalCode":"62160","state":"Morelos","municipality":"Cuernavaca","setelement":"Rancho Tetela"},{"postalCode":"62160","state":"Morelos","municipality":"Cuernavaca","setelement":"La Cañada"},{"postalCode":"62165","state":"Morelos","municipality":"Cuernavaca","setelement":"Lomas de Coyuca"},{"postalCode":"62165","state":"Morelos","municipality":"Cuernavaca","setelement":"Tonintana"},{"postalCode":"62166","state":"Morelos","municipality":"Cuernavaca","setelement":"Analco"},{"postalCode":"62170","state":"Morelos","municipality":"Cuernavaca","setelement":"Jiquilpan"},{"postalCode":"62170","state":"Morelos","municipality":"Cuernavaca","setelement":"La Pradera"},{"postalCode":"62170","state":"Morelos","municipality":"Cuernavaca","setelement":"Tlaltenango"},{"postalCode":"62173","state":"Morelos","municipality":"Cuernavaca","setelement":"Jardines de Tlaltenango"},{"postalCode":"62175","state":"Morelos","municipality":"Cuernavaca","setelement":"Lomas de La Pradera"},{"postalCode":"62179","state":"Morelos","municipality":"Cuernavaca","setelement":"San Jerónimo"},{"postalCode":"62180","state":"Morelos","municipality":"Cuernavaca","setelement":"Lomas de Atzingo"},{"postalCode":"62180","state":"Morelos","municipality":"Cuernavaca","setelement":"Plan de Ayala"},{"postalCode":"62180","state":"Morelos","municipality":"Cuernavaca","setelement":"Minas de Atzingo"},{"postalCode":"62180","state":"Morelos","municipality":"Cuernavaca","setelement":"El Tecolote"},{"postalCode":"62190","state":"Morelos","municipality":"Cuernavaca","setelement":"La Carolina"},{"postalCode":"62193","state":"Morelos","municipality":"Cuernavaca","setelement":"La Esperanza"},{"postalCode":"62200","state":"Morelos","municipality":"Cuernavaca","setelement":"Insurgentes"},{"postalCode":"62200","state":"Morelos","municipality":"Cuernavaca","setelement":"Cuauhtémoc"},{"postalCode":"62203","state":"Morelos","municipality":"Cuernavaca","setelement":"El Ocote"},{"postalCode":"62203","state":"Morelos","municipality":"Cuernavaca","setelement":"Salvador Elizarragaz"},{"postalCode":"62203","state":"Morelos","municipality":"Cuernavaca","setelement":"Tehuiztitlán"},{"postalCode":"62209","state":"Morelos","municipality":"Cuernavaca","setelement":"Universidad Autónoma del Estado de Morelos"},{"postalCode":"62210","state":"Morelos","municipality":"Cuernavaca","setelement":"Chamilpa"},{"postalCode":"62210","state":"Morelos","municipality":"Cuernavaca","setelement":"Los Ciruelos"},{"postalCode":"62210","state":"Morelos","municipality":"Cuernavaca","setelement":"Morelos"},{"postalCode":"62210","state":"Morelos","municipality":"Cuernavaca","setelement":"Tlahuica"},{"postalCode":"62214","state":"Morelos","municipality":"Cuernavaca","setelement":"Benito Juárez (Chamilpa)"},{"postalCode":"62214","state":"Morelos","municipality":"Cuernavaca","setelement":"Brisas de Cuernavaca"},{"postalCode":"62214","state":"Morelos","municipality":"Cuernavaca","setelement":"Buenaventura"},{"postalCode":"62214","state":"Morelos","municipality":"Cuernavaca","setelement":"Ampliación Chamilpa"},{"postalCode":"62214","state":"Morelos","municipality":"Cuernavaca","setelement":"Hermanos Rodríguez (Suterm)"},{"postalCode":"62215","state":"Morelos","municipality":"Cuernavaca","setelement":"Blanca Universidad"},{"postalCode":"62215","state":"Morelos","municipality":"Cuernavaca","setelement":"Río Balsas"},{"postalCode":"62215","state":"Morelos","municipality":"Cuernavaca","setelement":"Blanca Universidad"},{"postalCode":"62215","state":"Morelos","municipality":"Cuernavaca","setelement":"Universidad"},{"postalCode":"62215","state":"Morelos","municipality":"Cuernavaca","setelement":"Veranda"},{"postalCode":"62218","state":"Morelos","municipality":"Cuernavaca","setelement":"Lomas de Chamilpa"},{"postalCode":"62219","state":"Morelos","municipality":"Cuernavaca","setelement":"Centro SCT Morelos"},{"postalCode":"62220","state":"Morelos","municipality":"Cuernavaca","setelement":"Ocotepec"},{"postalCode":"62226","state":"Morelos","municipality":"Cuernavaca","setelement":"Texcaltepec"},{"postalCode":"62227","state":"Morelos","municipality":"Cuernavaca","setelement":"Ampliación Ocotepec"},{"postalCode":"62228","state":"Morelos","municipality":"Cuernavaca","setelement":"Conjunto Aries"},{"postalCode":"62228","state":"Morelos","municipality":"Cuernavaca","setelement":"Ampliación Emiliano Zapata"},{"postalCode":"62229","state":"Morelos","municipality":"Cuernavaca","setelement":"Nogales"},{"postalCode":"62230","state":"Morelos","municipality":"Cuernavaca","setelement":"Maravillas"},{"postalCode":"62230","state":"Morelos","municipality":"Cuernavaca","setelement":"San Cristóbal"},{"postalCode":"62233","state":"Morelos","municipality":"Cuernavaca","setelement":"Tlaltepexco"},{"postalCode":"62233","state":"Morelos","municipality":"Cuernavaca","setelement":"La Paloma"},{"postalCode":"62237","state":"Morelos","municipality":"Cuernavaca","setelement":"Los Faroles"},{"postalCode":"62239","state":"Morelos","municipality":"Cuernavaca","setelement":"Prados de Cuernavaca"},{"postalCode":"62240","state":"Morelos","municipality":"Cuernavaca","setelement":"Lomas de Cortes"},{"postalCode":"62240","state":"Morelos","municipality":"Cuernavaca","setelement":"Rincón del Valle"},{"postalCode":"62240","state":"Morelos","municipality":"Cuernavaca","setelement":"Versalles"},{"postalCode":"62243","state":"Morelos","municipality":"Cuernavaca","setelement":"El Veladero"},{"postalCode":"62243","state":"Morelos","municipality":"Cuernavaca","setelement":"San Salvador"},{"postalCode":"62245","state":"Morelos","municipality":"Cuernavaca","setelement":"Recursos Hidráulicos"},{"postalCode":"62247","state":"Morelos","municipality":"Cuernavaca","setelement":"Lomas de Cortes INFONAVIT"},{"postalCode":"62248","state":"Morelos","municipality":"Cuernavaca","setelement":"Lomas del Conde"},{"postalCode":"62248","state":"Morelos","municipality":"Cuernavaca","setelement":"Residencial las Flores"},{"postalCode":"62248","state":"Morelos","municipality":"Cuernavaca","setelement":"Lomas de Cortes"},{"postalCode":"62249","state":"Morelos","municipality":"Cuernavaca","setelement":"Tecomulco"},{"postalCode":"62249","state":"Morelos","municipality":"Cuernavaca","setelement":"Ixtacpan (Zigapan)"},{"postalCode":"62250","state":"Morelos","municipality":"Cuernavaca","setelement":"Base Tranquilidad"},{"postalCode":"62250","state":"Morelos","municipality":"Cuernavaca","setelement":"Del Empleado"},{"postalCode":"62250","state":"Morelos","municipality":"Cuernavaca","setelement":"Tezontepec"},{"postalCode":"62253","state":"Morelos","municipality":"Cuernavaca","setelement":"Lomas de La Selva Oriente"},{"postalCode":"62253","state":"Morelos","municipality":"Cuernavaca","setelement":"Pilancón"},{"postalCode":"62260","state":"Morelos","municipality":"Cuernavaca","setelement":"Reforma"},{"postalCode":"62269","state":"Morelos","municipality":"Cuernavaca","setelement":"Jardines de Reforma"},{"postalCode":"62269","state":"Morelos","municipality":"Cuernavaca","setelement":"Valle Sol"},{"postalCode":"62270","state":"Morelos","municipality":"Cuernavaca","setelement":"Lomas de La Selva"},{"postalCode":"62270","state":"Morelos","municipality":"Cuernavaca","setelement":"Miraval"},{"postalCode":"62270","state":"Morelos","municipality":"Cuernavaca","setelement":"Lomas de Miraval"},{"postalCode":"62280","state":"Morelos","municipality":"Cuernavaca","setelement":"Gualupita"},{"postalCode":"62283","state":"Morelos","municipality":"Cuernavaca","setelement":"La Estación"},{"postalCode":"62284","state":"Morelos","municipality":"Cuernavaca","setelement":"Teopanzolco"},{"postalCode":"62285","state":"Morelos","municipality":"Cuernavaca","setelement":"Patios de la Estación"},{"postalCode":"62290","state":"Morelos","municipality":"Cuernavaca","setelement":"Vista Hermosa"},{"postalCode":"62293","state":"Morelos","municipality":"Cuernavaca","setelement":"Lomas de Vista Hermosa"},{"postalCode":"62293","state":"Morelos","municipality":"Cuernavaca","setelement":"La Fuente"},{"postalCode":"62294","state":"Morelos","municipality":"Cuernavaca","setelement":"Ahuehuetitla"},{"postalCode":"62294","state":"Morelos","municipality":"Cuernavaca","setelement":"Providencia"},{"postalCode":"62294","state":"Morelos","municipality":"Cuernavaca","setelement":"Tlalquiltompan"},{"postalCode":"62294","state":"Morelos","municipality":"Cuernavaca","setelement":"Federación"},{"postalCode":"62295","state":"Morelos","municipality":"Cuernavaca","setelement":"Extensión Vista Hermosa"},{"postalCode":"62296","state":"Morelos","municipality":"Cuernavaca","setelement":"Extensión Delicias"},{"postalCode":"62300","state":"Morelos","municipality":"Cuernavaca","setelement":"Ahuatepec"},{"postalCode":"62303","state":"Morelos","municipality":"Cuernavaca","setelement":"Lomas de La Herradura"},{"postalCode":"62304","state":"Morelos","municipality":"Cuernavaca","setelement":"Gloria Almada de Bejarano"},{"postalCode":"62304","state":"Morelos","municipality":"Cuernavaca","setelement":"El Mirador"},{"postalCode":"62304","state":"Morelos","municipality":"Cuernavaca","setelement":"Los Limoneros"},{"postalCode":"62304","state":"Morelos","municipality":"Cuernavaca","setelement":"San Isidro Loma Bonita"},{"postalCode":"62305","state":"Morelos","municipality":"Cuernavaca","setelement":"Jardines de Ahuatepec"},{"postalCode":"62305","state":"Morelos","municipality":"Cuernavaca","setelement":"Los Ramos"},{"postalCode":"62305","state":"Morelos","municipality":"Cuernavaca","setelement":"Tepepan"},{"postalCode":"62306","state":"Morelos","municipality":"Cuernavaca","setelement":"Villa Santiago"},{"postalCode":"62306","state":"Morelos","municipality":"Cuernavaca","setelement":"Rodolfo López de Nava (Los Naranjos)"},{"postalCode":"62306","state":"Morelos","municipality":"Cuernavaca","setelement":"La Herradura"},{"postalCode":"62306","state":"Morelos","municipality":"Cuernavaca","setelement":"Cruz de la Curva"},{"postalCode":"62306","state":"Morelos","municipality":"Cuernavaca","setelement":"Jubilados y Pencionados"},{"postalCode":"62306","state":"Morelos","municipality":"Cuernavaca","setelement":"Residencial Vista Alta"},{"postalCode":"62309","state":"Morelos","municipality":"Cuernavaca","setelement":"Paraje Alarcón"},{"postalCode":"62320","state":"Morelos","municipality":"Cuernavaca","setelement":"Antonio Barona Centro"},{"postalCode":"62323","state":"Morelos","municipality":"Cuernavaca","setelement":"Tierra Colorada"},{"postalCode":"62323","state":"Morelos","municipality":"Cuernavaca","setelement":"México Lindo"},{"postalCode":"62323","state":"Morelos","municipality":"Cuernavaca","setelement":"Papayos"},{"postalCode":"62324","state":"Morelos","municipality":"Cuernavaca","setelement":"El Universo"},{"postalCode":"62324","state":"Morelos","municipality":"Cuernavaca","setelement":"La Cañada"},{"postalCode":"62324","state":"Morelos","municipality":"Cuernavaca","setelement":"Lomas de Ahuatepec"},{"postalCode":"62324","state":"Morelos","municipality":"Cuernavaca","setelement":"Cerritos de García"},{"postalCode":"62324","state":"Morelos","municipality":"Cuernavaca","setelement":"Las Flores"},{"postalCode":"62324","state":"Morelos","municipality":"Cuernavaca","setelement":"Unidad Deportiva"},{"postalCode":"62324","state":"Morelos","municipality":"Cuernavaca","setelement":"Vista Real Ahuatepec"},{"postalCode":"62324","state":"Morelos","municipality":"Cuernavaca","setelement":"Ampliación la Cañada"},{"postalCode":"62325","state":"Morelos","municipality":"Cuernavaca","setelement":"Rancho Alegre"},{"postalCode":"62325","state":"Morelos","municipality":"Cuernavaca","setelement":"El Copalito"},{"postalCode":"62325","state":"Morelos","municipality":"Cuernavaca","setelement":"Lomas Verdes de Ahuatepec"},{"postalCode":"62325","state":"Morelos","municipality":"Cuernavaca","setelement":"Bosques de la Florida"},{"postalCode":"62326","state":"Morelos","municipality":"Cuernavaca","setelement":"Paraíso Montessori"},{"postalCode":"62326","state":"Morelos","municipality":"Cuernavaca","setelement":"Cerritos"},{"postalCode":"62326","state":"Morelos","municipality":"Cuernavaca","setelement":"Paraíso"},{"postalCode":"62326","state":"Morelos","municipality":"Cuernavaca","setelement":"San Antonio del Jagüey"},{"postalCode":"62326","state":"Morelos","municipality":"Cuernavaca","setelement":"Jardines de Zoquipa"},{"postalCode":"62326","state":"Morelos","municipality":"Cuernavaca","setelement":"Tlaltecuáhuitl"},{"postalCode":"62326","state":"Morelos","municipality":"Cuernavaca","setelement":"Los Guayabos"},{"postalCode":"62328","state":"Morelos","municipality":"Cuernavaca","setelement":"Antonio Barona 3a Secc."},{"postalCode":"62329","state":"Morelos","municipality":"Cuernavaca","setelement":"Antonio Barona 1a Secc."},{"postalCode":"62329","state":"Morelos","municipality":"Cuernavaca","setelement":"Antonio Barona 2a Secc."},{"postalCode":"62330","state":"Morelos","municipality":"Cuernavaca","setelement":"Delicias"},{"postalCode":"62330","state":"Morelos","municipality":"Cuernavaca","setelement":"Conjunto Paraíso"},{"postalCode":"62330","state":"Morelos","municipality":"Cuernavaca","setelement":"Residencial Primavera"},{"postalCode":"62334","state":"Morelos","municipality":"Cuernavaca","setelement":"Amate Redondo"},{"postalCode":"62335","state":"Morelos","municipality":"Cuernavaca","setelement":"Rinconada Vista Hermosa"},{"postalCode":"62340","state":"Morelos","municipality":"Cuernavaca","setelement":"Bello Horizonte"},{"postalCode":"62340","state":"Morelos","municipality":"Cuernavaca","setelement":"Lomas de Cortes Oriente"},{"postalCode":"62340","state":"Morelos","municipality":"Cuernavaca","setelement":"Bosques de Cuernavaca"},{"postalCode":"62340","state":"Morelos","municipality":"Cuernavaca","setelement":"Loma Bonita"},{"postalCode":"62343","state":"Morelos","municipality":"Cuernavaca","setelement":"Jardines de Delicias"},{"postalCode":"62343","state":"Morelos","municipality":"Cuernavaca","setelement":"Provincias del Canadá"},{"postalCode":"62343","state":"Morelos","municipality":"Cuernavaca","setelement":"San Jerónimo Ahuatepec"},{"postalCode":"62343","state":"Morelos","municipality":"Cuernavaca","setelement":"El Mascareño"},{"postalCode":"62345","state":"Morelos","municipality":"Cuernavaca","setelement":"Rinconada Florida"},{"postalCode":"62350","state":"Morelos","municipality":"Cuernavaca","setelement":"Los Volcanes"},{"postalCode":"62350","state":"Morelos","municipality":"Cuernavaca","setelement":"Lomas del Mirador"},{"postalCode":"62350","state":"Morelos","municipality":"Cuernavaca","setelement":"Teopanzolco"},{"postalCode":"62360","state":"Morelos","municipality":"Cuernavaca","setelement":"Chapultepec"},{"postalCode":"62360","state":"Morelos","municipality":"Cuernavaca","setelement":"Jardines de Cuernavaca"},{"postalCode":"62363","state":"Morelos","municipality":"Cuernavaca","setelement":"Cuatro Estaciones"},{"postalCode":"62363","state":"Morelos","municipality":"Cuernavaca","setelement":"La Estrella"},{"postalCode":"62370","state":"Morelos","municipality":"Cuernavaca","setelement":"Ricardo Flores Magón"},{"postalCode":"62373","state":"Morelos","municipality":"Cuernavaca","setelement":"Flores Magón 2a Fracción"},{"postalCode":"62374","state":"Morelos","municipality":"Cuernavaca","setelement":"Villas Deportivas"},{"postalCode":"62374","state":"Morelos","municipality":"Cuernavaca","setelement":"Villas del Lago"},{"postalCode":"62375","state":"Morelos","municipality":"Cuernavaca","setelement":"Puerta del Sol"},{"postalCode":"62376","state":"Morelos","municipality":"Cuernavaca","setelement":"Flores Magón 1a Fracción"},{"postalCode":"62380","state":"Morelos","municipality":"Cuernavaca","setelement":"Zodiaco"},{"postalCode":"62382","state":"Morelos","municipality":"Cuernavaca","setelement":"Joyas de los Jilgueros"},{"postalCode":"62384","state":"Morelos","municipality":"Cuernavaca","setelement":"Mártires de Río Blanco"},{"postalCode":"62384","state":"Morelos","municipality":"Cuernavaca","setelement":"Flores Magón 3a Fracción"},{"postalCode":"62385","state":"Morelos","municipality":"Cuernavaca","setelement":"Ramón Hernandez Navarro"},{"postalCode":"62385","state":"Morelos","municipality":"Cuernavaca","setelement":"Flores Magón 5a Fracción"},{"postalCode":"62387","state":"Morelos","municipality":"Cuernavaca","setelement":"Los Limones"},{"postalCode":"62387","state":"Morelos","municipality":"Cuernavaca","setelement":"Santa Martha Ahuatepec"},{"postalCode":"62387","state":"Morelos","municipality":"Cuernavaca","setelement":"Milpillas"},{"postalCode":"62388","state":"Morelos","municipality":"Cuernavaca","setelement":"Los Tulipanes"},{"postalCode":"62389","state":"Morelos","municipality":"Cuernavaca","setelement":"Morelos"},{"postalCode":"62390","state":"Morelos","municipality":"Cuernavaca","setelement":"Revolución"},{"postalCode":"62398","state":"Morelos","municipality":"Cuernavaca","setelement":"Ciudad Chapultepec"},{"postalCode":"62399","state":"Morelos","municipality":"Cuernavaca","setelement":"Ciudad Chapultepec"},{"postalCode":"62400","state":"Morelos","municipality":"Cuernavaca","setelement":"El Vergel"},{"postalCode":"62409","state":"Morelos","municipality":"Cuernavaca","setelement":"Santa Veracruz"},{"postalCode":"62410","state":"Morelos","municipality":"Cuernavaca","setelement":"Amatitlán"},{"postalCode":"62420","state":"Morelos","municipality":"Cuernavaca","setelement":"Jacarandas"},{"postalCode":"62420","state":"Morelos","municipality":"Cuernavaca","setelement":"Quintas Martha"},{"postalCode":"62428","state":"Morelos","municipality":"Cuernavaca","setelement":"Copa de Oro"},{"postalCode":"62430","state":"Morelos","municipality":"Cuernavaca","setelement":"Condominios Cuauhnahuac"},{"postalCode":"62430","state":"Morelos","municipality":"Cuernavaca","setelement":"Vicente Guerrero"},{"postalCode":"62430","state":"Morelos","municipality":"Cuernavaca","setelement":"Conjunto Omeyoacan"},{"postalCode":"62433","state":"Morelos","municipality":"Cuernavaca","setelement":"Bosques de Chapultepec"},{"postalCode":"62440","state":"Morelos","municipality":"Cuernavaca","setelement":"Poblado Acapatzingo"},{"postalCode":"62445","state":"Morelos","municipality":"Cuernavaca","setelement":"Los Cizos"},{"postalCode":"62446","state":"Morelos","municipality":"Cuernavaca","setelement":"San Miguel Acapantzingo"},{"postalCode":"62447","state":"Morelos","municipality":"Cuernavaca","setelement":"Jardines de Acapatzingo"},{"postalCode":"62448","state":"Morelos","municipality":"Cuernavaca","setelement":"Cantarranas"},{"postalCode":"62448","state":"Morelos","municipality":"Cuernavaca","setelement":"Primavera"},{"postalCode":"62448","state":"Morelos","municipality":"Cuernavaca","setelement":"Cantarranas"},{"postalCode":"62450","state":"Morelos","municipality":"Cuernavaca","setelement":"Las Quintas"},{"postalCode":"62450","state":"Morelos","municipality":"Cuernavaca","setelement":"Chapultepec"},{"postalCode":"62450","state":"Morelos","municipality":"Cuernavaca","setelement":"Manantiales"},{"postalCode":"62460","state":"Morelos","municipality":"Cuernavaca","setelement":"El Laurel Residencial"},{"postalCode":"62460","state":"Morelos","municipality":"Cuernavaca","setelement":"Las Granjas"},{"postalCode":"62460","state":"Morelos","municipality":"Cuernavaca","setelement":"Satélite"},{"postalCode":"62460","state":"Morelos","municipality":"Cuernavaca","setelement":"Vicente Estrada Cajigal"},{"postalCode":"62460","state":"Morelos","municipality":"Cuernavaca","setelement":"Ampliación Satélite"},{"postalCode":"62466","state":"Morelos","municipality":"Cuernavaca","setelement":"Emiliano Zapata"},{"postalCode":"62469","state":"Morelos","municipality":"Cuernavaca","setelement":"Lotes Alegría"},{"postalCode":"62470","state":"Morelos","municipality":"Cuernavaca","setelement":"Del Lago"},{"postalCode":"62470","state":"Morelos","municipality":"Cuernavaca","setelement":"Las Águilas"},{"postalCode":"62473","state":"Morelos","municipality":"Cuernavaca","setelement":"Lomas del Águila"},{"postalCode":"62474","state":"Morelos","municipality":"Cuernavaca","setelement":"FOVISSSTE las Águilas"},{"postalCode":"62474","state":"Morelos","municipality":"Cuernavaca","setelement":"Potrero Verde"},{"postalCode":"62475","state":"Morelos","municipality":"Cuernavaca","setelement":"Chapultepec FOVISSSTE"},{"postalCode":"62480","state":"Morelos","municipality":"Cuernavaca","setelement":"Ampliación Chapultepec"},{"postalCode":"62490","state":"Morelos","municipality":"Cuernavaca","setelement":"Palmira Tinguindin"},{"postalCode":"62493","state":"Morelos","municipality":"Cuernavaca","setelement":"Internado Palmira"},{"postalCode":"62493","state":"Morelos","municipality":"Cuernavaca","setelement":"Acapatzingo"},{"postalCode":"62494","state":"Morelos","municipality":"Cuernavaca","setelement":"Lomas de Acapatzingo"},{"postalCode":"62496","state":"Morelos","municipality":"Cuernavaca","setelement":"El Palmar"},{"postalCode":"62497","state":"Morelos","municipality":"Cuernavaca","setelement":"Rinconada Palmira"},{"postalCode":"62498","state":"Morelos","municipality":"Cuernavaca","setelement":"Club de golf Tabachines"},{"postalCode":"62499","state":"Morelos","municipality":"Cuernavaca","setelement":"Las Garzas"},{"postalCode":"62508","state":"Morelos","municipality":"Cuernavaca","setelement":"El Cebadal"},{"postalCode":"62508","state":"Morelos","municipality":"Cuernavaca","setelement":"Buenavista del Monte"},{"postalCode":"62510","state":"Morelos","municipality":"Huitzilac","setelement":"Coajomulco"},{"postalCode":"62510","state":"Morelos","municipality":"Huitzilac","setelement":"Huitzilac"},{"postalCode":"62510","state":"Morelos","municipality":"Huitzilac","setelement":"San José de La Montaña"},{"postalCode":"62514","state":"Morelos","municipality":"Huitzilac","setelement":"Fierro del Toro"},{"postalCode":"62514","state":"Morelos","municipality":"Huitzilac","setelement":"Kilómetro 47 (Entrada al Capulín)"},{"postalCode":"62515","state":"Morelos","municipality":"Huitzilac","setelement":"Tres Marías"},{"postalCode":"62517","state":"Morelos","municipality":"Huitzilac","setelement":"Huertas de San Pedro"},{"postalCode":"62517","state":"Morelos","municipality":"Huitzilac","setelement":"Monte Casino (Piamonte y Ensueño)"},{"postalCode":"62517","state":"Morelos","municipality":"Huitzilac","setelement":"Guayacahuala"},{"postalCode":"62517","state":"Morelos","municipality":"Huitzilac","setelement":"María Candelaria"},{"postalCode":"62520","state":"Morelos","municipality":"Tepoztlán","setelement":"Xilotepec"},{"postalCode":"62520","state":"Morelos","municipality":"Tepoztlán","setelement":"Tepoztlán Centro"},{"postalCode":"62520","state":"Morelos","municipality":"Tepoztlán","setelement":"Tierra Blanca"},{"postalCode":"62520","state":"Morelos","municipality":"Tepoztlán","setelement":"San Pedro"},{"postalCode":"62520","state":"Morelos","municipality":"Tepoztlán","setelement":"Los Reyes"},{"postalCode":"62520","state":"Morelos","municipality":"Tepoztlán","setelement":"Santo Domingo"},{"postalCode":"62520","state":"Morelos","municipality":"Tepoztlán","setelement":"La Santísima"},{"postalCode":"62520","state":"Morelos","municipality":"Tepoztlán","setelement":"San Miguel"},{"postalCode":"62520","state":"Morelos","municipality":"Tepoztlán","setelement":"San José"},{"postalCode":"62520","state":"Morelos","municipality":"Tepoztlán","setelement":"San Sebastián"},{"postalCode":"62520","state":"Morelos","municipality":"Tepoztlán","setelement":"Santa Cruz"},{"postalCode":"62520","state":"Morelos","municipality":"Tepoztlán","setelement":"El Tesoro"},{"postalCode":"62520","state":"Morelos","municipality":"Tepoztlán","setelement":"Los Ocotes"},{"postalCode":"62523","state":"Morelos","municipality":"Tepoztlán","setelement":"San Juan Tlacotenco"},{"postalCode":"62524","state":"Morelos","municipality":"Tepoztlán","setelement":"Santo Domingo Ocotitlán"},{"postalCode":"62524","state":"Morelos","municipality":"Tepoztlán","setelement":"Del Carmen"},{"postalCode":"62524","state":"Morelos","municipality":"Tepoztlán","setelement":"Achichipico"},{"postalCode":"62525","state":"Morelos","municipality":"Tepoztlán","setelement":"Huilotepec"},{"postalCode":"62525","state":"Morelos","municipality":"Tepoztlán","setelement":"Ixcatepec"},{"postalCode":"62525","state":"Morelos","municipality":"Tepoztlán","setelement":"Amatlán de Quetzalcóatl"},{"postalCode":"62525","state":"Morelos","municipality":"Tepoztlán","setelement":"Tecmilco"},{"postalCode":"62525","state":"Morelos","municipality":"Tepoztlán","setelement":"El Pedregal"},{"postalCode":"62525","state":"Morelos","municipality":"Tepoztlán","setelement":"Chichco (Chisco)"},{"postalCode":"62526","state":"Morelos","municipality":"Tepoztlán","setelement":"San Andrés de la Cal"},{"postalCode":"62526","state":"Morelos","municipality":"Tepoztlán","setelement":"Santiago Tepetlapa"},{"postalCode":"62526","state":"Morelos","municipality":"Tepoztlán","setelement":"Tehuixcorral (Colonia San Martín Caballero)"},{"postalCode":"62527","state":"Morelos","municipality":"Tepoztlán","setelement":"Santa Catarina"},{"postalCode":"62527","state":"Morelos","municipality":"Tepoztlán","setelement":"Huachinantitla"},{"postalCode":"62528","state":"Morelos","municipality":"Tepoztlán","setelement":"Ángel Bocanegra (Adolfo López Mateos)"},{"postalCode":"62528","state":"Morelos","municipality":"Tepoztlán","setelement":"Obrera"},{"postalCode":"62528","state":"Morelos","municipality":"Tepoztlán","setelement":"Benito Juárez"},{"postalCode":"62529","state":"Morelos","municipality":"Tepoztlán","setelement":"Tetenco"},{"postalCode":"62529","state":"Morelos","municipality":"Tepoztlán","setelement":"Cerritos de García (Textilacatl)"},{"postalCode":"62529","state":"Morelos","municipality":"Tepoztlán","setelement":"Ampliación Milpillas"},{"postalCode":"62529","state":"Morelos","municipality":"Tepoztlán","setelement":"Camino Antiguo a Tepoztlán"},{"postalCode":"62529","state":"Morelos","municipality":"Tepoztlán","setelement":"Rinconada Acolapa"},{"postalCode":"62529","state":"Morelos","municipality":"Tepoztlán","setelement":"Acolapan"},{"postalCode":"62529","state":"Morelos","municipality":"Tepoztlán","setelement":"Loma Bonita"},{"postalCode":"62529","state":"Morelos","municipality":"Tepoztlán","setelement":"Lomas del Pedregal"},{"postalCode":"62529","state":"Morelos","municipality":"Tepoztlán","setelement":"Loma Esmeralda"},{"postalCode":"62529","state":"Morelos","municipality":"Tepoztlán","setelement":"Tetecolala"},{"postalCode":"62530","state":"Morelos","municipality":"Tlalnepantla","setelement":"Centro Tlalnepantla"},{"postalCode":"62530","state":"Morelos","municipality":"Tlalnepantla","setelement":"San Felipe"},{"postalCode":"62530","state":"Morelos","municipality":"Tlalnepantla","setelement":"San Pedro"},{"postalCode":"62530","state":"Morelos","municipality":"Tlalnepantla","setelement":"Santiago"},{"postalCode":"62530","state":"Morelos","municipality":"Tlalnepantla","setelement":"San Bartolo"},{"postalCode":"62530","state":"Morelos","municipality":"Tlalnepantla","setelement":"San Nicolás"},{"postalCode":"62534","state":"Morelos","municipality":"Tlalnepantla","setelement":"El Pedregal"},{"postalCode":"62535","state":"Morelos","municipality":"Tlalnepantla","setelement":"El Vigía (San Nicolás del Monte)"},{"postalCode":"62535","state":"Morelos","municipality":"Tlalnepantla","setelement":"Colinas de San Nicolás"},{"postalCode":"62535","state":"Morelos","municipality":"Tlalnepantla","setelement":"Los Robles"},{"postalCode":"62536","state":"Morelos","municipality":"Tlalnepantla","setelement":"Hacienda Villa Campestre"},{"postalCode":"62536","state":"Morelos","municipality":"Tlalnepantla","setelement":"Hacienda Monte de los Olivos"},{"postalCode":"62536","state":"Morelos","municipality":"Tlalnepantla","setelement":"Bosques de Morelos"},{"postalCode":"62536","state":"Morelos","municipality":"Tlalnepantla","setelement":"Felipe Neri (Cuatepec)"},{"postalCode":"62536","state":"Morelos","municipality":"Tlalnepantla","setelement":"El Calmil"},{"postalCode":"62540","state":"Morelos","municipality":"Tlayacapan","setelement":"San Miguel"},{"postalCode":"62540","state":"Morelos","municipality":"Tlayacapan","setelement":"San Diego"},{"postalCode":"62540","state":"Morelos","municipality":"Tlayacapan","setelement":"De Texcalapan"},{"postalCode":"62540","state":"Morelos","municipality":"Tlayacapan","setelement":"Del Señor Santiago"},{"postalCode":"62540","state":"Morelos","municipality":"Tlayacapan","setelement":"Exaltación"},{"postalCode":"62540","state":"Morelos","municipality":"Tlayacapan","setelement":"El Plan"},{"postalCode":"62540","state":"Morelos","municipality":"Tlayacapan","setelement":"San Lorenzo"},{"postalCode":"62540","state":"Morelos","municipality":"Tlayacapan","setelement":"Altica"},{"postalCode":"62540","state":"Morelos","municipality":"Tlayacapan","setelement":"Santana"},{"postalCode":"62540","state":"Morelos","municipality":"Tlayacapan","setelement":"Santiago"},{"postalCode":"62540","state":"Morelos","municipality":"Tlayacapan","setelement":"Del Rosario"},{"postalCode":"62540","state":"Morelos","municipality":"Tlayacapan","setelement":"Tlayacapan Centro"},{"postalCode":"62543","state":"Morelos","municipality":"Tlayacapan","setelement":"Cuauhtempan (San Andrés Cuautempan)"},{"postalCode":"62543","state":"Morelos","municipality":"Tlayacapan","setelement":"Tres de Mayo"},{"postalCode":"62543","state":"Morelos","municipality":"Tlayacapan","setelement":"La Mixtepec"},{"postalCode":"62543","state":"Morelos","municipality":"Tlayacapan","setelement":"Emiliano Zapata"},{"postalCode":"62544","state":"Morelos","municipality":"Tlayacapan","setelement":"Pedregal Tlalli"},{"postalCode":"62544","state":"Morelos","municipality":"Tlayacapan","setelement":"Las Calandrias"},{"postalCode":"62544","state":"Morelos","municipality":"Tlayacapan","setelement":"Camino Real los Reyes"},{"postalCode":"62544","state":"Morelos","municipality":"Tlayacapan","setelement":"Joyas del Astillero"},{"postalCode":"62544","state":"Morelos","municipality":"Tlayacapan","setelement":"Jardines de Tlayacapan"},{"postalCode":"62544","state":"Morelos","municipality":"Tlayacapan","setelement":"Valle de Oaxtepec"},{"postalCode":"62544","state":"Morelos","municipality":"Tlayacapan","setelement":"Nacatongo"},{"postalCode":"62544","state":"Morelos","municipality":"Tlayacapan","setelement":"Texalo (La Cerámica)"},{"postalCode":"62544","state":"Morelos","municipality":"Tlayacapan","setelement":"Lázaro Cárdenas"},{"postalCode":"62545","state":"Morelos","municipality":"Tlayacapan","setelement":"El Bebedero"},{"postalCode":"62545","state":"Morelos","municipality":"Tlayacapan","setelement":"Puente Pantitlán"},{"postalCode":"62545","state":"Morelos","municipality":"Tlayacapan","setelement":"Revolución XXI"},{"postalCode":"62545","state":"Morelos","municipality":"Tlayacapan","setelement":"Ex-Hacienda Pantitlán"},{"postalCode":"62545","state":"Morelos","municipality":"Tlayacapan","setelement":"El Partidor"},{"postalCode":"62546","state":"Morelos","municipality":"Tlayacapan","setelement":"Las Vivianas"},{"postalCode":"62546","state":"Morelos","municipality":"Tlayacapan","setelement":"El Golán"},{"postalCode":"62546","state":"Morelos","municipality":"Tlayacapan","setelement":"El Ahuehuete"},{"postalCode":"62547","state":"Morelos","municipality":"Tlayacapan","setelement":"Los Laureles (San José de los Laureles)"},{"postalCode":"62547","state":"Morelos","municipality":"Tlayacapan","setelement":"Amatlipac (San Agustín Amatlipac)"},{"postalCode":"62547","state":"Morelos","municipality":"Tlayacapan","setelement":"Los Ciruelos"},{"postalCode":"62547","state":"Morelos","municipality":"Tlayacapan","setelement":"Cruz Blanca"},{"postalCode":"62550","state":"Morelos","municipality":"Jiutepec","setelement":"Centro Jiutepec"},{"postalCode":"62550","state":"Morelos","municipality":"Jiutepec","setelement":"Roberto Osorio Sosa"},{"postalCode":"62550","state":"Morelos","municipality":"Jiutepec","setelement":"Zaragoza"},{"postalCode":"62550","state":"Morelos","municipality":"Jiutepec","setelement":"Valle de las Fuentes"},{"postalCode":"62550","state":"Morelos","municipality":"Jiutepec","setelement":"Los Almendros"},{"postalCode":"62550","state":"Morelos","municipality":"Jiutepec","setelement":"El Zapote"},{"postalCode":"62553","state":"Morelos","municipality":"Jiutepec","setelement":"Constitución"},{"postalCode":"62553","state":"Morelos","municipality":"Jiutepec","setelement":"Residencial Campestre"},{"postalCode":"62553","state":"Morelos","municipality":"Jiutepec","setelement":"Tlahuapan"},{"postalCode":"62553","state":"Morelos","municipality":"Jiutepec","setelement":"Residencial La Palma"},{"postalCode":"62553","state":"Morelos","municipality":"Jiutepec","setelement":"Moctezuma"},{"postalCode":"62553","state":"Morelos","municipality":"Jiutepec","setelement":"Insurgentes"},{"postalCode":"62553","state":"Morelos","municipality":"Jiutepec","setelement":"La Rosa"},{"postalCode":"62553","state":"Morelos","municipality":"Jiutepec","setelement":"Lázaro Cárdenas"},{"postalCode":"62553","state":"Morelos","municipality":"Jiutepec","setelement":"Rinconada las Palmas"},{"postalCode":"62553","state":"Morelos","municipality":"Jiutepec","setelement":"El Arroyo"},{"postalCode":"62553","state":"Morelos","municipality":"Jiutepec","setelement":"Lirios"},{"postalCode":"62553","state":"Morelos","municipality":"Jiutepec","setelement":"Bambú"},{"postalCode":"62553","state":"Morelos","municipality":"Jiutepec","setelement":"Residencial Country"},{"postalCode":"62553","state":"Morelos","municipality":"Jiutepec","setelement":"Tlahua"},{"postalCode":"62553","state":"Morelos","municipality":"Jiutepec","setelement":"Arcos de Jiutepec"},{"postalCode":"62553","state":"Morelos","municipality":"Jiutepec","setelement":"Villa Real"},{"postalCode":"62553","state":"Morelos","municipality":"Jiutepec","setelement":"Campestre"},{"postalCode":"62554","state":"Morelos","municipality":"Jiutepec","setelement":"Villas del Descanso"},{"postalCode":"62554","state":"Morelos","municipality":"Jiutepec","setelement":"Lomas de Tlahuapan"},{"postalCode":"62554","state":"Morelos","municipality":"Jiutepec","setelement":"Pedregal de las Fuentes"},{"postalCode":"62554","state":"Morelos","municipality":"Jiutepec","setelement":"El Pochotal"},{"postalCode":"62554","state":"Morelos","municipality":"Jiutepec","setelement":"Los Bosques"},{"postalCode":"62554","state":"Morelos","municipality":"Jiutepec","setelement":"La Cerillera"},{"postalCode":"62554","state":"Morelos","municipality":"Jiutepec","setelement":"Valle Verde"},{"postalCode":"62554","state":"Morelos","municipality":"Jiutepec","setelement":"Rancho Paraíso"},{"postalCode":"62554","state":"Morelos","municipality":"Jiutepec","setelement":"La Alameda"},{"postalCode":"62554","state":"Morelos","municipality":"Jiutepec","setelement":"Los Mangos"},{"postalCode":"62554","state":"Morelos","municipality":"Jiutepec","setelement":"Cactus"},{"postalCode":"62554","state":"Morelos","municipality":"Jiutepec","setelement":"Girasoles"},{"postalCode":"62554","state":"Morelos","municipality":"Jiutepec","setelement":"Hacienda Jiutepec"},{"postalCode":"62554","state":"Morelos","municipality":"Jiutepec","setelement":"Las Fuentes"},{"postalCode":"62554","state":"Morelos","municipality":"Jiutepec","setelement":"Fuentes de Oriente"},{"postalCode":"62555","state":"Morelos","municipality":"Jiutepec","setelement":"Cliserio Alanís (San Gaspar)"},{"postalCode":"62555","state":"Morelos","municipality":"Jiutepec","setelement":"Villas de San Gaspar"},{"postalCode":"62555","state":"Morelos","municipality":"Jiutepec","setelement":"Club de Golf Hacienda San Gaspar"},{"postalCode":"62555","state":"Morelos","municipality":"Jiutepec","setelement":"Agua Fría"},{"postalCode":"62555","state":"Morelos","municipality":"Jiutepec","setelement":"San Lucas"},{"postalCode":"62555","state":"Morelos","municipality":"Jiutepec","setelement":"Maravillas"},{"postalCode":"62555","state":"Morelos","municipality":"Jiutepec","setelement":"Calera Oriente"},{"postalCode":"62555","state":"Morelos","municipality":"Jiutepec","setelement":"Llanos de las Fuentes"},{"postalCode":"62555","state":"Morelos","municipality":"Jiutepec","setelement":"El Naranjo"},{"postalCode":"62555","state":"Morelos","municipality":"Jiutepec","setelement":"Francisco Villa"},{"postalCode":"62555","state":"Morelos","municipality":"Jiutepec","setelement":"Emiliano Zapata"},{"postalCode":"62555","state":"Morelos","municipality":"Jiutepec","setelement":"Esmeralda"},{"postalCode":"62555","state":"Morelos","municipality":"Jiutepec","setelement":"El Campanario"},{"postalCode":"62556","state":"Morelos","municipality":"Jiutepec","setelement":"Calera Chica"},{"postalCode":"62556","state":"Morelos","municipality":"Jiutepec","setelement":"Miguel Hidalgo"},{"postalCode":"62556","state":"Morelos","municipality":"Jiutepec","setelement":"Vista Hermosa"},{"postalCode":"62556","state":"Morelos","municipality":"Jiutepec","setelement":"Agrícola 28 de Agosto"},{"postalCode":"62556","state":"Morelos","municipality":"Jiutepec","setelement":"Calera Poniente"},{"postalCode":"62556","state":"Morelos","municipality":"Jiutepec","setelement":"Ampliación Joyas de Agua"},{"postalCode":"62556","state":"Morelos","municipality":"Jiutepec","setelement":"Joya del Agua"},{"postalCode":"62556","state":"Morelos","municipality":"Jiutepec","setelement":"Huertas del Llano"},{"postalCode":"62556","state":"Morelos","municipality":"Jiutepec","setelement":"Acalli"},{"postalCode":"62556","state":"Morelos","municipality":"Jiutepec","setelement":"Villa Santiago"},{"postalCode":"62556","state":"Morelos","municipality":"Jiutepec","setelement":"La Laja"},{"postalCode":"62556","state":"Morelos","municipality":"Jiutepec","setelement":"La Huizachera"},{"postalCode":"62556","state":"Morelos","municipality":"Jiutepec","setelement":"Las Moras I y II"},{"postalCode":"62560","state":"Morelos","municipality":"Jiutepec","setelement":"Atlacomulco"},{"postalCode":"62560","state":"Morelos","municipality":"Jiutepec","setelement":"Santa Anita"},{"postalCode":"62560","state":"Morelos","municipality":"Jiutepec","setelement":"Los Viveros"},{"postalCode":"62560","state":"Morelos","municipality":"Jiutepec","setelement":"Los Apantles"},{"postalCode":"62563","state":"Morelos","municipality":"Jiutepec","setelement":"Real Hacienda de San José"},{"postalCode":"62563","state":"Morelos","municipality":"Jiutepec","setelement":"Sumiya"},{"postalCode":"62563","state":"Morelos","municipality":"Jiutepec","setelement":"Los Pinos Jiutepec"},{"postalCode":"62563","state":"Morelos","municipality":"Jiutepec","setelement":"Kloster Sumiya"},{"postalCode":"62563","state":"Morelos","municipality":"Jiutepec","setelement":"Los Soles"},{"postalCode":"62564","state":"Morelos","municipality":"Jiutepec","setelement":"José G Parres"},{"postalCode":"62564","state":"Morelos","municipality":"Jiutepec","setelement":"Las Mercedes"},{"postalCode":"62564","state":"Morelos","municipality":"Jiutepec","setelement":"Los Electricistas"},{"postalCode":"62564","state":"Morelos","municipality":"Jiutepec","setelement":"Residencial Sumiya"},{"postalCode":"62564","state":"Morelos","municipality":"Jiutepec","setelement":"Jardines de La Hacienda II"},{"postalCode":"62564","state":"Morelos","municipality":"Jiutepec","setelement":"Guadalupe"},{"postalCode":"62564","state":"Morelos","municipality":"Jiutepec","setelement":"Jardines de La Hacienda I"},{"postalCode":"62564","state":"Morelos","municipality":"Jiutepec","setelement":"El Paraíso"},{"postalCode":"62564","state":"Morelos","municipality":"Jiutepec","setelement":"El Castillo"},{"postalCode":"62564","state":"Morelos","municipality":"Jiutepec","setelement":"La Nopalera"},{"postalCode":"62564","state":"Morelos","municipality":"Jiutepec","setelement":"San Cristóbal los Lirios"},{"postalCode":"62564","state":"Morelos","municipality":"Jiutepec","setelement":"Villa Real los Colorines"},{"postalCode":"62565","state":"Morelos","municipality":"Jiutepec","setelement":"Las Canteras"},{"postalCode":"62565","state":"Morelos","municipality":"Jiutepec","setelement":"Las Fincas"},{"postalCode":"62565","state":"Morelos","municipality":"Jiutepec","setelement":"La Joya"},{"postalCode":"62565","state":"Morelos","municipality":"Jiutepec","setelement":"Atuey"},{"postalCode":"62565","state":"Morelos","municipality":"Jiutepec","setelement":"El Guayabal"},{"postalCode":"62565","state":"Morelos","municipality":"Jiutepec","setelement":"Condominio Tepec"},{"postalCode":"62565","state":"Morelos","municipality":"Jiutepec","setelement":"Xel-ha"},{"postalCode":"62566","state":"Morelos","municipality":"Jiutepec","setelement":"Bosques de Bancouver"},{"postalCode":"62566","state":"Morelos","municipality":"Jiutepec","setelement":"Lomas de Jiutepec"},{"postalCode":"62566","state":"Morelos","municipality":"Jiutepec","setelement":"Lomas de Palmira"},{"postalCode":"62566","state":"Morelos","municipality":"Jiutepec","setelement":"Rinconada Palmira"},{"postalCode":"62566","state":"Morelos","municipality":"Jiutepec","setelement":"Imuri"},{"postalCode":"62566","state":"Morelos","municipality":"Jiutepec","setelement":"Residencial Lomas de Jiutepec"},{"postalCode":"62566","state":"Morelos","municipality":"Jiutepec","setelement":"Residencial Rancho las Lomas"},{"postalCode":"62566","state":"Morelos","municipality":"Jiutepec","setelement":"Hacienda de los Casillas"},{"postalCode":"62566","state":"Morelos","municipality":"Jiutepec","setelement":"Tezontepec"},{"postalCode":"62570","state":"Morelos","municipality":"Jiutepec","setelement":"Pedregal de Tejalpa"},{"postalCode":"62570","state":"Morelos","municipality":"Jiutepec","setelement":"Oriental"},{"postalCode":"62570","state":"Morelos","municipality":"Jiutepec","setelement":"Tejalpa"},{"postalCode":"62570","state":"Morelos","municipality":"Jiutepec","setelement":"Ampliación Tejalpa"},{"postalCode":"62570","state":"Morelos","municipality":"Jiutepec","setelement":"Vicente Guerrero"},{"postalCode":"62570","state":"Morelos","municipality":"Jiutepec","setelement":"Ampliación Vicente Guerrero"},{"postalCode":"62570","state":"Morelos","municipality":"Jiutepec","setelement":"Atenatitlán"},{"postalCode":"62570","state":"Morelos","municipality":"Jiutepec","setelement":"Cuauhtémoc Cárdenas"},{"postalCode":"62570","state":"Morelos","municipality":"Jiutepec","setelement":"Los Pinos Tejalpa"},{"postalCode":"62570","state":"Morelos","municipality":"Jiutepec","setelement":"San Isidro"},{"postalCode":"62570","state":"Morelos","municipality":"Jiutepec","setelement":"Las Torres"},{"postalCode":"62570","state":"Morelos","municipality":"Jiutepec","setelement":"Deportiva"},{"postalCode":"62570","state":"Morelos","municipality":"Jiutepec","setelement":"Real el Cazahuate"},{"postalCode":"62570","state":"Morelos","municipality":"Jiutepec","setelement":"El Capiri"},{"postalCode":"62570","state":"Morelos","municipality":"Jiutepec","setelement":"Josefa Ortiz de Domínguez"},{"postalCode":"62570","state":"Morelos","municipality":"Jiutepec","setelement":"Villas de Cortes"},{"postalCode":"62573","state":"Morelos","municipality":"Jiutepec","setelement":"Apatlaco"},{"postalCode":"62573","state":"Morelos","municipality":"Jiutepec","setelement":"El Paraíso"},{"postalCode":"62573","state":"Morelos","municipality":"Jiutepec","setelement":"San Lucas"},{"postalCode":"62573","state":"Morelos","municipality":"Jiutepec","setelement":"El Paraje Texcal"},{"postalCode":"62573","state":"Morelos","municipality":"Jiutepec","setelement":"Hacienda de las Flores"},{"postalCode":"62573","state":"Morelos","municipality":"Jiutepec","setelement":"San Francisco Texcalpa"},{"postalCode":"62573","state":"Morelos","municipality":"Jiutepec","setelement":"Ojo de Agua"},{"postalCode":"62573","state":"Morelos","municipality":"Jiutepec","setelement":"Campo Morado"},{"postalCode":"62573","state":"Morelos","municipality":"Jiutepec","setelement":"Cuauchiles"},{"postalCode":"62573","state":"Morelos","municipality":"Jiutepec","setelement":"Ampliación El Paraíso"},{"postalCode":"62574","state":"Morelos","municipality":"Jiutepec","setelement":"Ejido de Cazahuatal"},{"postalCode":"62574","state":"Morelos","municipality":"Jiutepec","setelement":"Progreso"},{"postalCode":"62574","state":"Morelos","municipality":"Jiutepec","setelement":"Tamoanchan"},{"postalCode":"62574","state":"Morelos","municipality":"Jiutepec","setelement":"José López Portillo"},{"postalCode":"62574","state":"Morelos","municipality":"Jiutepec","setelement":"San José"},{"postalCode":"62574","state":"Morelos","municipality":"Jiutepec","setelement":"La Mesa"},{"postalCode":"62574","state":"Morelos","municipality":"Jiutepec","setelement":"Lomas del Texcal"},{"postalCode":"62575","state":"Morelos","municipality":"Jiutepec","setelement":"Independencia"},{"postalCode":"62575","state":"Morelos","municipality":"Jiutepec","setelement":"Alfredo V Bonfil"},{"postalCode":"62575","state":"Morelos","municipality":"Jiutepec","setelement":"Cerro de la Corona"},{"postalCode":"62575","state":"Morelos","municipality":"Jiutepec","setelement":"Lomas de Chapultepec"},{"postalCode":"62575","state":"Morelos","municipality":"Jiutepec","setelement":"Luis Donaldo Colosio"},{"postalCode":"62576","state":"Morelos","municipality":"Jiutepec","setelement":"Ampliación Chapultepec"},{"postalCode":"62576","state":"Morelos","municipality":"Jiutepec","setelement":"Jardín Juárez"},{"postalCode":"62576","state":"Morelos","municipality":"Jiutepec","setelement":"San Francisco del Rincón"},{"postalCode":"62576","state":"Morelos","municipality":"Jiutepec","setelement":"Loma Bonita"},{"postalCode":"62577","state":"Morelos","municipality":"Jiutepec","setelement":"Otilio Montaño"},{"postalCode":"62577","state":"Morelos","municipality":"Jiutepec","setelement":"Ampliación Otilio Montaño"},{"postalCode":"62577","state":"Morelos","municipality":"Jiutepec","setelement":"El Porvenir"},{"postalCode":"62577","state":"Morelos","municipality":"Jiutepec","setelement":"Tarianes"},{"postalCode":"62577","state":"Morelos","municipality":"Jiutepec","setelement":"Ampliación Bugambilias"},{"postalCode":"62577","state":"Morelos","municipality":"Jiutepec","setelement":"Bugambilias"},{"postalCode":"62577","state":"Morelos","municipality":"Jiutepec","setelement":"Morelos"},{"postalCode":"62577","state":"Morelos","municipality":"Jiutepec","setelement":"Puente Blanco"},{"postalCode":"62577","state":"Morelos","municipality":"Jiutepec","setelement":"El Edén"},{"postalCode":"62578","state":"Morelos","municipality":"Jiutepec","setelement":"CIVAC"},{"postalCode":"62578","state":"Morelos","municipality":"Jiutepec","setelement":"Sección Kovas"},{"postalCode":"62578","state":"Morelos","municipality":"Jiutepec","setelement":"Narciso Mendoza Terreno Uno"},{"postalCode":"62578","state":"Morelos","municipality":"Jiutepec","setelement":"Narciso Mendoza Terreno Dos"},{"postalCode":"62578","state":"Morelos","municipality":"Jiutepec","setelement":"CIVAC los Robles"},{"postalCode":"62578","state":"Morelos","municipality":"Jiutepec","setelement":"CIVAC 2a Sección"},{"postalCode":"62578","state":"Morelos","municipality":"Jiutepec","setelement":"CIVAC 1a Sección"},{"postalCode":"62580","state":"Morelos","municipality":"Temixco","setelement":"Temixco Centro"},{"postalCode":"62583","state":"Morelos","municipality":"Temixco","setelement":"Lomas de Guadalupe"},{"postalCode":"62583","state":"Morelos","municipality":"Temixco","setelement":"Alta Palmira"},{"postalCode":"62583","state":"Morelos","municipality":"Temixco","setelement":"Las Ánimas"},{"postalCode":"62583","state":"Morelos","municipality":"Temixco","setelement":"Lomas del Carril"},{"postalCode":"62583","state":"Morelos","municipality":"Temixco","setelement":"Los Presidentes"},{"postalCode":"62583","state":"Morelos","municipality":"Temixco","setelement":"Rinconada los Sauces"},{"postalCode":"62583","state":"Morelos","municipality":"Temixco","setelement":"Quetzal"},{"postalCode":"62584","state":"Morelos","municipality":"Temixco","setelement":"Burgos"},{"postalCode":"62584","state":"Morelos","municipality":"Temixco","setelement":"Lomas de Cuernavaca"},{"postalCode":"62584","state":"Morelos","municipality":"Temixco","setelement":"Brisas"},{"postalCode":"62584","state":"Morelos","municipality":"Temixco","setelement":"Junto al Río"},{"postalCode":"62584","state":"Morelos","municipality":"Temixco","setelement":"Valle Verde"},{"postalCode":"62584","state":"Morelos","municipality":"Temixco","setelement":"Burgos Bugambilias"},{"postalCode":"62584","state":"Morelos","municipality":"Temixco","setelement":"Burgos Sección Ontario"},{"postalCode":"62584","state":"Morelos","municipality":"Temixco","setelement":"Burgos Sección Casa Blanca"},{"postalCode":"62584","state":"Morelos","municipality":"Temixco","setelement":"Los Sabinos"},{"postalCode":"62584","state":"Morelos","municipality":"Temixco","setelement":"Rinconada del Río"},{"postalCode":"62585","state":"Morelos","municipality":"Temixco","setelement":"Vergel Santa Cruz"},{"postalCode":"62585","state":"Morelos","municipality":"Temixco","setelement":"Granjas Mérida"},{"postalCode":"62585","state":"Morelos","municipality":"Temixco","setelement":"Miguel Hidalgo"},{"postalCode":"62585","state":"Morelos","municipality":"Temixco","setelement":"Campo Sotelo"},{"postalCode":"62585","state":"Morelos","municipality":"Temixco","setelement":"Geo Villas la Hacienda"},{"postalCode":"62585","state":"Morelos","municipality":"Temixco","setelement":"Valparaíso"},{"postalCode":"62586","state":"Morelos","municipality":"Temixco","setelement":"Acatlipa Centro"},{"postalCode":"62586","state":"Morelos","municipality":"Temixco","setelement":"Río Apatlaco"},{"postalCode":"62586","state":"Morelos","municipality":"Temixco","setelement":"Los Arcos"},{"postalCode":"62586","state":"Morelos","municipality":"Temixco","setelement":"Las Rosas"},{"postalCode":"62586","state":"Morelos","municipality":"Temixco","setelement":"Los Sabinos"},{"postalCode":"62586","state":"Morelos","municipality":"Temixco","setelement":"Río Escondido"},{"postalCode":"62586","state":"Morelos","municipality":"Temixco","setelement":"Lomas de Acatlipa"},{"postalCode":"62586","state":"Morelos","municipality":"Temixco","setelement":"La Rivera"},{"postalCode":"62586","state":"Morelos","municipality":"Temixco","setelement":"Emiliano Zapata"},{"postalCode":"62586","state":"Morelos","municipality":"Temixco","setelement":"La Hacienda de Temixco"},{"postalCode":"62586","state":"Morelos","municipality":"Temixco","setelement":"Río Apatlaco 2a Sección"},{"postalCode":"62587","state":"Morelos","municipality":"Temixco","setelement":"10 de Abril"},{"postalCode":"62587","state":"Morelos","municipality":"Temixco","setelement":"Rubén Jaramillo"},{"postalCode":"62587","state":"Morelos","municipality":"Temixco","setelement":"Casa Blanca"},{"postalCode":"62587","state":"Morelos","municipality":"Temixco","setelement":"El Estribo"},{"postalCode":"62587","state":"Morelos","municipality":"Temixco","setelement":"Arboledas"},{"postalCode":"62587","state":"Morelos","municipality":"Temixco","setelement":"Campamento Medrano"},{"postalCode":"62588","state":"Morelos","municipality":"Temixco","setelement":"Conjunto Habitacional Campo Verde"},{"postalCode":"62588","state":"Morelos","municipality":"Temixco","setelement":"Colinas de Altar"},{"postalCode":"62588","state":"Morelos","municipality":"Temixco","setelement":"1ro de Mayo"},{"postalCode":"62588","state":"Morelos","municipality":"Temixco","setelement":"Lázaro Cárdenas del Río"},{"postalCode":"62588","state":"Morelos","municipality":"Temixco","setelement":"Ampliación Lázaro Cárdenas del Río"},{"postalCode":"62588","state":"Morelos","municipality":"Temixco","setelement":"Punta Verde"},{"postalCode":"62588","state":"Morelos","municipality":"Temixco","setelement":"Pueblo Viejo"},{"postalCode":"62588","state":"Morelos","municipality":"Temixco","setelement":"Morelos"},{"postalCode":"62588","state":"Morelos","municipality":"Temixco","setelement":"Pilcaya"},{"postalCode":"62588","state":"Morelos","municipality":"Temixco","setelement":"Azteca"},{"postalCode":"62588","state":"Morelos","municipality":"Temixco","setelement":"Lauro Ortega"},{"postalCode":"62588","state":"Morelos","municipality":"Temixco","setelement":"Conjunto Urbano Ayuntamiento 2000"},{"postalCode":"62588","state":"Morelos","municipality":"Temixco","setelement":"La Loma"},{"postalCode":"62588","state":"Morelos","municipality":"Temixco","setelement":"Loma Bonita"},{"postalCode":"62588","state":"Morelos","municipality":"Temixco","setelement":"Lomas del Ajonjolinar"},{"postalCode":"62590","state":"Morelos","municipality":"Temixco","setelement":"Aeropuerto"},{"postalCode":"62590","state":"Morelos","municipality":"Temixco","setelement":"Laureles"},{"postalCode":"62590","state":"Morelos","municipality":"Temixco","setelement":"Santa Mónica"},{"postalCode":"62593","state":"Morelos","municipality":"Temixco","setelement":"Benito Juárez (La Monera)"},{"postalCode":"62594","state":"Morelos","municipality":"Temixco","setelement":"San Agustín Tetlama"},{"postalCode":"62595","state":"Morelos","municipality":"Temixco","setelement":"Santa Úrsula"},{"postalCode":"62595","state":"Morelos","municipality":"Temixco","setelement":"Solidaridad"},{"postalCode":"62595","state":"Morelos","municipality":"Temixco","setelement":"Eterna Primavera"},{"postalCode":"62595","state":"Morelos","municipality":"Temixco","setelement":"La Parota"},{"postalCode":"62596","state":"Morelos","municipality":"Temixco","setelement":"Cuentepec"},{"postalCode":"62599","state":"Morelos","municipality":"Temixco","setelement":"Cuernavaca (Mariano Matamoros)"},{"postalCode":"62600","state":"Morelos","municipality":"Miacatlán","setelement":"Miacatlán"},{"postalCode":"62600","state":"Morelos","municipality":"Miacatlán","setelement":"Álvaro Obregón"},{"postalCode":"62600","state":"Morelos","municipality":"Miacatlán","setelement":"Vista Hermosa"},{"postalCode":"62600","state":"Morelos","municipality":"Miacatlán","setelement":"La Campesina (Colonia los Tulipanes)"},{"postalCode":"62605","state":"Morelos","municipality":"Miacatlán","setelement":"Brisas de Miacatlán"},{"postalCode":"62605","state":"Morelos","municipality":"Miacatlán","setelement":"La Toma"},{"postalCode":"62605","state":"Morelos","municipality":"Miacatlán","setelement":"El Rodeo"},{"postalCode":"62605","state":"Morelos","municipality":"Miacatlán","setelement":"Xochicalco (Cirenio Longares)"},{"postalCode":"62605","state":"Morelos","municipality":"Miacatlán","setelement":"El Mirador"},{"postalCode":"62605","state":"Morelos","municipality":"Miacatlán","setelement":"Emiliano Zapata"},{"postalCode":"62605","state":"Morelos","municipality":"Miacatlán","setelement":"Los Linares"},{"postalCode":"62605","state":"Morelos","municipality":"Miacatlán","setelement":"El Amate Amarillo"},{"postalCode":"62605","state":"Morelos","municipality":"Miacatlán","setelement":"Mejapa (El Puente Colorado)"},{"postalCode":"62606","state":"Morelos","municipality":"Coatetelco","setelement":"Coatetelco Centro"},{"postalCode":"62606","state":"Morelos","municipality":"Coatetelco","setelement":"Campo Acatzingo"},{"postalCode":"62606","state":"Morelos","municipality":"Coatetelco","setelement":"El Llano"},{"postalCode":"62606","state":"Morelos","municipality":"Coatetelco","setelement":"El Muelle"},{"postalCode":"62606","state":"Morelos","municipality":"Coatetelco","setelement":"General Pedro Saavedra"},{"postalCode":"62606","state":"Morelos","municipality":"Coatetelco","setelement":"3 de Mayo"},{"postalCode":"62606","state":"Morelos","municipality":"Coatetelco","setelement":"Benito Juárez"},{"postalCode":"62606","state":"Morelos","municipality":"Coatetelco","setelement":"Narvarte"},{"postalCode":"62607","state":"Morelos","municipality":"Miacatlán","setelement":"El Terrero"},{"postalCode":"62607","state":"Morelos","municipality":"Miacatlán","setelement":"El Tejón"},{"postalCode":"62607","state":"Morelos","municipality":"Miacatlán","setelement":"Terrero Grande"},{"postalCode":"62607","state":"Morelos","municipality":"Miacatlán","setelement":"La Lima (El Trapiche de Luna)"},{"postalCode":"62607","state":"Morelos","municipality":"Miacatlán","setelement":"Atzompa"},{"postalCode":"62607","state":"Morelos","municipality":"Miacatlán","setelement":"Huertos de Miacatlán"},{"postalCode":"62607","state":"Morelos","municipality":"Miacatlán","setelement":"Atzompa"},{"postalCode":"62607","state":"Morelos","municipality":"Miacatlán","setelement":"La Trilla"},{"postalCode":"62608","state":"Morelos","municipality":"Miacatlán","setelement":"Palo Grande"},{"postalCode":"62608","state":"Morelos","municipality":"Miacatlán","setelement":"Palpan de Baranda"},{"postalCode":"62608","state":"Morelos","municipality":"Miacatlán","setelement":"Tlajotla"},{"postalCode":"62608","state":"Morelos","municipality":"Miacatlán","setelement":"El Paredón"},{"postalCode":"62608","state":"Morelos","municipality":"Miacatlán","setelement":"El Rincón"},{"postalCode":"62608","state":"Morelos","municipality":"Miacatlán","setelement":"Rancho Viejo"},{"postalCode":"62610","state":"Morelos","municipality":"Coatlán del Río","setelement":"Coatlán del Río"},{"postalCode":"62613","state":"Morelos","municipality":"Coatlán del Río","setelement":"Buenavista de Aldama"},{"postalCode":"62613","state":"Morelos","municipality":"Coatlán del Río","setelement":"San José"},{"postalCode":"62613","state":"Morelos","municipality":"Coatlán del Río","setelement":"Tezoquipa"},{"postalCode":"62614","state":"Morelos","municipality":"Coatlán del Río","setelement":"Apancingo"},{"postalCode":"62614","state":"Morelos","municipality":"Coatlán del Río","setelement":"Chavarría"},{"postalCode":"62614","state":"Morelos","municipality":"Coatlán del Río","setelement":"Michapa"},{"postalCode":"62614","state":"Morelos","municipality":"Coatlán del Río","setelement":"Benito Juárez"},{"postalCode":"62614","state":"Morelos","municipality":"Coatlán del Río","setelement":"Cuernavaquita"},{"postalCode":"62615","state":"Morelos","municipality":"Coatlán del Río","setelement":"Tilancingo"},{"postalCode":"62615","state":"Morelos","municipality":"Coatlán del Río","setelement":"Santa Márgara"},{"postalCode":"62615","state":"Morelos","municipality":"Coatlán del Río","setelement":"San Antonio"},{"postalCode":"62615","state":"Morelos","municipality":"Coatlán del Río","setelement":"El Vado"},{"postalCode":"62615","state":"Morelos","municipality":"Coatlán del Río","setelement":"El Axixintle (El Treinta y Cinco)"},{"postalCode":"62616","state":"Morelos","municipality":"Coatlán del Río","setelement":"Cuauhtémoc"},{"postalCode":"62616","state":"Morelos","municipality":"Coatlán del Río","setelement":"Cocoyotla"},{"postalCode":"62616","state":"Morelos","municipality":"Coatlán del Río","setelement":"Morelos"},{"postalCode":"62616","state":"Morelos","municipality":"Coatlán del Río","setelement":"El Amate"},{"postalCode":"62616","state":"Morelos","municipality":"Coatlán del Río","setelement":"El Cerrito"},{"postalCode":"62616","state":"Morelos","municipality":"Coatlán del Río","setelement":"El Canelillo"},{"postalCode":"62616","state":"Morelos","municipality":"Coatlán del Río","setelement":"Puente el Arenal (La Joya)"},{"postalCode":"62620","state":"Morelos","municipality":"Tetecala","setelement":"El Charco"},{"postalCode":"62620","state":"Morelos","municipality":"Tetecala","setelement":"Francisco Sarabia"},{"postalCode":"62620","state":"Morelos","municipality":"Tetecala","setelement":"Tetecala"},{"postalCode":"62620","state":"Morelos","municipality":"Tetecala","setelement":"Llano Viejo"},{"postalCode":"62620","state":"Morelos","municipality":"Tetecala","setelement":"El Cerrito (Cerrito de las Cruces)"},{"postalCode":"62624","state":"Morelos","municipality":"Tetecala","setelement":"Sonora"},{"postalCode":"62624","state":"Morelos","municipality":"Tetecala","setelement":"Actopan"},{"postalCode":"62625","state":"Morelos","municipality":"Tetecala","setelement":"Cuautlita"},{"postalCode":"62625","state":"Morelos","municipality":"Tetecala","setelement":"El Aguacate"},{"postalCode":"62625","state":"Morelos","municipality":"Tetecala","setelement":"El Calicanto"},{"postalCode":"62625","state":"Morelos","municipality":"Tetecala","setelement":"Mariano Matamoros"},{"postalCode":"62625","state":"Morelos","municipality":"Tetecala","setelement":"Tonantzicalli"},{"postalCode":"62626","state":"Morelos","municipality":"Tetecala","setelement":"Contlalco"},{"postalCode":"62626","state":"Morelos","municipality":"Tetecala","setelement":"El Móvil"},{"postalCode":"62626","state":"Morelos","municipality":"Tetecala","setelement":"Palos de Fierro"},{"postalCode":"62630","state":"Morelos","municipality":"Mazatepec","setelement":"Centro Mazatepec"},{"postalCode":"62633","state":"Morelos","municipality":"Mazatepec","setelement":"Puentes de Fierro"},{"postalCode":"62633","state":"Morelos","municipality":"Mazatepec","setelement":"El Florido"},{"postalCode":"62633","state":"Morelos","municipality":"Mazatepec","setelement":"Valle Verde"},{"postalCode":"62634","state":"Morelos","municipality":"Mazatepec","setelement":"Justo Sierra"},{"postalCode":"62634","state":"Morelos","municipality":"Mazatepec","setelement":"Vista Hermosa"},{"postalCode":"62635","state":"Morelos","municipality":"Mazatepec","setelement":"Cuauchichinola"},{"postalCode":"62635","state":"Morelos","municipality":"Mazatepec","setelement":"La Vuelta"},{"postalCode":"62635","state":"Morelos","municipality":"Mazatepec","setelement":"Carmelo Rivera"},{"postalCode":"62635","state":"Morelos","municipality":"Mazatepec","setelement":"Ojos de Agua de Cuahuchichinola"},{"postalCode":"62636","state":"Morelos","municipality":"Mazatepec","setelement":"Santa Cruz Vista Alegre"},{"postalCode":"62636","state":"Morelos","municipality":"Mazatepec","setelement":"El Calvario"},{"postalCode":"62636","state":"Morelos","municipality":"Mazatepec","setelement":"Lomas del Calvario"},{"postalCode":"62636","state":"Morelos","municipality":"Mazatepec","setelement":"La Melena"},{"postalCode":"62636","state":"Morelos","municipality":"Mazatepec","setelement":"Lomas de Mazatepec"},{"postalCode":"62636","state":"Morelos","municipality":"Mazatepec","setelement":"Las Huertas"},{"postalCode":"62636","state":"Morelos","municipality":"Mazatepec","setelement":"La Trilla"},{"postalCode":"62640","state":"Morelos","municipality":"Amacuzac","setelement":"Amacuzac Centro"},{"postalCode":"62643","state":"Morelos","municipality":"Amacuzac","setelement":"Progreso"},{"postalCode":"62643","state":"Morelos","municipality":"Amacuzac","setelement":"El Paraíso"},{"postalCode":"62643","state":"Morelos","municipality":"Amacuzac","setelement":"Benito Juárez"},{"postalCode":"62643","state":"Morelos","municipality":"Amacuzac","setelement":"Miguel Hidalgo"},{"postalCode":"62643","state":"Morelos","municipality":"Amacuzac","setelement":"Barreal"},{"postalCode":"62644","state":"Morelos","municipality":"Amacuzac","setelement":"El Balceadero"},{"postalCode":"62644","state":"Morelos","municipality":"Amacuzac","setelement":"Bungalows"},{"postalCode":"62644","state":"Morelos","municipality":"Amacuzac","setelement":"Los Ángeles"},{"postalCode":"62644","state":"Morelos","municipality":"Amacuzac","setelement":"La Glorieta"},{"postalCode":"62645","state":"Morelos","municipality":"Amacuzac","setelement":"Xoapa"},{"postalCode":"62646","state":"Morelos","municipality":"Amacuzac","setelement":"San Gabriel las Palmas Centro"},{"postalCode":"62646","state":"Morelos","municipality":"Amacuzac","setelement":"Ocampo"},{"postalCode":"62646","state":"Morelos","municipality":"Amacuzac","setelement":"Los Baños de Tula"},{"postalCode":"62646","state":"Morelos","municipality":"Amacuzac","setelement":"La Cruz"},{"postalCode":"62646","state":"Morelos","municipality":"Amacuzac","setelement":"Tula"},{"postalCode":"62646","state":"Morelos","municipality":"Amacuzac","setelement":"Cuauhtémoc"},{"postalCode":"62646","state":"Morelos","municipality":"Amacuzac","setelement":"Las Flores"},{"postalCode":"62646","state":"Morelos","municipality":"Amacuzac","setelement":"El Mirador"},{"postalCode":"62647","state":"Morelos","municipality":"Amacuzac","setelement":"Miahuatlán (El Cuiji)"},{"postalCode":"62647","state":"Morelos","municipality":"Amacuzac","setelement":"El Paso de Miahuatlán"},{"postalCode":"62653","state":"Morelos","municipality":"Amacuzac","setelement":"Coahuixtla"},{"postalCode":"62653","state":"Morelos","municipality":"Amacuzac","setelement":"Cajones"},{"postalCode":"62653","state":"Morelos","municipality":"Amacuzac","setelement":"Rancho Nuevo"},{"postalCode":"62653","state":"Morelos","municipality":"Amacuzac","setelement":"El Rosal (El Alacrán)"},{"postalCode":"62653","state":"Morelos","municipality":"Amacuzac","setelement":"Oriental"},{"postalCode":"62653","state":"Morelos","municipality":"Amacuzac","setelement":"Campo Nuevo"},{"postalCode":"62653","state":"Morelos","municipality":"Amacuzac","setelement":"Los Arcos"},{"postalCode":"62653","state":"Morelos","municipality":"Amacuzac","setelement":"Zoquital"},{"postalCode":"62654","state":"Morelos","municipality":"Amacuzac","setelement":"Casahuatlán"},{"postalCode":"62654","state":"Morelos","municipality":"Amacuzac","setelement":"Ojo de Agua"},{"postalCode":"62654","state":"Morelos","municipality":"Amacuzac","setelement":"El Campamento"},{"postalCode":"62654","state":"Morelos","municipality":"Amacuzac","setelement":"Villa Verde"},{"postalCode":"62654","state":"Morelos","municipality":"Amacuzac","setelement":"Benito Juárez"},{"postalCode":"62654","state":"Morelos","municipality":"Amacuzac","setelement":"El Guamúchil"},{"postalCode":"62655","state":"Morelos","municipality":"Amacuzac","setelement":"La Calera"},{"postalCode":"62655","state":"Morelos","municipality":"Amacuzac","setelement":"Los Limones"},{"postalCode":"62655","state":"Morelos","municipality":"Amacuzac","setelement":"Ejidal"},{"postalCode":"62655","state":"Morelos","municipality":"Amacuzac","setelement":"La Playa"},{"postalCode":"62655","state":"Morelos","municipality":"Amacuzac","setelement":"Huascuautla"},{"postalCode":"62656","state":"Morelos","municipality":"Amacuzac","setelement":"Huajintlán"},{"postalCode":"62656","state":"Morelos","municipality":"Amacuzac","setelement":"Teacalco"},{"postalCode":"62660","state":"Morelos","municipality":"Puente de Ixtla","setelement":"Puente de Ixtla Centro"},{"postalCode":"62662","state":"Morelos","municipality":"Puente de Ixtla","setelement":"Guadalupe Victoria"},{"postalCode":"62662","state":"Morelos","municipality":"Puente de Ixtla","setelement":"Ampliación Guadalupe Victoria"},{"postalCode":"62662","state":"Morelos","municipality":"Puente de Ixtla","setelement":"Providencia"},{"postalCode":"62662","state":"Morelos","municipality":"Puente de Ixtla","setelement":"Morelos"},{"postalCode":"62662","state":"Morelos","municipality":"Puente de Ixtla","setelement":"Buenos Aires"},{"postalCode":"62663","state":"Morelos","municipality":"Puente de Ixtla","setelement":"Tranca del Coco"},{"postalCode":"62663","state":"Morelos","municipality":"Puente de Ixtla","setelement":"Cuauhtémoc"},{"postalCode":"62663","state":"Morelos","municipality":"Puente de Ixtla","setelement":"Loma Linda"},{"postalCode":"62663","state":"Morelos","municipality":"Puente de Ixtla","setelement":"Benito Juárez"},{"postalCode":"62663","state":"Morelos","municipality":"Puente de Ixtla","setelement":"Jardines de La Herradura"},{"postalCode":"62663","state":"Morelos","municipality":"Puente de Ixtla","setelement":"10 de Mayo"},{"postalCode":"62663","state":"Morelos","municipality":"Puente de Ixtla","setelement":"Gobernadores"},{"postalCode":"62663","state":"Morelos","municipality":"Puente de Ixtla","setelement":"Ampliación Jardines de la Herradura"},{"postalCode":"62663","state":"Morelos","municipality":"Puente de Ixtla","setelement":"Ampliación Benito Juárez"},{"postalCode":"62663","state":"Morelos","municipality":"Puente de Ixtla","setelement":"Valle Dorado"},{"postalCode":"62664","state":"Morelos","municipality":"Puente de Ixtla","setelement":"Emiliano Zapata"},{"postalCode":"62664","state":"Morelos","municipality":"Puente de Ixtla","setelement":"Miguel Hidalgo"},{"postalCode":"62665","state":"Morelos","municipality":"Puente de Ixtla","setelement":"Los Arcos"},{"postalCode":"62665","state":"Morelos","municipality":"Puente de Ixtla","setelement":"San Mateo"},{"postalCode":"62665","state":"Morelos","municipality":"Puente de Ixtla","setelement":"Norte"},{"postalCode":"62665","state":"Morelos","municipality":"Puente de Ixtla","setelement":"INFONAVIT Casa Blanca"},{"postalCode":"62665","state":"Morelos","municipality":"Puente de Ixtla","setelement":"24 de Febrero"},{"postalCode":"62665","state":"Morelos","municipality":"Puente de Ixtla","setelement":"Valle Bonito (Los Arcos Caídos)"},{"postalCode":"62665","state":"Morelos","municipality":"Puente de Ixtla","setelement":"El Naranjo"},{"postalCode":"62665","state":"Morelos","municipality":"Puente de Ixtla","setelement":"El Salado"},{"postalCode":"62666","state":"Morelos","municipality":"Puente de Ixtla","setelement":"Ahuehuetzingo"},{"postalCode":"62666","state":"Morelos","municipality":"Puente de Ixtla","setelement":"Agua Salada"},{"postalCode":"62666","state":"Morelos","municipality":"Puente de Ixtla","setelement":"Kilómetro 107 (Loma Larga)"},{"postalCode":"62668","state":"Morelos","municipality":"Puente de Ixtla","setelement":"El Coco"},{"postalCode":"62670","state":"Morelos","municipality":"Puente de Ixtla","setelement":"San José Vista Hermosa"},{"postalCode":"62670","state":"Morelos","municipality":"Puente de Ixtla","setelement":"Morelos"},{"postalCode":"62670","state":"Morelos","municipality":"Puente de Ixtla","setelement":"Las Alas"},{"postalCode":"62670","state":"Morelos","municipality":"Puente de Ixtla","setelement":"Miguel de la Madrid"},{"postalCode":"62670","state":"Morelos","municipality":"Puente de Ixtla","setelement":"Aeródromo"},{"postalCode":"62676","state":"Morelos","municipality":"Puente de Ixtla","setelement":"Lomas Altas"},{"postalCode":"62680","state":"Morelos","municipality":"Xoxocotla","setelement":"Xoxocotla Centro"},{"postalCode":"62680","state":"Morelos","municipality":"Xoxocotla","setelement":"Los Guajes"},{"postalCode":"62680","state":"Morelos","municipality":"Xoxocotla","setelement":"Techichilco"},{"postalCode":"62680","state":"Morelos","municipality":"Xoxocotla","setelement":"Prolongación Benito Juárez"},{"postalCode":"62680","state":"Morelos","municipality":"Xoxocotla","setelement":"El Arco"},{"postalCode":"62680","state":"Morelos","municipality":"Xoxocotla","setelement":"Campo Anenehuilco"},{"postalCode":"62684","state":"Morelos","municipality":"Xoxocotla","setelement":"Hermosa"},{"postalCode":"62685","state":"Morelos","municipality":"Xoxocotla","setelement":"Apozonalco"},{"postalCode":"62686","state":"Morelos","municipality":"Xoxocotla","setelement":"Las Flores (la Xochitl)"},{"postalCode":"62687","state":"Morelos","municipality":"Xoxocotla","setelement":"Tecomulco"},{"postalCode":"62690","state":"Morelos","municipality":"Puente de Ixtla","setelement":"Tilzapotla"},{"postalCode":"62693","state":"Morelos","municipality":"Puente de Ixtla","setelement":"Los Ídolos"},{"postalCode":"62693","state":"Morelos","municipality":"Puente de Ixtla","setelement":"San Pedro"},{"postalCode":"62693","state":"Morelos","municipality":"Puente de Ixtla","setelement":"Los Pinos"},{"postalCode":"62693","state":"Morelos","municipality":"Puente de Ixtla","setelement":"Los Papayos"},{"postalCode":"62694","state":"Morelos","municipality":"Puente de Ixtla","setelement":"Piedra Blanca"},{"postalCode":"62695","state":"Morelos","municipality":"Puente de Ixtla","setelement":"El Zapote"},{"postalCode":"62695","state":"Morelos","municipality":"Puente de Ixtla","setelement":"Los Amatitos"},{"postalCode":"62695","state":"Morelos","municipality":"Puente de Ixtla","setelement":"El Salto"},{"postalCode":"62696","state":"Morelos","municipality":"Puente de Ixtla","setelement":"La Tigra"},{"postalCode":"62696","state":"Morelos","municipality":"Puente de Ixtla","setelement":"Las Albóndigas"},{"postalCode":"62696","state":"Morelos","municipality":"Puente de Ixtla","setelement":"Los Tanques"},{"postalCode":"62696","state":"Morelos","municipality":"Puente de Ixtla","setelement":"El Mango"},{"postalCode":"62697","state":"Morelos","municipality":"Puente de Ixtla","setelement":"El Estudiante"},{"postalCode":"62697","state":"Morelos","municipality":"Puente de Ixtla","setelement":"Loma Florida"},{"postalCode":"62700","state":"Morelos","municipality":"Ayala","setelement":"Ciudad Ayala"},{"postalCode":"62700","state":"Morelos","municipality":"Ayala","setelement":"Puente Blanco"},{"postalCode":"62700","state":"Morelos","municipality":"Ayala","setelement":"Buenavista"},{"postalCode":"62704","state":"Morelos","municipality":"Ayala","setelement":"Ampliación Cruz Verde"},{"postalCode":"62704","state":"Morelos","municipality":"Ayala","setelement":"Cruz Verde"},{"postalCode":"62710","state":"Morelos","municipality":"Ayala","setelement":"Anenecuilco Centro"},{"postalCode":"62713","state":"Morelos","municipality":"Ayala","setelement":"Olintepec"},{"postalCode":"62713","state":"Morelos","municipality":"Ayala","setelement":"El Jagüey"},{"postalCode":"62713","state":"Morelos","municipality":"Ayala","setelement":"Las Flores"},{"postalCode":"62713","state":"Morelos","municipality":"Ayala","setelement":"La Joya Escondida"},{"postalCode":"62713","state":"Morelos","municipality":"Ayala","setelement":"Marcelino Ortega"},{"postalCode":"62713","state":"Morelos","municipality":"Ayala","setelement":"Campo San Miguel"},{"postalCode":"62713","state":"Morelos","municipality":"Ayala","setelement":"Zona Sur Anenecuilco"},{"postalCode":"62714","state":"Morelos","municipality":"Ayala","setelement":"Residencial La Cantera"},{"postalCode":"62714","state":"Morelos","municipality":"Ayala","setelement":"Residencial Villa de los Arcos"},{"postalCode":"62714","state":"Morelos","municipality":"Ayala","setelement":"San Pedro Apatlaco"},{"postalCode":"62714","state":"Morelos","municipality":"Ayala","setelement":"Benito Juárez"},{"postalCode":"62714","state":"Morelos","municipality":"Ayala","setelement":"Niños Héroes"},{"postalCode":"62714","state":"Morelos","municipality":"Ayala","setelement":"Nuevo México ( Los Apaches )"},{"postalCode":"62714","state":"Morelos","municipality":"Ayala","setelement":"La Doncella"},{"postalCode":"62714","state":"Morelos","municipality":"Ayala","setelement":"Mirador"},{"postalCode":"62714","state":"Morelos","municipality":"Ayala","setelement":"Cuahuixtla"},{"postalCode":"62714","state":"Morelos","municipality":"Ayala","setelement":"La Joya"},{"postalCode":"62714","state":"Morelos","municipality":"Ayala","setelement":"Las Arboledas"},{"postalCode":"62714","state":"Morelos","municipality":"Ayala","setelement":"Rafael Merino (San Antonio)"},{"postalCode":"62714","state":"Morelos","municipality":"Ayala","setelement":"Reforma"},{"postalCode":"62714","state":"Morelos","municipality":"Ayala","setelement":"Campo la Escopeta"},{"postalCode":"62715","state":"Morelos","municipality":"Ayala","setelement":"El Decreto"},{"postalCode":"62715","state":"Morelos","municipality":"Ayala","setelement":"Residencial Los Sauces"},{"postalCode":"62715","state":"Morelos","municipality":"Ayala","setelement":"Paseos de Ayala"},{"postalCode":"62715","state":"Morelos","municipality":"Ayala","setelement":"Paseos de Ayala II"},{"postalCode":"62715","state":"Morelos","municipality":"Ayala","setelement":"Tlayecac"},{"postalCode":"62715","state":"Morelos","municipality":"Ayala","setelement":"10 de Abril"},{"postalCode":"62715","state":"Morelos","municipality":"Ayala","setelement":"Huertas de Cuautla"},{"postalCode":"62715","state":"Morelos","municipality":"Ayala","setelement":"Mariano Matamoros"},{"postalCode":"62715","state":"Morelos","municipality":"Ayala","setelement":"Prados del Sol"},{"postalCode":"62715","state":"Morelos","municipality":"Ayala","setelement":"El Venadito"},{"postalCode":"62715","state":"Morelos","municipality":"Ayala","setelement":"Isla de Cuautla"},{"postalCode":"62715","state":"Morelos","municipality":"Ayala","setelement":"Citlalin"},{"postalCode":"62715","state":"Morelos","municipality":"Ayala","setelement":"Paraíso Tlahuica"},{"postalCode":"62715","state":"Morelos","municipality":"Ayala","setelement":"Las Llaves"},{"postalCode":"62715","state":"Morelos","municipality":"Ayala","setelement":"Parque Industrial Cuautla"},{"postalCode":"62717","state":"Morelos","municipality":"Ayala","setelement":"El Chivatero"},{"postalCode":"62717","state":"Morelos","municipality":"Ayala","setelement":"General Emiliano Zapata (El Chivatero)"},{"postalCode":"62718","state":"Morelos","municipality":"Ayala","setelement":"Moyotepec"},{"postalCode":"62718","state":"Morelos","municipality":"Ayala","setelement":"Segunda Ampliación Moyotepec"},{"postalCode":"62720","state":"Morelos","municipality":"Ayala","setelement":"Huacatlaco (Los Anonos)"},{"postalCode":"62720","state":"Morelos","municipality":"Ayala","setelement":"Huitzililla"},{"postalCode":"62720","state":"Morelos","municipality":"Ayala","setelement":"Jaloxtoc"},{"postalCode":"62720","state":"Morelos","municipality":"Ayala","setelement":"El Sifón de la Cuera"},{"postalCode":"62720","state":"Morelos","municipality":"Ayala","setelement":"Ojo de Agua"},{"postalCode":"62723","state":"Morelos","municipality":"Ayala","setelement":"Chinameca"},{"postalCode":"62723","state":"Morelos","municipality":"Ayala","setelement":"El Vergel"},{"postalCode":"62723","state":"Morelos","municipality":"Ayala","setelement":"Palo Blanco"},{"postalCode":"62723","state":"Morelos","municipality":"Ayala","setelement":"Tecomalco"},{"postalCode":"62723","state":"Morelos","municipality":"Ayala","setelement":"La Cucaracha"},{"postalCode":"62723","state":"Morelos","municipality":"Ayala","setelement":"Las Joyas"},{"postalCode":"62724","state":"Morelos","municipality":"Ayala","setelement":"El Salitre"},{"postalCode":"62724","state":"Morelos","municipality":"Ayala","setelement":"San Juan Ahuehueyo"},{"postalCode":"62724","state":"Morelos","municipality":"Ayala","setelement":"San Vicente de Juárez (Las Piedras)"},{"postalCode":"62724","state":"Morelos","municipality":"Ayala","setelement":"Loma Bonita"},{"postalCode":"62724","state":"Morelos","municipality":"Ayala","setelement":"Buenavista"},{"postalCode":"62724","state":"Morelos","municipality":"Ayala","setelement":"Valle de Morelos"},{"postalCode":"62725","state":"Morelos","municipality":"Ayala","setelement":"Rafael Merino"},{"postalCode":"62725","state":"Morelos","municipality":"Ayala","setelement":"Leopoldo Heredia"},{"postalCode":"62725","state":"Morelos","municipality":"Ayala","setelement":"Tenextepango"},{"postalCode":"62725","state":"Morelos","municipality":"Ayala","setelement":"Abelardo L. Rodríguez"},{"postalCode":"62725","state":"Morelos","municipality":"Ayala","setelement":"La Libertad"},{"postalCode":"62725","state":"Morelos","municipality":"Ayala","setelement":"Las Lumbreras"},{"postalCode":"62725","state":"Morelos","municipality":"Ayala","setelement":"Constancio Farfán (La Pascuala)"},{"postalCode":"62725","state":"Morelos","municipality":"Ayala","setelement":"Ampliación Tenextepango"},{"postalCode":"62730","state":"Morelos","municipality":"Yautepec","setelement":"Centro"},{"postalCode":"62732","state":"Morelos","municipality":"Yautepec","setelement":"Oasis Yautepec II"},{"postalCode":"62732","state":"Morelos","municipality":"Yautepec","setelement":"El Manantial"},{"postalCode":"62732","state":"Morelos","municipality":"Yautepec","setelement":"Oasis"},{"postalCode":"62732","state":"Morelos","municipality":"Yautepec","setelement":"Ixtlahuacan"},{"postalCode":"62732","state":"Morelos","municipality":"Yautepec","setelement":"Felipe Neri"},{"postalCode":"62732","state":"Morelos","municipality":"Yautepec","setelement":"Benito Juárez"},{"postalCode":"62732","state":"Morelos","municipality":"Yautepec","setelement":"Santiago"},{"postalCode":"62732","state":"Morelos","municipality":"Yautepec","setelement":"Jacarandas"},{"postalCode":"62732","state":"Morelos","municipality":"Yautepec","setelement":"Vicente Estrada Cajigal"},{"postalCode":"62732","state":"Morelos","municipality":"Yautepec","setelement":"Ignacio Manuel Altamirano"},{"postalCode":"62732","state":"Morelos","municipality":"Yautepec","setelement":"13 de Septiembre"},{"postalCode":"62732","state":"Morelos","municipality":"Yautepec","setelement":"Ignacio Zaragoza"},{"postalCode":"62732","state":"Morelos","municipality":"Yautepec","setelement":"Lomas del Potrero"},{"postalCode":"62732","state":"Morelos","municipality":"Yautepec","setelement":"Apanquetzalco"},{"postalCode":"62732","state":"Morelos","municipality":"Yautepec","setelement":"Tabachines"},{"postalCode":"62732","state":"Morelos","municipality":"Yautepec","setelement":"Villas Jazmín"},{"postalCode":"62732","state":"Morelos","municipality":"Yautepec","setelement":"Rincón de los Ciruelos"},{"postalCode":"62732","state":"Morelos","municipality":"Yautepec","setelement":"Jacarandas"},{"postalCode":"62732","state":"Morelos","municipality":"Yautepec","setelement":"Las Quintas"},{"postalCode":"62732","state":"Morelos","municipality":"Yautepec","setelement":"Jacarandas"},{"postalCode":"62732","state":"Morelos","municipality":"Yautepec","setelement":"Villareal"},{"postalCode":"62732","state":"Morelos","municipality":"Yautepec","setelement":"Los Naranjos"},{"postalCode":"62732","state":"Morelos","municipality":"Yautepec","setelement":"La Selva"},{"postalCode":"62732","state":"Morelos","municipality":"Yautepec","setelement":"Los Mangos"},{"postalCode":"62732","state":"Morelos","municipality":"Yautepec","setelement":"Viyautepec"},{"postalCode":"62732","state":"Morelos","municipality":"Yautepec","setelement":"Conjunto Valle Verde"},{"postalCode":"62732","state":"Morelos","municipality":"Yautepec","setelement":"Las Zamoras"},{"postalCode":"62732","state":"Morelos","municipality":"Yautepec","setelement":"Tlacaelel"},{"postalCode":"62732","state":"Morelos","municipality":"Yautepec","setelement":"Beit Mellat"},{"postalCode":"62732","state":"Morelos","municipality":"Yautepec","setelement":"El Rocio"},{"postalCode":"62732","state":"Morelos","municipality":"Yautepec","setelement":"La Gema"},{"postalCode":"62732","state":"Morelos","municipality":"Yautepec","setelement":"La Morena"},{"postalCode":"62732","state":"Morelos","municipality":"Yautepec","setelement":"La Antigua"},{"postalCode":"62732","state":"Morelos","municipality":"Yautepec","setelement":"Conjunto Tepetlixpa"},{"postalCode":"62732","state":"Morelos","municipality":"Yautepec","setelement":"Laureles"},{"postalCode":"62732","state":"Morelos","municipality":"Yautepec","setelement":"Residencial Yautepec"},{"postalCode":"62732","state":"Morelos","municipality":"Yautepec","setelement":"Amates"},{"postalCode":"62732","state":"Morelos","municipality":"Yautepec","setelement":"Mi Pueblito"},{"postalCode":"62733","state":"Morelos","municipality":"Yautepec","setelement":"Los Mangos"},{"postalCode":"62733","state":"Morelos","municipality":"Yautepec","setelement":"Atlihuayan"},{"postalCode":"62733","state":"Morelos","municipality":"Yautepec","setelement":"5 de Mayo"},{"postalCode":"62733","state":"Morelos","municipality":"Yautepec","setelement":"El Rocío"},{"postalCode":"62733","state":"Morelos","municipality":"Yautepec","setelement":"Rancho Nuevo"},{"postalCode":"62733","state":"Morelos","municipality":"Yautepec","setelement":"24 de Febrero"},{"postalCode":"62733","state":"Morelos","municipality":"Yautepec","setelement":"Luis Echeverría"},{"postalCode":"62733","state":"Morelos","municipality":"Yautepec","setelement":"Buenavista"},{"postalCode":"62733","state":"Morelos","municipality":"Yautepec","setelement":"Emiliano Zapata"},{"postalCode":"62733","state":"Morelos","municipality":"Yautepec","setelement":"Alfredo Bonfil"},{"postalCode":"62733","state":"Morelos","municipality":"Yautepec","setelement":"Otilio Montaño"},{"postalCode":"62733","state":"Morelos","municipality":"Yautepec","setelement":"Paraíso"},{"postalCode":"62733","state":"Morelos","municipality":"Yautepec","setelement":"San Juan"},{"postalCode":"62733","state":"Morelos","municipality":"Yautepec","setelement":"Cuauhtémoc"},{"postalCode":"62733","state":"Morelos","municipality":"Yautepec","setelement":"Huizachera"},{"postalCode":"62733","state":"Morelos","municipality":"Yautepec","setelement":"Paracas"},{"postalCode":"62733","state":"Morelos","municipality":"Yautepec","setelement":"San Juanito"},{"postalCode":"62733","state":"Morelos","municipality":"Yautepec","setelement":"Lomas del Real"},{"postalCode":"62733","state":"Morelos","municipality":"Yautepec","setelement":"Jovito Serrano"},{"postalCode":"62733","state":"Morelos","municipality":"Yautepec","setelement":"Villas del Paraíso"},{"postalCode":"62733","state":"Morelos","municipality":"Yautepec","setelement":"El Limón"},{"postalCode":"62733","state":"Morelos","municipality":"Yautepec","setelement":"Residencial Cañaveral"},{"postalCode":"62733","state":"Morelos","municipality":"Yautepec","setelement":"Residencial Llano Grande"},{"postalCode":"62733","state":"Morelos","municipality":"Yautepec","setelement":"Residencial del Bosque"},{"postalCode":"62733","state":"Morelos","municipality":"Yautepec","setelement":"Residencial Maravillas"},{"postalCode":"62733","state":"Morelos","municipality":"Yautepec","setelement":"Villas Jazmín II"},{"postalCode":"62733","state":"Morelos","municipality":"Yautepec","setelement":"Yautli"},{"postalCode":"62733","state":"Morelos","municipality":"Yautepec","setelement":"La Ceiba"},{"postalCode":"62733","state":"Morelos","municipality":"Yautepec","setelement":"El Rocío"},{"postalCode":"62735","state":"Morelos","municipality":"Yautepec","setelement":"La Joya"},{"postalCode":"62735","state":"Morelos","municipality":"Yautepec","setelement":"Amador Salazar"},{"postalCode":"62735","state":"Morelos","municipality":"Yautepec","setelement":"Ampliación Tetillas"},{"postalCode":"62735","state":"Morelos","municipality":"Yautepec","setelement":"Álvaro Leonel"},{"postalCode":"62736","state":"Morelos","municipality":"Yautepec","setelement":"Cuachixolotera"},{"postalCode":"62736","state":"Morelos","municipality":"Yautepec","setelement":"Hacienda Cocoyoc"},{"postalCode":"62736","state":"Morelos","municipality":"Yautepec","setelement":"Villas de Cocoyoc"},{"postalCode":"62736","state":"Morelos","municipality":"Yautepec","setelement":"Cuauhtémoc"},{"postalCode":"62736","state":"Morelos","municipality":"Yautepec","setelement":"Cocoyoc"},{"postalCode":"62736","state":"Morelos","municipality":"Yautepec","setelement":"Vicente Guerrero"},{"postalCode":"62736","state":"Morelos","municipality":"Yautepec","setelement":"Francisco Villa"},{"postalCode":"62736","state":"Morelos","municipality":"Yautepec","setelement":"Tehuixtlera"},{"postalCode":"62736","state":"Morelos","municipality":"Yautepec","setelement":"Alejandra"},{"postalCode":"62736","state":"Morelos","municipality":"Yautepec","setelement":"Viveros de Cocoyoc"},{"postalCode":"62736","state":"Morelos","municipality":"Yautepec","setelement":"Lucio Moreno"},{"postalCode":"62736","state":"Morelos","municipality":"Yautepec","setelement":"Ampliación Vicente Guerrero"},{"postalCode":"62736","state":"Morelos","municipality":"Yautepec","setelement":"El Partidor"},{"postalCode":"62736","state":"Morelos","municipality":"Yautepec","setelement":"La Coaxiolotera"},{"postalCode":"62736","state":"Morelos","municipality":"Yautepec","setelement":"El Potrero"},{"postalCode":"62737","state":"Morelos","municipality":"Yautepec","setelement":"Arco Antiguo"},{"postalCode":"62737","state":"Morelos","municipality":"Yautepec","setelement":"10 de Abril"},{"postalCode":"62737","state":"Morelos","municipality":"Yautepec","setelement":"Itzamatitlán"},{"postalCode":"62737","state":"Morelos","municipality":"Yautepec","setelement":"La Nopalera"},{"postalCode":"62737","state":"Morelos","municipality":"Yautepec","setelement":"El Caracol (Campo Chiquito)"},{"postalCode":"62737","state":"Morelos","municipality":"Yautepec","setelement":"Los Arcos"},{"postalCode":"62737","state":"Morelos","municipality":"Yautepec","setelement":"Ignacio Bastida (Santa Catarina Tlayca)"},{"postalCode":"62737","state":"Morelos","municipality":"Yautepec","setelement":"Lázaro Cárdenas (El Empalme)"},{"postalCode":"62737","state":"Morelos","municipality":"Yautepec","setelement":"Oacalco"},{"postalCode":"62737","state":"Morelos","municipality":"Yautepec","setelement":"San Carlos"},{"postalCode":"62737","state":"Morelos","municipality":"Yautepec","setelement":"El Zarco"},{"postalCode":"62737","state":"Morelos","municipality":"Yautepec","setelement":"Francisco I. Madero (La Nopalera)"},{"postalCode":"62737","state":"Morelos","municipality":"Yautepec","setelement":"Santa Lucía (Ampliación Itzamatitlán)"},{"postalCode":"62737","state":"Morelos","municipality":"Yautepec","setelement":"El Michate"},{"postalCode":"62738","state":"Morelos","municipality":"Yautepec","setelement":"José Ortiz (San Martín)"},{"postalCode":"62738","state":"Morelos","municipality":"Yautepec","setelement":"Oaxtepec Centro"},{"postalCode":"62738","state":"Morelos","municipality":"Yautepec","setelement":"Santa Rosa"},{"postalCode":"62738","state":"Morelos","municipality":"Yautepec","setelement":"Huertos de Oaxtepec"},{"postalCode":"62738","state":"Morelos","municipality":"Yautepec","setelement":"Colinas de Oaxtepec"},{"postalCode":"62738","state":"Morelos","municipality":"Yautepec","setelement":"Amates de Oaxtepec"},{"postalCode":"62738","state":"Morelos","municipality":"Yautepec","setelement":"Pedregal de Oaxtepec"},{"postalCode":"62738","state":"Morelos","municipality":"Yautepec","setelement":"Real de Oaxtepec"},{"postalCode":"62738","state":"Morelos","municipality":"Yautepec","setelement":"Jacarandas"},{"postalCode":"62738","state":"Morelos","municipality":"Yautepec","setelement":"El Capulín"},{"postalCode":"62738","state":"Morelos","municipality":"Yautepec","setelement":"Vergeles de Oaxtepec"},{"postalCode":"62738","state":"Morelos","municipality":"Yautepec","setelement":"Altos de Oaxtepec"},{"postalCode":"62738","state":"Morelos","municipality":"Yautepec","setelement":"Centro Vacacional Oaxtepec"},{"postalCode":"62738","state":"Morelos","municipality":"Yautepec","setelement":"Ampliación el Capulín"},{"postalCode":"62738","state":"Morelos","municipality":"Yautepec","setelement":"Emiliano Zapata (Palo Mocho)"},{"postalCode":"62738","state":"Morelos","municipality":"Yautepec","setelement":"Corral Grande"},{"postalCode":"62738","state":"Morelos","municipality":"Yautepec","setelement":"Los Ojos de Ahuilican"},{"postalCode":"62738","state":"Morelos","municipality":"Yautepec","setelement":"Ejidal Tezoquipa"},{"postalCode":"62738","state":"Morelos","municipality":"Yautepec","setelement":"Curva Melón Zacate"},{"postalCode":"62738","state":"Morelos","municipality":"Yautepec","setelement":"Emiliano Zapata (Casahuates)"},{"postalCode":"62738","state":"Morelos","municipality":"Yautepec","setelement":"Campo los Limones"},{"postalCode":"62739","state":"Morelos","municipality":"Yautepec","setelement":"Miguel Hidalgo (Los Cuartos)"},{"postalCode":"62739","state":"Morelos","municipality":"Yautepec","setelement":"Diego Ruiz"},{"postalCode":"62739","state":"Morelos","municipality":"Yautepec","setelement":"San Isidro"},{"postalCode":"62739","state":"Morelos","municipality":"Yautepec","setelement":"El Caudillo del Sur"},{"postalCode":"62739","state":"Morelos","municipality":"Yautepec","setelement":"Campo Joya de las Víboras"},{"postalCode":"62739","state":"Morelos","municipality":"Yautepec","setelement":"Rincón del Río"},{"postalCode":"62739","state":"Morelos","municipality":"Yautepec","setelement":"San Pablo"},{"postalCode":"62739","state":"Morelos","municipality":"Yautepec","setelement":"Huertos el Mirador"},{"postalCode":"62739","state":"Morelos","municipality":"Yautepec","setelement":"Valle Encantado"},{"postalCode":"62740","state":"Morelos","municipality":"Cuautla","setelement":"Centro"},{"postalCode":"62742","state":"Morelos","municipality":"Cuautla","setelement":"Casas del Río"},{"postalCode":"62742","state":"Morelos","municipality":"Cuautla","setelement":"Gabriel Tepepa"},{"postalCode":"62742","state":"Morelos","municipality":"Cuautla","setelement":"Pablo Torres Burgos"},{"postalCode":"62742","state":"Morelos","municipality":"Cuautla","setelement":"Xochitengo"},{"postalCode":"62742","state":"Morelos","municipality":"Cuautla","setelement":"Nueva San José"},{"postalCode":"62742","state":"Morelos","municipality":"Cuautla","setelement":"Francisco I Madero"},{"postalCode":"62742","state":"Morelos","municipality":"Cuautla","setelement":"Reforma"},{"postalCode":"62742","state":"Morelos","municipality":"Cuautla","setelement":"Ampliación Gabriel Tepepa"},{"postalCode":"62743","state":"Morelos","municipality":"Cuautla","setelement":"Hermenegildo Galeana"},{"postalCode":"62743","state":"Morelos","municipality":"Cuautla","setelement":"Agua Hedionda"},{"postalCode":"62743","state":"Morelos","municipality":"Cuautla","setelement":"5 de Febrero"},{"postalCode":"62743","state":"Morelos","municipality":"Cuautla","setelement":"Niño Artillero"},{"postalCode":"62743","state":"Morelos","municipality":"Cuautla","setelement":"Plan de Ayala"},{"postalCode":"62743","state":"Morelos","municipality":"Cuautla","setelement":"Ampliación Plan de Ayala"},{"postalCode":"62743","state":"Morelos","municipality":"Cuautla","setelement":"Benito Juárez"},{"postalCode":"62743","state":"Morelos","municipality":"Cuautla","setelement":"Iztaccihuatl"},{"postalCode":"62743","state":"Morelos","municipality":"Cuautla","setelement":"Los Amates"},{"postalCode":"62743","state":"Morelos","municipality":"Cuautla","setelement":"La Pedregosa"},{"postalCode":"62743","state":"Morelos","municipality":"Cuautla","setelement":"La Biznaga"},{"postalCode":"62743","state":"Morelos","municipality":"Cuautla","setelement":"Ampliación Hermenegildo Galeana"},{"postalCode":"62743","state":"Morelos","municipality":"Cuautla","setelement":"Paraíso"},{"postalCode":"62743","state":"Morelos","municipality":"Cuautla","setelement":"Trincheras"},{"postalCode":"62743","state":"Morelos","municipality":"Cuautla","setelement":"Ampliación Biznaga Uno"},{"postalCode":"62743","state":"Morelos","municipality":"Cuautla","setelement":"Campo Nuevo"},{"postalCode":"62743","state":"Morelos","municipality":"Cuautla","setelement":"Villareal Lomas de Cuautla"},{"postalCode":"62743","state":"Morelos","municipality":"Cuautla","setelement":"Ampliación 5 de Febrero"},{"postalCode":"62744","state":"Morelos","municipality":"Cuautla","setelement":"10 de Abril"},{"postalCode":"62744","state":"Morelos","municipality":"Cuautla","setelement":"Emiliano Zapata"},{"postalCode":"62744","state":"Morelos","municipality":"Cuautla","setelement":"Héroe de Nacozari"},{"postalCode":"62744","state":"Morelos","municipality":"Cuautla","setelement":"Morelos"},{"postalCode":"62744","state":"Morelos","municipality":"Cuautla","setelement":"Progreso"},{"postalCode":"62744","state":"Morelos","municipality":"Cuautla","setelement":"Ampliación Emiliano Zapata"},{"postalCode":"62744","state":"Morelos","municipality":"Cuautla","setelement":"Martínez Peña (Los Dos Puentes)"},{"postalCode":"62746","state":"Morelos","municipality":"Cuautla","setelement":"5 de Diciembre"},{"postalCode":"62746","state":"Morelos","municipality":"Cuautla","setelement":"Guadalupe Victoria"},{"postalCode":"62746","state":"Morelos","municipality":"Cuautla","setelement":"Flamingos"},{"postalCode":"62746","state":"Morelos","municipality":"Cuautla","setelement":"Manantiales"},{"postalCode":"62746","state":"Morelos","municipality":"Cuautla","setelement":"Otilio Montaño"},{"postalCode":"62746","state":"Morelos","municipality":"Cuautla","setelement":"La Cerrillera"},{"postalCode":"62746","state":"Morelos","municipality":"Cuautla","setelement":"Ampliación Tepeyac"},{"postalCode":"62746","state":"Morelos","municipality":"Cuautla","setelement":"Tepeyac"},{"postalCode":"62746","state":"Morelos","municipality":"Cuautla","setelement":"Agua Blanca"},{"postalCode":"62747","state":"Morelos","municipality":"Cuautla","setelement":"Araucaria"},{"postalCode":"62747","state":"Morelos","municipality":"Cuautla","setelement":"Los Sabinos"},{"postalCode":"62747","state":"Morelos","municipality":"Cuautla","setelement":"Río Verde Infonavit"},{"postalCode":"62747","state":"Morelos","municipality":"Cuautla","setelement":"Santa Cruz"},{"postalCode":"62747","state":"Morelos","municipality":"Cuautla","setelement":"Valle del Sol"},{"postalCode":"62747","state":"Morelos","municipality":"Cuautla","setelement":"Cuautlixco"},{"postalCode":"62747","state":"Morelos","municipality":"Cuautla","setelement":"Estrella"},{"postalCode":"62747","state":"Morelos","municipality":"Cuautla","setelement":"Ignacio Zaragoza"},{"postalCode":"62747","state":"Morelos","municipality":"Cuautla","setelement":"ISSFAM"},{"postalCode":"62747","state":"Morelos","municipality":"Cuautla","setelement":"Tierra y Libertad"},{"postalCode":"62747","state":"Morelos","municipality":"Cuautla","setelement":"Santa Rosa"},{"postalCode":"62747","state":"Morelos","municipality":"Cuautla","setelement":"7 de Noviembre"},{"postalCode":"62747","state":"Morelos","municipality":"Cuautla","setelement":"Residencial del Bosque"},{"postalCode":"62747","state":"Morelos","municipality":"Cuautla","setelement":"Residencial los Arcos"},{"postalCode":"62747","state":"Morelos","municipality":"Cuautla","setelement":"Los Cerritos"},{"postalCode":"62747","state":"Morelos","municipality":"Cuautla","setelement":"Ampliación Santa Cruz"},{"postalCode":"62747","state":"Morelos","municipality":"Cuautla","setelement":"Los Amates"},{"postalCode":"62747","state":"Morelos","municipality":"Cuautla","setelement":"La Esperanza"},{"postalCode":"62748","state":"Morelos","municipality":"Cuautla","setelement":"Año de Juárez"},{"postalCode":"62748","state":"Morelos","municipality":"Cuautla","setelement":"Empleado Postal"},{"postalCode":"62748","state":"Morelos","municipality":"Cuautla","setelement":"Miguel Hidalgo"},{"postalCode":"62748","state":"Morelos","municipality":"Cuautla","setelement":"Revolución"},{"postalCode":"62748","state":"Morelos","municipality":"Cuautla","setelement":"Casasano"},{"postalCode":"62748","state":"Morelos","municipality":"Cuautla","setelement":"Eusebio Jauregui"},{"postalCode":"62748","state":"Morelos","municipality":"Cuautla","setelement":"Benito Quezada"},{"postalCode":"62748","state":"Morelos","municipality":"Cuautla","setelement":"Ampliación las Tazas"},{"postalCode":"62748","state":"Morelos","municipality":"Cuautla","setelement":"La Ciénega"},{"postalCode":"62748","state":"Morelos","municipality":"Cuautla","setelement":"Antigua del Bosque"},{"postalCode":"62748","state":"Morelos","municipality":"Cuautla","setelement":"Centenario"},{"postalCode":"62748","state":"Morelos","municipality":"Cuautla","setelement":"Vicente Guerrero"},{"postalCode":"62748","state":"Morelos","municipality":"Cuautla","setelement":"Tabachines"},{"postalCode":"62754","state":"Morelos","municipality":"Cuautla","setelement":"Empleado Municipal"},{"postalCode":"62755","state":"Morelos","municipality":"Cuautla","setelement":"Puxtla"},{"postalCode":"62755","state":"Morelos","municipality":"Cuautla","setelement":"Ampliación 10 de Abril"},{"postalCode":"62755","state":"Morelos","municipality":"Cuautla","setelement":"La Angostura"},{"postalCode":"62755","state":"Morelos","municipality":"Cuautla","setelement":"Santa Inés"},{"postalCode":"62755","state":"Morelos","municipality":"Cuautla","setelement":"Jicamán (Colonia el Mirador)"},{"postalCode":"62755","state":"Morelos","municipality":"Cuautla","setelement":"3 de Mayo"},{"postalCode":"62755","state":"Morelos","municipality":"Cuautla","setelement":"La Esperanza-El Hospital"},{"postalCode":"62755","state":"Morelos","municipality":"Cuautla","setelement":"Rancho Gómez"},{"postalCode":"62755","state":"Morelos","municipality":"Cuautla","setelement":"El Sifón"},{"postalCode":"62756","state":"Morelos","municipality":"Cuautla","setelement":"Ampliación Narciso Mendoza"},{"postalCode":"62756","state":"Morelos","municipality":"Cuautla","setelement":"Calderón"},{"postalCode":"62756","state":"Morelos","municipality":"Cuautla","setelement":"Polvorín"},{"postalCode":"62756","state":"Morelos","municipality":"Cuautla","setelement":"Peña Flores (Palo Verde)"},{"postalCode":"62756","state":"Morelos","municipality":"Cuautla","setelement":"Narciso Mendoza"},{"postalCode":"62756","state":"Morelos","municipality":"Cuautla","setelement":"19 de Febrero de 1812"},{"postalCode":"62756","state":"Morelos","municipality":"Cuautla","setelement":"Sitio del Sol"},{"postalCode":"62757","state":"Morelos","municipality":"Cuautla","setelement":"2 de Mayo"},{"postalCode":"62757","state":"Morelos","municipality":"Cuautla","setelement":"Tetelcingo"},{"postalCode":"62757","state":"Morelos","municipality":"Cuautla","setelement":"Lázaro Cárdenas"},{"postalCode":"62757","state":"Morelos","municipality":"Cuautla","setelement":"Brisas de Cuautla"},{"postalCode":"62757","state":"Morelos","municipality":"Cuautla","setelement":"Cuauhtémoc"},{"postalCode":"62757","state":"Morelos","municipality":"Cuautla","setelement":"Santa Bárbara"},{"postalCode":"62757","state":"Morelos","municipality":"Cuautla","setelement":"Volcanes de Cuautla"},{"postalCode":"62757","state":"Morelos","municipality":"Cuautla","setelement":"Los Faroles"},{"postalCode":"62757","state":"Morelos","municipality":"Cuautla","setelement":"Magisterial"},{"postalCode":"62757","state":"Morelos","municipality":"Cuautla","setelement":"Trigo Verde"},{"postalCode":"62757","state":"Morelos","municipality":"Cuautla","setelement":"Piedra Blanca"},{"postalCode":"62757","state":"Morelos","municipality":"Cuautla","setelement":"Central de Abastos"},{"postalCode":"62757","state":"Morelos","municipality":"Cuautla","setelement":"Plaza Solidaridad"},{"postalCode":"62757","state":"Morelos","municipality":"Cuautla","setelement":"Tetelcingo"},{"postalCode":"62757","state":"Morelos","municipality":"Cuautla","setelement":"Salvador Esquer"},{"postalCode":"62757","state":"Morelos","municipality":"Cuautla","setelement":"Las Cruces"},{"postalCode":"62757","state":"Morelos","municipality":"Cuautla","setelement":"Condominios del Bosque"},{"postalCode":"62757","state":"Morelos","municipality":"Cuautla","setelement":"Tezahuapan"},{"postalCode":"62757","state":"Morelos","municipality":"Cuautla","setelement":"Puerta de Hierro"},{"postalCode":"62757","state":"Morelos","municipality":"Cuautla","setelement":"12 de Diciembre"},{"postalCode":"62757","state":"Morelos","municipality":"Cuautla","setelement":"Tierra Larga"},{"postalCode":"62757","state":"Morelos","municipality":"Cuautla","setelement":"La Escondida"},{"postalCode":"62760","state":"Morelos","municipality":"Emiliano Zapata","setelement":"Emiliano Zapata Centro"},{"postalCode":"62760","state":"Morelos","municipality":"Emiliano Zapata","setelement":"El Zapote"},{"postalCode":"62763","state":"Morelos","municipality":"Emiliano Zapata","setelement":"Tres de Mayo"},{"postalCode":"62763","state":"Morelos","municipality":"Emiliano Zapata","setelement":"Lomas de Trujillo"},{"postalCode":"62763","state":"Morelos","municipality":"Emiliano Zapata","setelement":"Lomas del Copal"},{"postalCode":"62763","state":"Morelos","municipality":"Emiliano Zapata","setelement":"San José de las Cumbres"},{"postalCode":"62763","state":"Morelos","municipality":"Emiliano Zapata","setelement":"Loma Sur"},{"postalCode":"62763","state":"Morelos","municipality":"Emiliano Zapata","setelement":"28 de Agosto"},{"postalCode":"62764","state":"Morelos","municipality":"Emiliano Zapata","setelement":"Altavista"},{"postalCode":"62764","state":"Morelos","municipality":"Emiliano Zapata","setelement":"14 de Febrero"},{"postalCode":"62764","state":"Morelos","municipality":"Emiliano Zapata","setelement":"El Capiri"},{"postalCode":"62764","state":"Morelos","municipality":"Emiliano Zapata","setelement":"Calera Chica"},{"postalCode":"62764","state":"Morelos","municipality":"Emiliano Zapata","setelement":"El Guante"},{"postalCode":"62764","state":"Morelos","municipality":"Emiliano Zapata","setelement":"El Calvario"},{"postalCode":"62764","state":"Morelos","municipality":"Emiliano Zapata","setelement":"El Aguaje"},{"postalCode":"62764","state":"Morelos","municipality":"Emiliano Zapata","setelement":"San Francisco"},{"postalCode":"62764","state":"Morelos","municipality":"Emiliano Zapata","setelement":"24 de Abril"},{"postalCode":"62764","state":"Morelos","municipality":"Emiliano Zapata","setelement":"Arboleda"},{"postalCode":"62764","state":"Morelos","municipality":"Emiliano Zapata","setelement":"Gerardo Pérez"},{"postalCode":"62764","state":"Morelos","municipality":"Emiliano Zapata","setelement":"Condominios Capiri"},{"postalCode":"62764","state":"Morelos","municipality":"Emiliano Zapata","setelement":"Las Fuentes"},{"postalCode":"62764","state":"Morelos","municipality":"Emiliano Zapata","setelement":"Rinconada la Misión"},{"postalCode":"62764","state":"Morelos","municipality":"Emiliano Zapata","setelement":"Las Rocas"},{"postalCode":"62764","state":"Morelos","municipality":"Emiliano Zapata","setelement":"Conjunto Urbano la Misión"},{"postalCode":"62764","state":"Morelos","municipality":"Emiliano Zapata","setelement":"Rancho San Pedro"},{"postalCode":"62765","state":"Morelos","municipality":"Emiliano Zapata","setelement":"Ojo de Agua II"},{"postalCode":"62765","state":"Morelos","municipality":"Emiliano Zapata","setelement":"Prohogar"},{"postalCode":"62765","state":"Morelos","municipality":"Emiliano Zapata","setelement":"Benito Juárez"},{"postalCode":"62765","state":"Morelos","municipality":"Emiliano Zapata","setelement":"El Capulín"},{"postalCode":"62765","state":"Morelos","municipality":"Emiliano Zapata","setelement":"Guadalupe de las Arenas"},{"postalCode":"62765","state":"Morelos","municipality":"Emiliano Zapata","setelement":"El Mirador"},{"postalCode":"62765","state":"Morelos","municipality":"Emiliano Zapata","setelement":"Ampliación Prohogar"},{"postalCode":"62765","state":"Morelos","municipality":"Emiliano Zapata","setelement":"Ojo de Agua"},{"postalCode":"62765","state":"Morelos","municipality":"Emiliano Zapata","setelement":"Manantiales"},{"postalCode":"62765","state":"Morelos","municipality":"Emiliano Zapata","setelement":"Los Agaves"},{"postalCode":"62765","state":"Morelos","municipality":"Emiliano Zapata","setelement":"Palo Escrito (Colonia Benito Juárez)"},{"postalCode":"62766","state":"Morelos","municipality":"Emiliano Zapata","setelement":"Residencial Amarantto Habittat"},{"postalCode":"62766","state":"Morelos","municipality":"Emiliano Zapata","setelement":"Estación"},{"postalCode":"62766","state":"Morelos","municipality":"Emiliano Zapata","setelement":"El Amate"},{"postalCode":"62766","state":"Morelos","municipality":"Emiliano Zapata","setelement":"El Vigilante"},{"postalCode":"62766","state":"Morelos","municipality":"Emiliano Zapata","setelement":"Campo Nuevo"},{"postalCode":"62766","state":"Morelos","municipality":"Emiliano Zapata","setelement":"Modesto Rangel"},{"postalCode":"62766","state":"Morelos","municipality":"Emiliano Zapata","setelement":"El Órgano"},{"postalCode":"62766","state":"Morelos","municipality":"Emiliano Zapata","setelement":"1ra Sección Villa Morelos"},{"postalCode":"62766","state":"Morelos","municipality":"Emiliano Zapata","setelement":"Villa Morelos"},{"postalCode":"62766","state":"Morelos","municipality":"Emiliano Zapata","setelement":"El Tomatal"},{"postalCode":"62766","state":"Morelos","municipality":"Emiliano Zapata","setelement":"Las Gaviotas"},{"postalCode":"62766","state":"Morelos","municipality":"Emiliano Zapata","setelement":"Paseos del Río"},{"postalCode":"62766","state":"Morelos","municipality":"Emiliano Zapata","setelement":"Paraíso Country Club"},{"postalCode":"62766","state":"Morelos","municipality":"Emiliano Zapata","setelement":"Ampliación el Órgano"},{"postalCode":"62766","state":"Morelos","municipality":"Emiliano Zapata","setelement":"Condominio el Ámate"},{"postalCode":"62766","state":"Morelos","municipality":"Emiliano Zapata","setelement":"Campo Nuevo"},{"postalCode":"62767","state":"Morelos","municipality":"Emiliano Zapata","setelement":"Residencial Rancho Tezoyuca"},{"postalCode":"62767","state":"Morelos","municipality":"Emiliano Zapata","setelement":"Tezoyuca"},{"postalCode":"62767","state":"Morelos","municipality":"Emiliano Zapata","setelement":"Loma Bonita"},{"postalCode":"62767","state":"Morelos","municipality":"Emiliano Zapata","setelement":"Villas de Tezoyuca"},{"postalCode":"62767","state":"Morelos","municipality":"Emiliano Zapata","setelement":"Cuauhtémoc"},{"postalCode":"62767","state":"Morelos","municipality":"Emiliano Zapata","setelement":"Jardines de Tezoyuca"},{"postalCode":"62767","state":"Morelos","municipality":"Emiliano Zapata","setelement":"La Mina"},{"postalCode":"62767","state":"Morelos","municipality":"Emiliano Zapata","setelement":"Real de Tezoyuca"},{"postalCode":"62767","state":"Morelos","municipality":"Emiliano Zapata","setelement":"Tezoyuca"},{"postalCode":"62767","state":"Morelos","municipality":"Emiliano Zapata","setelement":"Capulín"},{"postalCode":"62767","state":"Morelos","municipality":"Emiliano Zapata","setelement":"Amatitlán"},{"postalCode":"62767","state":"Morelos","municipality":"Emiliano Zapata","setelement":"Villas del Seminario"},{"postalCode":"62767","state":"Morelos","municipality":"Emiliano Zapata","setelement":"Villas del Portezuelo"},{"postalCode":"62767","state":"Morelos","municipality":"Emiliano Zapata","setelement":"Geo Villas Colorines"},{"postalCode":"62767","state":"Morelos","municipality":"Emiliano Zapata","setelement":"Rinconada de Tezoyuca"},{"postalCode":"62767","state":"Morelos","municipality":"Emiliano Zapata","setelement":"Paseos de Tezoyuca"},{"postalCode":"62767","state":"Morelos","municipality":"Emiliano Zapata","setelement":"Los Sabinos"},{"postalCode":"62767","state":"Morelos","municipality":"Emiliano Zapata","setelement":"Las Flores"},{"postalCode":"62767","state":"Morelos","municipality":"Emiliano Zapata","setelement":"Tesoros de Tezoyuca"},{"postalCode":"62767","state":"Morelos","municipality":"Emiliano Zapata","setelement":"Las Garzas"},{"postalCode":"62767","state":"Morelos","municipality":"Emiliano Zapata","setelement":"Cañaveral"},{"postalCode":"62767","state":"Morelos","municipality":"Emiliano Zapata","setelement":"El Castillo"},{"postalCode":"62768","state":"Morelos","municipality":"Emiliano Zapata","setelement":"La Campiña"},{"postalCode":"62768","state":"Morelos","municipality":"Emiliano Zapata","setelement":"Tepetzingo"},{"postalCode":"62768","state":"Morelos","municipality":"Emiliano Zapata","setelement":"Tetecalita"},{"postalCode":"62770","state":"Morelos","municipality":"Tlaltizapán de Zapata","setelement":"Tlaltizapán Centro"},{"postalCode":"62770","state":"Morelos","municipality":"Tlaltizapán de Zapata","setelement":"Carlos Pacheco"},{"postalCode":"62772","state":"Morelos","municipality":"Tlaltizapán de Zapata","setelement":"Santa Rosa Treinta"},{"postalCode":"62772","state":"Morelos","municipality":"Tlaltizapán de Zapata","setelement":"10 de Mayo (La Matanza)"},{"postalCode":"62772","state":"Morelos","municipality":"Tlaltizapán de Zapata","setelement":"Echeverría"},{"postalCode":"62772","state":"Morelos","municipality":"Tlaltizapán de Zapata","setelement":"Ignacio Zaragoza"},{"postalCode":"62772","state":"Morelos","municipality":"Tlaltizapán de Zapata","setelement":"El Cajoncito"},{"postalCode":"62772","state":"Morelos","municipality":"Tlaltizapán de Zapata","setelement":"Emiliano Zapata"},{"postalCode":"62772","state":"Morelos","municipality":"Tlaltizapán de Zapata","setelement":"Independencia"},{"postalCode":"62773","state":"Morelos","municipality":"Tlaltizapán de Zapata","setelement":"Huepalo"},{"postalCode":"62773","state":"Morelos","municipality":"Tlaltizapán de Zapata","setelement":"Barranca Honda"},{"postalCode":"62773","state":"Morelos","municipality":"Tlaltizapán de Zapata","setelement":"Ticumán"},{"postalCode":"62773","state":"Morelos","municipality":"Tlaltizapán de Zapata","setelement":"Morelos"},{"postalCode":"62773","state":"Morelos","municipality":"Tlaltizapán de Zapata","setelement":"El Jagüey"},{"postalCode":"62773","state":"Morelos","municipality":"Tlaltizapán de Zapata","setelement":"Ampliación Benito Juárez"},{"postalCode":"62773","state":"Morelos","municipality":"Tlaltizapán de Zapata","setelement":"Guadalupe Victoria"},{"postalCode":"62773","state":"Morelos","municipality":"Tlaltizapán de Zapata","setelement":"El Tecolote"},{"postalCode":"62773","state":"Morelos","municipality":"Tlaltizapán de Zapata","setelement":"Ampliación El Tecolote"},{"postalCode":"62773","state":"Morelos","municipality":"Tlaltizapán de Zapata","setelement":"Club Haciendas de Ticumán"},{"postalCode":"62773","state":"Morelos","municipality":"Tlaltizapán de Zapata","setelement":"Huertos de Ticumán"},{"postalCode":"62773","state":"Morelos","municipality":"Tlaltizapán de Zapata","setelement":"Benito Juárez"},{"postalCode":"62773","state":"Morelos","municipality":"Tlaltizapán de Zapata","setelement":"Ticumán"},{"postalCode":"62773","state":"Morelos","municipality":"Tlaltizapán de Zapata","setelement":"La Curva"},{"postalCode":"62773","state":"Morelos","municipality":"Tlaltizapán de Zapata","setelement":"Pedregal"},{"postalCode":"62774","state":"Morelos","municipality":"Tlaltizapán de Zapata","setelement":"Bonifacio García (Colonia Alejandra)"},{"postalCode":"62774","state":"Morelos","municipality":"Tlaltizapán de Zapata","setelement":"Las Estacas"},{"postalCode":"62774","state":"Morelos","municipality":"Tlaltizapán de Zapata","setelement":"Temilpa Viejo"},{"postalCode":"62774","state":"Morelos","municipality":"Tlaltizapán de Zapata","setelement":"Temilpa Nuevo"},{"postalCode":"62774","state":"Morelos","municipality":"Tlaltizapán de Zapata","setelement":"Palo Prieto (Chipitongo)"},{"postalCode":"62774","state":"Morelos","municipality":"Tlaltizapán de Zapata","setelement":"La Piedra Rodada"},{"postalCode":"62775","state":"Morelos","municipality":"Tlaltizapán de Zapata","setelement":"San Rafael Zaragoza"},{"postalCode":"62775","state":"Morelos","municipality":"Tlaltizapán de Zapata","setelement":"San Pablo Hidalgo"},{"postalCode":"62775","state":"Morelos","municipality":"Tlaltizapán de Zapata","setelement":"Plan de Ayala"},{"postalCode":"62775","state":"Morelos","municipality":"Tlaltizapán de Zapata","setelement":"Las Juntas"},{"postalCode":"62775","state":"Morelos","municipality":"Tlaltizapán de Zapata","setelement":"El Topil"},{"postalCode":"62775","state":"Morelos","municipality":"Tlaltizapán de Zapata","setelement":"Huertas el Mirador"},{"postalCode":"62775","state":"Morelos","municipality":"Tlaltizapán de Zapata","setelement":"El Mirador"},{"postalCode":"62775","state":"Morelos","municipality":"Tlaltizapán de Zapata","setelement":"Palmillas"},{"postalCode":"62775","state":"Morelos","municipality":"Tlaltizapán de Zapata","setelement":"Los Presidentes"},{"postalCode":"62775","state":"Morelos","municipality":"Tlaltizapán de Zapata","setelement":"Las Galeras"},{"postalCode":"62776","state":"Morelos","municipality":"Tlaltizapán de Zapata","setelement":"Ampliación El Mirador (Ampliación Bomba)"},{"postalCode":"62776","state":"Morelos","municipality":"Tlaltizapán de Zapata","setelement":"Otilio Montaño"},{"postalCode":"62776","state":"Morelos","municipality":"Tlaltizapán de Zapata","setelement":"Amador Salazar"},{"postalCode":"62776","state":"Morelos","municipality":"Tlaltizapán de Zapata","setelement":"El Mirador"},{"postalCode":"62776","state":"Morelos","municipality":"Tlaltizapán de Zapata","setelement":"San Miguel 30"},{"postalCode":"62777","state":"Morelos","municipality":"Tlaltizapán de Zapata","setelement":"Huatecalco"},{"postalCode":"62777","state":"Morelos","municipality":"Tlaltizapán de Zapata","setelement":"Casa Blanca"},{"postalCode":"62777","state":"Morelos","municipality":"Tlaltizapán de Zapata","setelement":"El Pochote"},{"postalCode":"62777","state":"Morelos","municipality":"Tlaltizapán de Zapata","setelement":"La Mina"},{"postalCode":"62778","state":"Morelos","municipality":"Tlaltizapán de Zapata","setelement":"Acamilpa"},{"postalCode":"62778","state":"Morelos","municipality":"Tlaltizapán de Zapata","setelement":"Temimilcingo"},{"postalCode":"62778","state":"Morelos","municipality":"Tlaltizapán de Zapata","setelement":"Pueblo Nuevo"},{"postalCode":"62778","state":"Morelos","municipality":"Tlaltizapán de Zapata","setelement":"20 30"},{"postalCode":"62778","state":"Morelos","municipality":"Tlaltizapán de Zapata","setelement":"Cuauhtémoc"},{"postalCode":"62778","state":"Morelos","municipality":"Tlaltizapán de Zapata","setelement":"La Loma"},{"postalCode":"62778","state":"Morelos","municipality":"Tlaltizapán de Zapata","setelement":"El Conquistador"},{"postalCode":"62778","state":"Morelos","municipality":"Tlaltizapán de Zapata","setelement":"El Texcal"},{"postalCode":"62778","state":"Morelos","municipality":"Tlaltizapán de Zapata","setelement":"Francisco Javier Mina"},{"postalCode":"62778","state":"Morelos","municipality":"Tlaltizapán de Zapata","setelement":"El Marimon"},{"postalCode":"62778","state":"Morelos","municipality":"Tlaltizapán de Zapata","setelement":"Tecoloapan (Aguas Vivas)"},{"postalCode":"62778","state":"Morelos","municipality":"Tlaltizapán de Zapata","setelement":"Los Cajetes"},{"postalCode":"62778","state":"Morelos","municipality":"Tlaltizapán de Zapata","setelement":"La Cima"},{"postalCode":"62780","state":"Morelos","municipality":"Zacatepec","setelement":"Tetelpa"},{"postalCode":"62780","state":"Morelos","municipality":"Zacatepec","setelement":"Zacatepec de Hidalgo Centro"},{"postalCode":"62780","state":"Morelos","municipality":"Zacatepec","setelement":"Benito Juárez"},{"postalCode":"62780","state":"Morelos","municipality":"Zacatepec","setelement":"Lázaro Cárdenas"},{"postalCode":"62780","state":"Morelos","municipality":"Zacatepec","setelement":"20 de Noviembre"},{"postalCode":"62780","state":"Morelos","municipality":"Zacatepec","setelement":"Miguel Alemán"},{"postalCode":"62780","state":"Morelos","municipality":"Zacatepec","setelement":"Emiliano Zapata"},{"postalCode":"62780","state":"Morelos","municipality":"Zacatepec","setelement":"Plutarco Elías Calles"},{"postalCode":"62780","state":"Morelos","municipality":"Zacatepec","setelement":"Plan de Ayala"},{"postalCode":"62780","state":"Morelos","municipality":"Zacatepec","setelement":"Independencia"},{"postalCode":"62785","state":"Morelos","municipality":"Zacatepec","setelement":"Campo de la Presa"},{"postalCode":"62785","state":"Morelos","municipality":"Zacatepec","setelement":"Galeana Centro"},{"postalCode":"62785","state":"Morelos","municipality":"Zacatepec","setelement":"Vicente Guerrero"},{"postalCode":"62785","state":"Morelos","municipality":"Zacatepec","setelement":"Josefa Ortiz de Domínguez"},{"postalCode":"62785","state":"Morelos","municipality":"Zacatepec","setelement":"Arboledas"},{"postalCode":"62785","state":"Morelos","municipality":"Zacatepec","setelement":"Valle Sol"},{"postalCode":"62785","state":"Morelos","municipality":"Zacatepec","setelement":"Alianza"},{"postalCode":"62785","state":"Morelos","municipality":"Zacatepec","setelement":"Guadalupe Victoria"},{"postalCode":"62785","state":"Morelos","municipality":"Zacatepec","setelement":"Lázaro Cárdenas"},{"postalCode":"62785","state":"Morelos","municipality":"Zacatepec","setelement":"Mártires del 10 de Abril"},{"postalCode":"62785","state":"Morelos","municipality":"Zacatepec","setelement":"San Antonio Chiverías"},{"postalCode":"62790","state":"Morelos","municipality":"Xochitepec","setelement":"El Crucero de Atlacholoaya"},{"postalCode":"62790","state":"Morelos","municipality":"Xochitepec","setelement":"Campo San Rafael"},{"postalCode":"62790","state":"Morelos","municipality":"Xochitepec","setelement":"La Guamuchilera"},{"postalCode":"62790","state":"Morelos","municipality":"Xochitepec","setelement":"Rinconada de Xochitepec"},{"postalCode":"62790","state":"Morelos","municipality":"Xochitepec","setelement":"Real del Puente"},{"postalCode":"62790","state":"Morelos","municipality":"Xochitepec","setelement":"Xochitepec Centro"},{"postalCode":"62790","state":"Morelos","municipality":"Xochitepec","setelement":"Benito Juárez"},{"postalCode":"62790","state":"Morelos","municipality":"Xochitepec","setelement":"La Calera"},{"postalCode":"62790","state":"Morelos","municipality":"Xochitepec","setelement":"San Miguel La Unión"},{"postalCode":"62790","state":"Morelos","municipality":"Xochitepec","setelement":"San Pedro de los Pinos"},{"postalCode":"62790","state":"Morelos","municipality":"Xochitepec","setelement":"Morelos 1ra Sección"},{"postalCode":"62790","state":"Morelos","municipality":"Xochitepec","setelement":"Morelos 2da Sección"},{"postalCode":"62790","state":"Morelos","municipality":"Xochitepec","setelement":"Morelos 3ra Sección"},{"postalCode":"62790","state":"Morelos","municipality":"Xochitepec","setelement":"Las Flores"},{"postalCode":"62790","state":"Morelos","municipality":"Xochitepec","setelement":"Loma Bonita"},{"postalCode":"62790","state":"Morelos","municipality":"Xochitepec","setelement":"Obrera Popular"},{"postalCode":"62790","state":"Morelos","municipality":"Xochitepec","setelement":"Nueva Morelos"},{"postalCode":"62790","state":"Morelos","municipality":"Xochitepec","setelement":"Miguel Hidalgo"},{"postalCode":"62790","state":"Morelos","municipality":"Xochitepec","setelement":"Ampliación Miguel Hidalgo"},{"postalCode":"62790","state":"Morelos","municipality":"Xochitepec","setelement":"3 de Mayo"},{"postalCode":"62790","state":"Morelos","municipality":"Xochitepec","setelement":"San Francisco"},{"postalCode":"62790","state":"Morelos","municipality":"Xochitepec","setelement":"Lázaro Cárdenas"},{"postalCode":"62790","state":"Morelos","municipality":"Xochitepec","setelement":"El Pedregal"},{"postalCode":"62790","state":"Morelos","municipality":"Xochitepec","setelement":"Jardines de Xochitepec"},{"postalCode":"62790","state":"Morelos","municipality":"Xochitepec","setelement":"Villas de Xochitepec"},{"postalCode":"62790","state":"Morelos","municipality":"Xochitepec","setelement":"La Cruz"},{"postalCode":"62790","state":"Morelos","municipality":"Xochitepec","setelement":"Tierra Verde"},{"postalCode":"62790","state":"Morelos","municipality":"Xochitepec","setelement":"Francisco Villa"},{"postalCode":"62790","state":"Morelos","municipality":"Xochitepec","setelement":"La Esperanza"},{"postalCode":"62790","state":"Morelos","municipality":"Xochitepec","setelement":"Campo Canela"},{"postalCode":"62790","state":"Morelos","municipality":"Xochitepec","setelement":"Real del Puente"},{"postalCode":"62790","state":"Morelos","municipality":"Xochitepec","setelement":"Las Rosas"},{"postalCode":"62790","state":"Morelos","municipality":"Xochitepec","setelement":"Lomas del Manantial"},{"postalCode":"62793","state":"Morelos","municipality":"Xochitepec","setelement":"Xalipa"},{"postalCode":"62793","state":"Morelos","municipality":"Xochitepec","setelement":"Centro de Readaptación Social de Atlacholoaya"},{"postalCode":"62793","state":"Morelos","municipality":"Xochitepec","setelement":"Solares"},{"postalCode":"62793","state":"Morelos","municipality":"Xochitepec","setelement":"Los Laureles"},{"postalCode":"62793","state":"Morelos","municipality":"Xochitepec","setelement":"Cumbres del Campestre"},{"postalCode":"62793","state":"Morelos","municipality":"Xochitepec","setelement":"Atlacholoaya"},{"postalCode":"62793","state":"Morelos","municipality":"Xochitepec","setelement":"Cazahuatera"},{"postalCode":"62793","state":"Morelos","municipality":"Xochitepec","setelement":"El Calvario"},{"postalCode":"62794","state":"Morelos","municipality":"Xochitepec","setelement":"Real Santa Fe"},{"postalCode":"62794","state":"Morelos","municipality":"Xochitepec","setelement":"Vista Santa Fe"},{"postalCode":"62794","state":"Morelos","municipality":"Xochitepec","setelement":"La Pintora"},{"postalCode":"62794","state":"Morelos","municipality":"Xochitepec","setelement":"Club de Golf Santa Fe"},{"postalCode":"62794","state":"Morelos","municipality":"Xochitepec","setelement":"Colinas de Santa Fe"},{"postalCode":"62795","state":"Morelos","municipality":"Xochitepec","setelement":"Chiconcuac"},{"postalCode":"62796","state":"Morelos","municipality":"Xochitepec","setelement":"Encanto"},{"postalCode":"62796","state":"Morelos","municipality":"Xochitepec","setelement":"Dos Ríos"},{"postalCode":"62796","state":"Morelos","municipality":"Xochitepec","setelement":"Villas del Sol"},{"postalCode":"62796","state":"Morelos","municipality":"Xochitepec","setelement":"Paseos de Xochitepec"},{"postalCode":"62796","state":"Morelos","municipality":"Xochitepec","setelement":"Arroyos Xochitepec"},{"postalCode":"62797","state":"Morelos","municipality":"Xochitepec","setelement":"Coaxcomac"},{"postalCode":"62797","state":"Morelos","municipality":"Xochitepec","setelement":"Humberto Gutiérrez Corona"},{"postalCode":"62797","state":"Morelos","municipality":"Xochitepec","setelement":"Buenavista"},{"postalCode":"62797","state":"Morelos","municipality":"Xochitepec","setelement":"Alpuyeca"},{"postalCode":"62797","state":"Morelos","municipality":"Xochitepec","setelement":"Las Palmas"},{"postalCode":"62797","state":"Morelos","municipality":"Xochitepec","setelement":"Ampliación 3 de Mayo"},{"postalCode":"62800","state":"Morelos","municipality":"Tetela del Volcán","setelement":"San Bartolo"},{"postalCode":"62800","state":"Morelos","municipality":"Tetela del Volcán","setelement":"Santiago"},{"postalCode":"62800","state":"Morelos","municipality":"Tetela del Volcán","setelement":"Tetela del Volcán"},{"postalCode":"62800","state":"Morelos","municipality":"Tetela del Volcán","setelement":"Xochicalco"},{"postalCode":"62800","state":"Morelos","municipality":"Tetela del Volcán","setelement":"El Malinal"},{"postalCode":"62802","state":"Morelos","municipality":"Tetela del Volcán","setelement":"Tlalmimilulpan (San Pedro)"},{"postalCode":"62803","state":"Morelos","municipality":"Tetela del Volcán","setelement":"Paluca"},{"postalCode":"62803","state":"Morelos","municipality":"Tetela del Volcán","setelement":"Cacapola"},{"postalCode":"62803","state":"Morelos","municipality":"Tetela del Volcán","setelement":"Tlalamayocan"},{"postalCode":"62803","state":"Morelos","municipality":"Tetela del Volcán","setelement":"Zacapechpa (Zacapezuca)"},{"postalCode":"62804","state":"Morelos","municipality":"Tetela del Volcán","setelement":"San Agustín"},{"postalCode":"62804","state":"Morelos","municipality":"Tetela del Volcán","setelement":"San Jerónimo"},{"postalCode":"62804","state":"Morelos","municipality":"Tetela del Volcán","setelement":"San Miguel"},{"postalCode":"62804","state":"Morelos","municipality":"Tetela del Volcán","setelement":"El Encinal"},{"postalCode":"62804","state":"Morelos","municipality":"Tetela del Volcán","setelement":"Tecla"},{"postalCode":"62804","state":"Morelos","municipality":"Tetela del Volcán","setelement":"Lomas Lindas"},{"postalCode":"62805","state":"Morelos","municipality":"Tetela del Volcán","setelement":"Cuaucorra"},{"postalCode":"62806","state":"Morelos","municipality":"Tetela del Volcán","setelement":"El Capulín"},{"postalCode":"62810","state":"Morelos","municipality":"Hueyapan","setelement":"San Miguel Hueyapan"},{"postalCode":"62810","state":"Morelos","municipality":"Hueyapan","setelement":"San Bartolo"},{"postalCode":"62810","state":"Morelos","municipality":"Hueyapan","setelement":"San Jacinto"},{"postalCode":"62813","state":"Morelos","municipality":"Hueyapan","setelement":"El Chilar Tepeyehualco"},{"postalCode":"62813","state":"Morelos","municipality":"Hueyapan","setelement":"Olivar"},{"postalCode":"62813","state":"Morelos","municipality":"Hueyapan","setelement":"Tzitzicastla (Rancho las Flores)"},{"postalCode":"62813","state":"Morelos","municipality":"Hueyapan","setelement":"Yiganechxco"},{"postalCode":"62813","state":"Morelos","municipality":"Hueyapan","setelement":"San Felipe"},{"postalCode":"62813","state":"Morelos","municipality":"Hueyapan","setelement":"San Andrés"},{"postalCode":"62814","state":"Morelos","municipality":"Hueyapan","setelement":"Ahuazutlán"},{"postalCode":"62814","state":"Morelos","municipality":"Hueyapan","setelement":"Amialtenco"},{"postalCode":"62814","state":"Morelos","municipality":"Hueyapan","setelement":"El Chupamirto"},{"postalCode":"62814","state":"Morelos","municipality":"Hueyapan","setelement":"Matlacotla"},{"postalCode":"62814","state":"Morelos","municipality":"Hueyapan","setelement":"Tlalcomulco"},{"postalCode":"62815","state":"Morelos","municipality":"Hueyapan","setelement":"Las Mesas"},{"postalCode":"62820","state":"Morelos","municipality":"Yecapixtla","setelement":"Yecapixtla"},{"postalCode":"62823","state":"Morelos","municipality":"Yecapixtla","setelement":"Los Reyes"},{"postalCode":"62823","state":"Morelos","municipality":"Yecapixtla","setelement":"Texcala"},{"postalCode":"62823","state":"Morelos","municipality":"Yecapixtla","setelement":"Zahuatlán"},{"postalCode":"62823","state":"Morelos","municipality":"Yecapixtla","setelement":"Achichipico"},{"postalCode":"62823","state":"Morelos","municipality":"Yecapixtla","setelement":"Tezontetelco"},{"postalCode":"62823","state":"Morelos","municipality":"Yecapixtla","setelement":"Aquiles Serdán"},{"postalCode":"62823","state":"Morelos","municipality":"Yecapixtla","setelement":"Xochitlán"},{"postalCode":"62823","state":"Morelos","municipality":"Yecapixtla","setelement":"El Matadero"},{"postalCode":"62823","state":"Morelos","municipality":"Yecapixtla","setelement":"La Hacienda"},{"postalCode":"62823","state":"Morelos","municipality":"Yecapixtla","setelement":"Los Capulines"},{"postalCode":"62823","state":"Morelos","municipality":"Yecapixtla","setelement":"Zacahuacatla"},{"postalCode":"62824","state":"Morelos","municipality":"Yecapixtla","setelement":"El Rosedal (Rancho el Talín)"},{"postalCode":"62824","state":"Morelos","municipality":"Yecapixtla","setelement":"Paraíso las Flores"},{"postalCode":"62824","state":"Morelos","municipality":"Yecapixtla","setelement":"Agua Zarca"},{"postalCode":"62824","state":"Morelos","municipality":"Yecapixtla","setelement":"Los Amates"},{"postalCode":"62824","state":"Morelos","municipality":"Yecapixtla","setelement":"El Izote"},{"postalCode":"62825","state":"Morelos","municipality":"Yecapixtla","setelement":"Tecajec"},{"postalCode":"62825","state":"Morelos","municipality":"Yecapixtla","setelement":"Huexca"},{"postalCode":"62825","state":"Morelos","municipality":"Yecapixtla","setelement":"Los Limones"},{"postalCode":"62826","state":"Morelos","municipality":"Yecapixtla","setelement":"Loma Bonita"},{"postalCode":"62826","state":"Morelos","municipality":"Yecapixtla","setelement":"Juan Morales"},{"postalCode":"62826","state":"Morelos","municipality":"Yecapixtla","setelement":"Mixtlalcingo"},{"postalCode":"62826","state":"Morelos","municipality":"Yecapixtla","setelement":"Noche Buena"},{"postalCode":"62827","state":"Morelos","municipality":"Yecapixtla","setelement":"Girasoles (Campo el Guaje)"},{"postalCode":"62827","state":"Morelos","municipality":"Yecapixtla","setelement":"Residencial Los Tulipanes"},{"postalCode":"62827","state":"Morelos","municipality":"Yecapixtla","setelement":"San Francisco Residencial"},{"postalCode":"62827","state":"Morelos","municipality":"Yecapixtla","setelement":"San Marcos"},{"postalCode":"62827","state":"Morelos","municipality":"Yecapixtla","setelement":"Nueva Yecapixtla"},{"postalCode":"62827","state":"Morelos","municipality":"Yecapixtla","setelement":"Mexquemeca"},{"postalCode":"62827","state":"Morelos","municipality":"Yecapixtla","setelement":"Francisco I Madero"},{"postalCode":"62827","state":"Morelos","municipality":"Yecapixtla","setelement":"Paraíso Escondido"},{"postalCode":"62828","state":"Morelos","municipality":"Yecapixtla","setelement":"Pazulco"},{"postalCode":"62828","state":"Morelos","municipality":"Yecapixtla","setelement":"Tlamomulco"},{"postalCode":"62828","state":"Morelos","municipality":"Yecapixtla","setelement":"Yecapixteca"},{"postalCode":"62828","state":"Morelos","municipality":"Yecapixtla","setelement":"Adolfo López Mateos"},{"postalCode":"62828","state":"Morelos","municipality":"Yecapixtla","setelement":"Los Chichicastles"},{"postalCode":"62828","state":"Morelos","municipality":"Yecapixtla","setelement":"Xalpa"},{"postalCode":"62828","state":"Morelos","municipality":"Yecapixtla","setelement":"Marino Galicia"},{"postalCode":"62830","state":"Morelos","municipality":"Totolapan","setelement":"San Sebastián"},{"postalCode":"62830","state":"Morelos","municipality":"Totolapan","setelement":"Santa Bárbara"},{"postalCode":"62830","state":"Morelos","municipality":"Totolapan","setelement":"San Agustín"},{"postalCode":"62830","state":"Morelos","municipality":"Totolapan","setelement":"Los Ciruelos"},{"postalCode":"62830","state":"Morelos","municipality":"Totolapan","setelement":"Purísima Concepción"},{"postalCode":"62830","state":"Morelos","municipality":"Totolapan","setelement":"Totolapan"},{"postalCode":"62832","state":"Morelos","municipality":"Totolapan","setelement":"Villa Nicolás Zapata"},{"postalCode":"62832","state":"Morelos","municipality":"Totolapan","setelement":"San Marcos"},{"postalCode":"62833","state":"Morelos","municipality":"Totolapan","setelement":"Colinas del Paraíso"},{"postalCode":"62833","state":"Morelos","municipality":"Totolapan","setelement":"El Jagüey de las Marzanas"},{"postalCode":"62834","state":"Morelos","municipality":"Totolapan","setelement":"Ahuatlán (Asunción Ahuatlán)"},{"postalCode":"62834","state":"Morelos","municipality":"Totolapan","setelement":"Tepetlixpita"},{"postalCode":"62834","state":"Morelos","municipality":"Totolapan","setelement":"Palestina"},{"postalCode":"62835","state":"Morelos","municipality":"Totolapan","setelement":"Nepopualco"},{"postalCode":"62835","state":"Morelos","municipality":"Totolapan","setelement":"La Cañada (San Sebastián)"},{"postalCode":"62835","state":"Morelos","municipality":"Totolapan","setelement":"El Fuerte (San Miguel)"},{"postalCode":"62835","state":"Morelos","municipality":"Totolapan","setelement":"La Joya"},{"postalCode":"62835","state":"Morelos","municipality":"Totolapan","setelement":"Zacatepec"},{"postalCode":"62840","state":"Morelos","municipality":"Atlatlahucan","setelement":"Atlatlahucan"},{"postalCode":"62840","state":"Morelos","municipality":"Atlatlahucan","setelement":"Los Reyes"},{"postalCode":"62840","state":"Morelos","municipality":"Atlatlahucan","setelement":"El Mirador"},{"postalCode":"62840","state":"Morelos","municipality":"Atlatlahucan","setelement":"Santa Bárbara"},{"postalCode":"62840","state":"Morelos","municipality":"Atlatlahucan","setelement":"San Mateo"},{"postalCode":"62840","state":"Morelos","municipality":"Atlatlahucan","setelement":"La Asunción"},{"postalCode":"62840","state":"Morelos","municipality":"Atlatlahucan","setelement":"San Sebastián"},{"postalCode":"62840","state":"Morelos","municipality":"Atlatlahucan","setelement":"San Lucas"},{"postalCode":"62843","state":"Morelos","municipality":"Atlatlahucan","setelement":"Ampliación San Antonio"},{"postalCode":"62843","state":"Morelos","municipality":"Atlatlahucan","setelement":"Emiliano Zapata"},{"postalCode":"62843","state":"Morelos","municipality":"Atlatlahucan","setelement":"San Antonio"},{"postalCode":"62843","state":"Morelos","municipality":"Atlatlahucan","setelement":"Santo Tomás"},{"postalCode":"62844","state":"Morelos","municipality":"Atlatlahucan","setelement":"Hacienda del Rey"},{"postalCode":"62844","state":"Morelos","municipality":"Atlatlahucan","setelement":"San Marcos"},{"postalCode":"62844","state":"Morelos","municipality":"Atlatlahucan","setelement":"La Guadalupana"},{"postalCode":"62844","state":"Morelos","municipality":"Atlatlahucan","setelement":"San Andrés"},{"postalCode":"62844","state":"Morelos","municipality":"Atlatlahucan","setelement":"Santa Ana"},{"postalCode":"62845","state":"Morelos","municipality":"Atlatlahucan","setelement":"Tlaltetelco (San Miguel Tlaltetelco)"},{"postalCode":"62845","state":"Morelos","municipality":"Atlatlahucan","setelement":"Santa Inés"},{"postalCode":"62845","state":"Morelos","municipality":"Atlatlahucan","setelement":"San Diego Tepantongo"},{"postalCode":"62845","state":"Morelos","municipality":"Atlatlahucan","setelement":"El Astillero"},{"postalCode":"62845","state":"Morelos","municipality":"Atlatlahucan","setelement":"Centro Asturiano de México"},{"postalCode":"62845","state":"Morelos","municipality":"Atlatlahucan","setelement":"Hacienda la Alborada"},{"postalCode":"62845","state":"Morelos","municipality":"Atlatlahucan","setelement":"Pozo Mancera"},{"postalCode":"62845","state":"Morelos","municipality":"Atlatlahucan","setelement":"Telchicayac (El Cabellito)"},{"postalCode":"62845","state":"Morelos","municipality":"Atlatlahucan","setelement":"Rancho Santa Cruz"},{"postalCode":"62845","state":"Morelos","municipality":"Atlatlahucan","setelement":"Malpaís"},{"postalCode":"62846","state":"Morelos","municipality":"Atlatlahucan","setelement":"Las Minas"},{"postalCode":"62846","state":"Morelos","municipality":"Atlatlahucan","setelement":"San Francisco"},{"postalCode":"62846","state":"Morelos","municipality":"Atlatlahucan","setelement":"Kilómetro 88"},{"postalCode":"62846","state":"Morelos","municipality":"Atlatlahucan","setelement":"Puntas de Malpaís (Malpaís)"},{"postalCode":"62846","state":"Morelos","municipality":"Atlatlahucan","setelement":"La Tortuga"},{"postalCode":"62846","state":"Morelos","municipality":"Atlatlahucan","setelement":"El Salto"},{"postalCode":"62846","state":"Morelos","municipality":"Atlatlahucan","setelement":"Telminca"},{"postalCode":"62846","state":"Morelos","municipality":"Atlatlahucan","setelement":"Framboyanes"},{"postalCode":"62846","state":"Morelos","municipality":"Atlatlahucan","setelement":"Los Cerritos"},{"postalCode":"62846","state":"Morelos","municipality":"Atlatlahucan","setelement":"El Jaral"},{"postalCode":"62847","state":"Morelos","municipality":"Atlatlahucan","setelement":"San Juan Texcalpan"},{"postalCode":"62847","state":"Morelos","municipality":"Atlatlahucan","setelement":"Lomas de Cocoyoc"},{"postalCode":"62847","state":"Morelos","municipality":"Atlatlahucan","setelement":"Vicente Guerrero"},{"postalCode":"62847","state":"Morelos","municipality":"Atlatlahucan","setelement":"Lomas de San Juan Texcalpan"},{"postalCode":"62847","state":"Morelos","municipality":"Atlatlahucan","setelement":"El Puente"},{"postalCode":"62850","state":"Morelos","municipality":"Ocuituco","setelement":"Ocuituco"},{"postalCode":"62850","state":"Morelos","municipality":"Ocuituco","setelement":"Tecamachalco"},{"postalCode":"62850","state":"Morelos","municipality":"Ocuituco","setelement":"Tepexi"},{"postalCode":"62853","state":"Morelos","municipality":"Ocuituco","setelement":"San Nicolás"},{"postalCode":"62853","state":"Morelos","municipality":"Ocuituco","setelement":"La Asunción"},{"postalCode":"62854","state":"Morelos","municipality":"Ocuituco","setelement":"5 de Mayo"},{"postalCode":"62855","state":"Morelos","municipality":"Ocuituco","setelement":"Metepec"},{"postalCode":"62855","state":"Morelos","municipality":"Ocuituco","setelement":"La Cebada"},{"postalCode":"62855","state":"Morelos","municipality":"Ocuituco","setelement":"Huauscuautla"},{"postalCode":"62855","state":"Morelos","municipality":"Ocuituco","setelement":"Zacamilpa"},{"postalCode":"62855","state":"Morelos","municipality":"Ocuituco","setelement":"Los Espino"},{"postalCode":"62855","state":"Morelos","municipality":"Ocuituco","setelement":"La Higuera"},{"postalCode":"62855","state":"Morelos","municipality":"Ocuituco","setelement":"La Finca"},{"postalCode":"62855","state":"Morelos","municipality":"Ocuituco","setelement":"Chignahuapan"},{"postalCode":"62855","state":"Morelos","municipality":"Ocuituco","setelement":"La Rosita (Rancho el Paraíso)"},{"postalCode":"62855","state":"Morelos","municipality":"Ocuituco","setelement":"La Ixtla"},{"postalCode":"62856","state":"Morelos","municipality":"Ocuituco","setelement":"Mahoma"},{"postalCode":"62857","state":"Morelos","municipality":"Ocuituco","setelement":"Cruz de Lima"},{"postalCode":"62857","state":"Morelos","municipality":"Ocuituco","setelement":"Santa Mónica"},{"postalCode":"62857","state":"Morelos","municipality":"Ocuituco","setelement":"La Ponderosa"},{"postalCode":"62857","state":"Morelos","municipality":"Ocuituco","setelement":"Casahuatitla"},{"postalCode":"62857","state":"Morelos","municipality":"Ocuituco","setelement":"Colinas del Sol"},{"postalCode":"62857","state":"Morelos","municipality":"Ocuituco","setelement":"Santa Elena de la Cruz"},{"postalCode":"62857","state":"Morelos","municipality":"Ocuituco","setelement":"Tlacuatzingo"},{"postalCode":"62857","state":"Morelos","municipality":"Ocuituco","setelement":"Cerrito Colorado"},{"postalCode":"62857","state":"Morelos","municipality":"Ocuituco","setelement":"Piedra Rajada"},{"postalCode":"62860","state":"Morelos","municipality":"Ocuituco","setelement":"Jumiltepec"},{"postalCode":"62863","state":"Morelos","municipality":"Ocuituco","setelement":"Atenco"},{"postalCode":"62863","state":"Morelos","municipality":"Ocuituco","setelement":"El Cedral"},{"postalCode":"62864","state":"Morelos","municipality":"Ocuituco","setelement":"Atataco"},{"postalCode":"62864","state":"Morelos","municipality":"Ocuituco","setelement":"El Naranjo"},{"postalCode":"62865","state":"Morelos","municipality":"Ocuituco","setelement":"Huepalcalco (San Miguel)"},{"postalCode":"62865","state":"Morelos","municipality":"Ocuituco","setelement":"Ocoxaltepec"},{"postalCode":"62865","state":"Morelos","municipality":"Ocuituco","setelement":"Huejotengo (San Marcos)"},{"postalCode":"62865","state":"Morelos","municipality":"Ocuituco","setelement":"Ocotitla"},{"postalCode":"62865","state":"Morelos","municipality":"Ocuituco","setelement":"Cuestepec"},{"postalCode":"62866","state":"Morelos","municipality":"Ocuituco","setelement":"Tomayo"},{"postalCode":"62866","state":"Morelos","municipality":"Ocuituco","setelement":"Temaxquiticla"},{"postalCode":"62867","state":"Morelos","municipality":"Ocuituco","setelement":"Huecahuasco"},{"postalCode":"62870","state":"Morelos","municipality":"Temoac","setelement":"Temoac"},{"postalCode":"62873","state":"Morelos","municipality":"Temoac","setelement":"Popotlán ( Barrio de Santo Tomás )"},{"postalCode":"62873","state":"Morelos","municipality":"Temoac","setelement":"Los Cuatecomates"},{"postalCode":"62880","state":"Morelos","municipality":"Temoac","setelement":"Campo el Limón"},{"postalCode":"62880","state":"Morelos","municipality":"Temoac","setelement":"Huazulco"},{"postalCode":"62885","state":"Morelos","municipality":"Temoac","setelement":"Amilcingo"},{"postalCode":"62887","state":"Morelos","municipality":"Temoac","setelement":"Escuela Normal Rural Amilcingo"},{"postalCode":"62887","state":"Morelos","municipality":"Temoac","setelement":"El Puente Nuevo"},{"postalCode":"62890","state":"Morelos","municipality":"Zacualpan de Amilpas","setelement":"Zacualpan de Amilpas"},{"postalCode":"62890","state":"Morelos","municipality":"Zacualpan de Amilpas","setelement":"Guadalupe Victoria"},{"postalCode":"62890","state":"Morelos","municipality":"Zacualpan de Amilpas","setelement":"Las Presas"},{"postalCode":"62893","state":"Morelos","municipality":"Zacualpan de Amilpas","setelement":"Barranca Amatzinac"},{"postalCode":"62893","state":"Morelos","municipality":"Zacualpan de Amilpas","setelement":"Curiel"},{"postalCode":"62895","state":"Morelos","municipality":"Zacualpan de Amilpas","setelement":"Tlacotepec"},{"postalCode":"62895","state":"Morelos","municipality":"Zacualpan de Amilpas","setelement":"La Compuerta"},{"postalCode":"62896","state":"Morelos","municipality":"Zacualpan de Amilpas","setelement":"Toribio Rivera"},{"postalCode":"62897","state":"Morelos","municipality":"Zacualpan de Amilpas","setelement":"La Presa (El Cerro de la Era)"},{"postalCode":"62900","state":"Morelos","municipality":"Jojutla","setelement":"Jojutla Centro"},{"postalCode":"62900","state":"Morelos","municipality":"Jojutla","setelement":"Emiliano Zapata"},{"postalCode":"62900","state":"Morelos","municipality":"Jojutla","setelement":"Reforma"},{"postalCode":"62900","state":"Morelos","municipality":"Jojutla","setelement":"Cuauhtémoc"},{"postalCode":"62900","state":"Morelos","municipality":"Jojutla","setelement":"Benito Juárez"},{"postalCode":"62900","state":"Morelos","municipality":"Jojutla","setelement":"Las Calaveras"},{"postalCode":"62900","state":"Morelos","municipality":"Jojutla","setelement":"Del Bosque"},{"postalCode":"62900","state":"Morelos","municipality":"Jojutla","setelement":"El Higuerón"},{"postalCode":"62900","state":"Morelos","municipality":"Jojutla","setelement":"El Pochote"},{"postalCode":"62900","state":"Morelos","municipality":"Jojutla","setelement":"El Zapatito"},{"postalCode":"62900","state":"Morelos","municipality":"Jojutla","setelement":"La Pastrana"},{"postalCode":"62900","state":"Morelos","municipality":"Jojutla","setelement":"Los Arrozales"},{"postalCode":"62900","state":"Morelos","municipality":"Jojutla","setelement":"San Jerónimo"},{"postalCode":"62900","state":"Morelos","municipality":"Jojutla","setelement":"Las Cañas"},{"postalCode":"62900","state":"Morelos","municipality":"Jojutla","setelement":"Panchimalco"},{"postalCode":"62905","state":"Morelos","municipality":"Jojutla","setelement":"Álamos (La Frontera)"},{"postalCode":"62905","state":"Morelos","municipality":"Jojutla","setelement":"Nexpa"},{"postalCode":"62906","state":"Morelos","municipality":"Jojutla","setelement":"Higuerón"},{"postalCode":"62906","state":"Morelos","municipality":"Jojutla","setelement":"Pedro Amaro"},{"postalCode":"62906","state":"Morelos","municipality":"Jojutla","setelement":"Independencia"},{"postalCode":"62906","state":"Morelos","municipality":"Jojutla","setelement":"Ampliación Lázaro Cárdenas (El Molino)"},{"postalCode":"62906","state":"Morelos","municipality":"Jojutla","setelement":"Ricardo Soto"},{"postalCode":"62907","state":"Morelos","municipality":"Jojutla","setelement":"Santa María"},{"postalCode":"62907","state":"Morelos","municipality":"Jojutla","setelement":"Los Venados"},{"postalCode":"62907","state":"Morelos","municipality":"Jojutla","setelement":"Tlatenchi"},{"postalCode":"62907","state":"Morelos","municipality":"Jojutla","setelement":"Vicente Guerrero"},{"postalCode":"62907","state":"Morelos","municipality":"Jojutla","setelement":"Buenos Aires"},{"postalCode":"62907","state":"Morelos","municipality":"Jojutla","setelement":"Ampliación Santa María"},{"postalCode":"62908","state":"Morelos","municipality":"Jojutla","setelement":"Bonanza"},{"postalCode":"62908","state":"Morelos","municipality":"Jojutla","setelement":"Las Fincas de Tequesquitengo"},{"postalCode":"62909","state":"Morelos","municipality":"Jojutla","setelement":"Constitución del 57"},{"postalCode":"62909","state":"Morelos","municipality":"Jojutla","setelement":"José María Morelos y Pavón"},{"postalCode":"62909","state":"Morelos","municipality":"Jojutla","setelement":"Jicarero"},{"postalCode":"62909","state":"Morelos","municipality":"Jojutla","setelement":"Nicolás Bravo"},{"postalCode":"62909","state":"Morelos","municipality":"Jojutla","setelement":"Ampliación Nicolás Bravo"},{"postalCode":"62909","state":"Morelos","municipality":"Jojutla","setelement":"Los Pilares"},{"postalCode":"62910","state":"Morelos","municipality":"Jojutla","setelement":"Balcones de Tehuixtla"},{"postalCode":"62910","state":"Morelos","municipality":"Jojutla","setelement":"Los Naranjos"},{"postalCode":"62910","state":"Morelos","municipality":"Jojutla","setelement":"Tehuixtla"},{"postalCode":"62910","state":"Morelos","municipality":"Jojutla","setelement":"Guadalupe"},{"postalCode":"62910","state":"Morelos","municipality":"Jojutla","setelement":"Loma Bonita (arenales)"},{"postalCode":"62910","state":"Morelos","municipality":"Jojutla","setelement":"Emiliano Zapata"},{"postalCode":"62912","state":"Morelos","municipality":"Jojutla","setelement":"Campo San Pablo"},{"postalCode":"62914","state":"Morelos","municipality":"Jojutla","setelement":"Azuchilera"},{"postalCode":"62914","state":"Morelos","municipality":"Jojutla","setelement":"La Mesa de los Indios"},{"postalCode":"62915","state":"Morelos","municipality":"Jojutla","setelement":"Tequesquitengo"},{"postalCode":"62916","state":"Morelos","municipality":"Jojutla","setelement":"Las Brasileras"},{"postalCode":"62917","state":"Morelos","municipality":"Jojutla","setelement":"Chisco"},{"postalCode":"62917","state":"Morelos","municipality":"Jojutla","setelement":"Vicente Aranda (San Rafael)"},{"postalCode":"62917","state":"Morelos","municipality":"Jojutla","setelement":"Río Seco"},{"postalCode":"62917","state":"Morelos","municipality":"Jojutla","setelement":"Tenerías"},{"postalCode":"62917","state":"Morelos","municipality":"Jojutla","setelement":"Los Lagartos"},{"postalCode":"62920","state":"Morelos","municipality":"Tepalcingo","setelement":"Tepalcingo"},{"postalCode":"62920","state":"Morelos","municipality":"Tepalcingo","setelement":"San Francisco"},{"postalCode":"62920","state":"Morelos","municipality":"Tepalcingo","setelement":"La Concepción"},{"postalCode":"62920","state":"Morelos","municipality":"Tepalcingo","setelement":"Buenos Aires"},{"postalCode":"62920","state":"Morelos","municipality":"Tepalcingo","setelement":"Palo Revuelto"},{"postalCode":"62920","state":"Morelos","municipality":"Tepalcingo","setelement":"Guadalupe"},{"postalCode":"62920","state":"Morelos","municipality":"Tepalcingo","setelement":"Los Reyes"},{"postalCode":"62920","state":"Morelos","municipality":"Tepalcingo","setelement":"San Martín"},{"postalCode":"62920","state":"Morelos","municipality":"Tepalcingo","setelement":"Santuario"},{"postalCode":"62920","state":"Morelos","municipality":"Tepalcingo","setelement":"Emiliano Zapata"},{"postalCode":"62923","state":"Morelos","municipality":"Tepalcingo","setelement":"Adolfo López Mateos"},{"postalCode":"62923","state":"Morelos","municipality":"Tepalcingo","setelement":"Huitchila"},{"postalCode":"62923","state":"Morelos","municipality":"Tepalcingo","setelement":"Cruz de Jaramalla ( Lauro Ortega )"},{"postalCode":"62924","state":"Morelos","municipality":"Tepalcingo","setelement":"Ixtlilco El Chico"},{"postalCode":"62924","state":"Morelos","municipality":"Tepalcingo","setelement":"El Bambú (La Presa)"},{"postalCode":"62924","state":"Morelos","municipality":"Tepalcingo","setelement":"Mano Pintada"},{"postalCode":"62925","state":"Morelos","municipality":"Tepalcingo","setelement":"Los Vergeles"},{"postalCode":"62925","state":"Morelos","municipality":"Tepalcingo","setelement":"Atotonilco"},{"postalCode":"62925","state":"Morelos","municipality":"Tepalcingo","setelement":"Los Tulipanes"},{"postalCode":"62925","state":"Morelos","municipality":"Tepalcingo","setelement":"20 de Noviembre"},{"postalCode":"62925","state":"Morelos","municipality":"Tepalcingo","setelement":"La Vía"},{"postalCode":"62926","state":"Morelos","municipality":"Tepalcingo","setelement":"Ixtlilco El Grande"},{"postalCode":"62926","state":"Morelos","municipality":"Tepalcingo","setelement":"La Junta"},{"postalCode":"62926","state":"Morelos","municipality":"Tepalcingo","setelement":"Las Joyas"},{"postalCode":"62926","state":"Morelos","municipality":"Tepalcingo","setelement":"El Pozo"},{"postalCode":"62926","state":"Morelos","municipality":"Tepalcingo","setelement":"La Joyita de Piedra Grande"},{"postalCode":"62927","state":"Morelos","municipality":"Tepalcingo","setelement":"Pitzotlán"},{"postalCode":"62927","state":"Morelos","municipality":"Tepalcingo","setelement":"Zacapalco"},{"postalCode":"62927","state":"Morelos","municipality":"Tepalcingo","setelement":"El Tepehuaje"},{"postalCode":"62927","state":"Morelos","municipality":"Tepalcingo","setelement":"Los Sauces"},{"postalCode":"62927","state":"Morelos","municipality":"Tepalcingo","setelement":"El Limón de Cuahuchichinola"},{"postalCode":"62927","state":"Morelos","municipality":"Tepalcingo","setelement":"Molotlál ( Mogotlán )"},{"postalCode":"62927","state":"Morelos","municipality":"Tepalcingo","setelement":"Emiliano Zapata"},{"postalCode":"62930","state":"Morelos","municipality":"Jonacatepec de Leandro Valle","setelement":"Jonacatepec de Leandro Valle Centro"},{"postalCode":"62933","state":"Morelos","municipality":"Jonacatepec de Leandro Valle","setelement":"López de Nava"},{"postalCode":"62933","state":"Morelos","municipality":"Jonacatepec de Leandro Valle","setelement":"Zull Ayot"},{"postalCode":"62933","state":"Morelos","municipality":"Jonacatepec de Leandro Valle","setelement":"La Capilla"},{"postalCode":"62934","state":"Morelos","municipality":"Jonacatepec de Leandro Valle","setelement":"Leandro Valle"},{"postalCode":"62935","state":"Morelos","municipality":"Jonacatepec de Leandro Valle","setelement":"Ex-Hacienda Montefalco"},{"postalCode":"62935","state":"Morelos","municipality":"Jonacatepec de Leandro Valle","setelement":"El Carrizal"},{"postalCode":"62936","state":"Morelos","municipality":"Jonacatepec de Leandro Valle","setelement":"La Divina Providencia"},{"postalCode":"62936","state":"Morelos","municipality":"Jonacatepec de Leandro Valle","setelement":"La Yesera"},{"postalCode":"62936","state":"Morelos","municipality":"Jonacatepec de Leandro Valle","setelement":"Santa Cruz"},{"postalCode":"62936","state":"Morelos","municipality":"Jonacatepec de Leandro Valle","setelement":"El Puente Angosto"},{"postalCode":"62936","state":"Morelos","municipality":"Jonacatepec de Leandro Valle","setelement":"Las Bugambilias"},{"postalCode":"62936","state":"Morelos","municipality":"Jonacatepec de Leandro Valle","setelement":"La Casa de Piedra"},{"postalCode":"62936","state":"Morelos","municipality":"Jonacatepec de Leandro Valle","setelement":"El Abrevadero (Campo Mata Redonda)"},{"postalCode":"62937","state":"Morelos","municipality":"Jonacatepec de Leandro Valle","setelement":"Amacuitlapilco"},{"postalCode":"62937","state":"Morelos","municipality":"Jonacatepec de Leandro Valle","setelement":"Tlayca"},{"postalCode":"62937","state":"Morelos","municipality":"Jonacatepec de Leandro Valle","setelement":"Emiliano Zapata"},{"postalCode":"62937","state":"Morelos","municipality":"Jonacatepec de Leandro Valle","setelement":"Juárez"},{"postalCode":"62940","state":"Morelos","municipality":"Jonacatepec de Leandro Valle","setelement":"Tetelilla"},{"postalCode":"62943","state":"Morelos","municipality":"Jonacatepec de Leandro Valle","setelement":"El Puente Colorado"},{"postalCode":"62950","state":"Morelos","municipality":"Axochiapan","setelement":"Axochiapan"},{"postalCode":"62950","state":"Morelos","municipality":"Axochiapan","setelement":"La Luz"},{"postalCode":"62950","state":"Morelos","municipality":"Axochiapan","setelement":"Otilio Montaño"},{"postalCode":"62952","state":"Morelos","municipality":"Axochiapan","setelement":"Industrial"},{"postalCode":"62952","state":"Morelos","municipality":"Axochiapan","setelement":"Vista Hermosa"},{"postalCode":"62952","state":"Morelos","municipality":"Axochiapan","setelement":"Bugambilias"},{"postalCode":"62953","state":"Morelos","municipality":"Axochiapan","setelement":"Del Carmen"},{"postalCode":"62953","state":"Morelos","municipality":"Axochiapan","setelement":"Las Ardillas"},{"postalCode":"62953","state":"Morelos","municipality":"Axochiapan","setelement":"Progreso"},{"postalCode":"62953","state":"Morelos","municipality":"Axochiapan","setelement":"Las Palmas"},{"postalCode":"62954","state":"Morelos","municipality":"Axochiapan","setelement":"Florida"},{"postalCode":"62954","state":"Morelos","municipality":"Axochiapan","setelement":"Biznaga"},{"postalCode":"62954","state":"Morelos","municipality":"Axochiapan","setelement":"Centenario"},{"postalCode":"62954","state":"Morelos","municipality":"Axochiapan","setelement":"Emiliano Zapata"},{"postalCode":"62955","state":"Morelos","municipality":"Axochiapan","setelement":"Tlalayo"},{"postalCode":"62955","state":"Morelos","municipality":"Axochiapan","setelement":"Cuauhtémoc"},{"postalCode":"62955","state":"Morelos","municipality":"Axochiapan","setelement":"Los Tres Reyes"},{"postalCode":"62955","state":"Morelos","municipality":"Axochiapan","setelement":"El C.B.T.A."},{"postalCode":"62955","state":"Morelos","municipality":"Axochiapan","setelement":"Carrillo Olea (La Primavera)"},{"postalCode":"62955","state":"Morelos","municipality":"Axochiapan","setelement":"El Mirador"},{"postalCode":"62955","state":"Morelos","municipality":"Axochiapan","setelement":"Los Linderos (Fábrica de Yeso)"},{"postalCode":"62955","state":"Morelos","municipality":"Axochiapan","setelement":"Rubén Carrillo"},{"postalCode":"62955","state":"Morelos","municipality":"Axochiapan","setelement":"Los Gavilanes"},{"postalCode":"62955","state":"Morelos","municipality":"Axochiapan","setelement":"La Estación"},{"postalCode":"62955","state":"Morelos","municipality":"Axochiapan","setelement":"5 de Mayo"},{"postalCode":"62956","state":"Morelos","municipality":"Axochiapan","setelement":"Ahuaxtla"},{"postalCode":"62956","state":"Morelos","municipality":"Axochiapan","setelement":"Benito Juárez"},{"postalCode":"62956","state":"Morelos","municipality":"Axochiapan","setelement":"El Papagayo"},{"postalCode":"62956","state":"Morelos","municipality":"Axochiapan","setelement":"Los Laureles"},{"postalCode":"62956","state":"Morelos","municipality":"Axochiapan","setelement":"Cabrera"},{"postalCode":"62956","state":"Morelos","municipality":"Axochiapan","setelement":"Palo Blanco"},{"postalCode":"62956","state":"Morelos","municipality":"Axochiapan","setelement":"El Guamúchil"},{"postalCode":"62956","state":"Morelos","municipality":"Axochiapan","setelement":"Los Límites"},{"postalCode":"62956","state":"Morelos","municipality":"Axochiapan","setelement":"Juan Ortega Sánchez"},{"postalCode":"62956","state":"Morelos","municipality":"Axochiapan","setelement":"La Piedra Colorada"},{"postalCode":"62957","state":"Morelos","municipality":"Axochiapan","setelement":"Quebrantadero"},{"postalCode":"62957","state":"Morelos","municipality":"Axochiapan","setelement":"Joaquín Camaño"},{"postalCode":"62957","state":"Morelos","municipality":"Axochiapan","setelement":"Campo la Laguna"},{"postalCode":"62957","state":"Morelos","municipality":"Axochiapan","setelement":"El Edén"},{"postalCode":"62957","state":"Morelos","municipality":"Axochiapan","setelement":"Las Palmas (La Poza del Pajarito)"},{"postalCode":"62957","state":"Morelos","municipality":"Axochiapan","setelement":"El Mezquital"},{"postalCode":"62957","state":"Morelos","municipality":"Axochiapan","setelement":"Las Tinajas"},{"postalCode":"62962","state":"Morelos","municipality":"Axochiapan","setelement":"Marcelino Rodríguez (San Ignacio)"},{"postalCode":"62962","state":"Morelos","municipality":"Axochiapan","setelement":"Cayehuacán"},{"postalCode":"62962","state":"Morelos","municipality":"Axochiapan","setelement":"La Nopalera"},{"postalCode":"62962","state":"Morelos","municipality":"Axochiapan","setelement":"Nueva Esperanza"},{"postalCode":"62962","state":"Morelos","municipality":"Axochiapan","setelement":"La Toma"},{"postalCode":"62962","state":"Morelos","municipality":"Axochiapan","setelement":"Los Carros"},{"postalCode":"62963","state":"Morelos","municipality":"Axochiapan","setelement":"Campo la Zacatera"},{"postalCode":"62963","state":"Morelos","municipality":"Axochiapan","setelement":"Atlacahualoya"},{"postalCode":"62963","state":"Morelos","municipality":"Axochiapan","setelement":"Coayuca de Morelos"},{"postalCode":"62963","state":"Morelos","municipality":"Axochiapan","setelement":"La Huerta (La Bomba Dos)"},{"postalCode":"62963","state":"Morelos","municipality":"Axochiapan","setelement":"Los Nacahuites"},{"postalCode":"62963","state":"Morelos","municipality":"Axochiapan","setelement":"La Joya del Zompa"},{"postalCode":"62965","state":"Morelos","municipality":"Axochiapan","setelement":"Campo Jicamal"},{"postalCode":"62965","state":"Morelos","municipality":"Axochiapan","setelement":"Telixtac"},{"postalCode":"62966","state":"Morelos","municipality":"Axochiapan","setelement":"2000"},{"postalCode":"62970","state":"Morelos","municipality":"Jantetelco","setelement":"Jantetelco Centro"},{"postalCode":"62970","state":"Morelos","municipality":"Jantetelco","setelement":"Manuel Alarcón"},{"postalCode":"62970","state":"Morelos","municipality":"Jantetelco","setelement":"Mariana Díaz"},{"postalCode":"62972","state":"Morelos","municipality":"Jantetelco","setelement":"Amayuca"},{"postalCode":"62972","state":"Morelos","municipality":"Jantetelco","setelement":"Gabriel Tepepa"},{"postalCode":"62973","state":"Morelos","municipality":"Jantetelco","setelement":"Serafín Marcial Bonilla"},{"postalCode":"62974","state":"Morelos","municipality":"Jantetelco","setelement":"Mariano Matamoros"},{"postalCode":"62974","state":"Morelos","municipality":"Jantetelco","setelement":"Alondra"},{"postalCode":"62974","state":"Morelos","municipality":"Jantetelco","setelement":"Cuatro Caminos"},{"postalCode":"62974","state":"Morelos","municipality":"Jantetelco","setelement":"Nuevo Xochimilco"},{"postalCode":"62974","state":"Morelos","municipality":"Jantetelco","setelement":"Santa Lucía"},{"postalCode":"62975","state":"Morelos","municipality":"Jantetelco","setelement":"Los Bordos"},{"postalCode":"62975","state":"Morelos","municipality":"Jantetelco","setelement":"La Y"},{"postalCode":"62975","state":"Morelos","municipality":"Jantetelco","setelement":"La Renta"},{"postalCode":"62976","state":"Morelos","municipality":"Jantetelco","setelement":"La Laja"},{"postalCode":"62977","state":"Morelos","municipality":"Jantetelco","setelement":"Chalcatzingo"},{"postalCode":"62977","state":"Morelos","municipality":"Jantetelco","setelement":"La Joya"},{"postalCode":"62978","state":"Morelos","municipality":"Jantetelco","setelement":"San Antonio La Esperanza"},{"postalCode":"62978","state":"Morelos","municipality":"Jantetelco","setelement":"Tenango (Santa Ana)"},{"postalCode":"62978","state":"Morelos","municipality":"Jantetelco","setelement":"Emiliano Zapata (La Granja)"},{"postalCode":"62978","state":"Morelos","municipality":"Jantetelco","setelement":"La Huerta"},{"postalCode":"62978","state":"Morelos","municipality":"Jantetelco","setelement":"Peñón de los Baños"},{"postalCode":"62980","state":"Morelos","municipality":"Tlaquiltenango","setelement":"Tlaquiltenango"},{"postalCode":"62980","state":"Morelos","municipality":"Tlaquiltenango","setelement":"Vista Alegre"},{"postalCode":"62980","state":"Morelos","municipality":"Tlaquiltenango","setelement":"Gabriel Tepepa"},{"postalCode":"62980","state":"Morelos","municipality":"Tlaquiltenango","setelement":"El Texcal"},{"postalCode":"62980","state":"Morelos","municipality":"Tlaquiltenango","setelement":"Los Presidentes"},{"postalCode":"62980","state":"Morelos","municipality":"Tlaquiltenango","setelement":"Alfredo V. Bonfil (Chacampalco)"},{"postalCode":"62980","state":"Morelos","municipality":"Tlaquiltenango","setelement":"Cantora"},{"postalCode":"62980","state":"Morelos","municipality":"Tlaquiltenango","setelement":"Plan de Ayala"},{"postalCode":"62982","state":"Morelos","municipality":"Tlaquiltenango","setelement":"Villas de Jojutla"},{"postalCode":"62983","state":"Morelos","municipality":"Tlaquiltenango","setelement":"Miguel Hidalgo"},{"postalCode":"62983","state":"Morelos","municipality":"Tlaquiltenango","setelement":"3 de Mayo (El Tepiolol)"},{"postalCode":"62984","state":"Morelos","municipality":"Tlaquiltenango","setelement":"Celerino Manzanares"},{"postalCode":"62984","state":"Morelos","municipality":"Tlaquiltenango","setelement":"Emiliano Zapata"},{"postalCode":"62984","state":"Morelos","municipality":"Tlaquiltenango","setelement":"Palo Grande"},{"postalCode":"62985","state":"Morelos","municipality":"Tlaquiltenango","setelement":"La Mezquitera (El Astillero)"},{"postalCode":"62985","state":"Morelos","municipality":"Tlaquiltenango","setelement":"La Era (Calalpa)"},{"postalCode":"62985","state":"Morelos","municipality":"Tlaquiltenango","setelement":"Las Carpas"},{"postalCode":"62985","state":"Morelos","municipality":"Tlaquiltenango","setelement":"Las Bóvedas"},{"postalCode":"62986","state":"Morelos","municipality":"Tlaquiltenango","setelement":"Chimalacatlán"},{"postalCode":"62986","state":"Morelos","municipality":"Tlaquiltenango","setelement":"Lorenzo Vázquez (Santa Cruz)"},{"postalCode":"62986","state":"Morelos","municipality":"Tlaquiltenango","setelement":"Quilamula"},{"postalCode":"62986","state":"Morelos","municipality":"Tlaquiltenango","setelement":"San José de Pala"},{"postalCode":"62986","state":"Morelos","municipality":"Tlaquiltenango","setelement":"Valle de Vázquez (Los Hornos)"},{"postalCode":"62986","state":"Morelos","municipality":"Tlaquiltenango","setelement":"Los Dormidos"},{"postalCode":"62987","state":"Morelos","municipality":"Tlaquiltenango","setelement":"Los Elotes (San Miguel de los Elotes)"},{"postalCode":"62987","state":"Morelos","municipality":"Tlaquiltenango","setelement":"Pueblo Viejo"},{"postalCode":"62987","state":"Morelos","municipality":"Tlaquiltenango","setelement":"Xicatlacotla"},{"postalCode":"62987","state":"Morelos","municipality":"Tlaquiltenango","setelement":"Nexpa"},{"postalCode":"62987","state":"Morelos","municipality":"Tlaquiltenango","setelement":"Paso de Palapa"},{"postalCode":"62988","state":"Morelos","municipality":"Tlaquiltenango","setelement":"Huixastla"},{"postalCode":"62988","state":"Morelos","municipality":"Tlaquiltenango","setelement":"Coaxitlán"},{"postalCode":"62988","state":"Morelos","municipality":"Tlaquiltenango","setelement":"El Calabazal (Rancho la Ceiba)"},{"postalCode":"62990","state":"Morelos","municipality":"Tlaquiltenango","setelement":"Huautla"},{"postalCode":"62993","state":"Morelos","municipality":"Tlaquiltenango","setelement":"Ajuchitlán"},{"postalCode":"62994","state":"Morelos","municipality":"Tlaquiltenango","setelement":"Rancho Viejo"},{"postalCode":"62995","state":"Morelos","municipality":"Tlaquiltenango","setelement":"Huaxtla"},{"postalCode":"62995","state":"Morelos","municipality":"Tlaquiltenango","setelement":"La Bomba"},{"postalCode":"62996","state":"Morelos","municipality":"Tlaquiltenango","setelement":"Xochipala"},{"postalCode":"62996","state":"Morelos","municipality":"Tlaquiltenango","setelement":"Santiopa"}]