[{"postalCode":"63000","state":"Nayarit","municipality":"Tepic","setelement":"Tepic Centro"},{"postalCode":"63000","state":"Nayarit","municipality":"Tepic","setelement":"Esteban Baca Calderón"},{"postalCode":"63010","state":"Nayarit","municipality":"Tepic","setelement":"Amado Nervo"},{"postalCode":"63010","state":"Nayarit","municipality":"Tepic","setelement":"Amado Nervo"},{"postalCode":"63010","state":"Nayarit","municipality":"Tepic","setelement":"Paseo de La Constitución"},{"postalCode":"63010","state":"Nayarit","municipality":"Tepic","setelement":"Sacristán"},{"postalCode":"63018","state":"Nayarit","municipality":"Tepic","setelement":"El Punto"},{"postalCode":"63019","state":"Nayarit","municipality":"Tepic","setelement":"Francisco Villa"},{"postalCode":"63019","state":"Nayarit","municipality":"Tepic","setelement":"Loma Hermosa"},{"postalCode":"63020","state":"Nayarit","municipality":"Tepic","setelement":"Santa Teresita"},{"postalCode":"63020","state":"Nayarit","municipality":"Tepic","setelement":"Unidad Deportiva Santa Teresita"},{"postalCode":"63021","state":"Nayarit","municipality":"Tepic","setelement":"Adolfo López Mateos"},{"postalCode":"63022","state":"Nayarit","municipality":"Tepic","setelement":"INDECO"},{"postalCode":"63023","state":"Nayarit","municipality":"Tepic","setelement":"Ojo de Agua"},{"postalCode":"63023","state":"Nayarit","municipality":"Tepic","setelement":"Senderos del Monte"},{"postalCode":"63023","state":"Nayarit","municipality":"Tepic","setelement":"Buenos Aires"},{"postalCode":"63030","state":"Nayarit","municipality":"Tepic","setelement":"Cuitlahuac"},{"postalCode":"63030","state":"Nayarit","municipality":"Tepic","setelement":"Chapultepec"},{"postalCode":"63030","state":"Nayarit","municipality":"Tepic","setelement":"Lomas de La Cruz Sutse"},{"postalCode":"63030","state":"Nayarit","municipality":"Tepic","setelement":"San José"},{"postalCode":"63035","state":"Nayarit","municipality":"Tepic","setelement":"Jardines del Valle"},{"postalCode":"63035","state":"Nayarit","municipality":"Tepic","setelement":"Villas del Paraíso"},{"postalCode":"63035","state":"Nayarit","municipality":"Tepic","setelement":"Bugambilias"},{"postalCode":"63035","state":"Nayarit","municipality":"Tepic","setelement":"Tulipanes"},{"postalCode":"63035","state":"Nayarit","municipality":"Tepic","setelement":"Valle Verde de Matatipac"},{"postalCode":"63035","state":"Nayarit","municipality":"Tepic","setelement":"Valle de La Cruz"},{"postalCode":"63035","state":"Nayarit","municipality":"Tepic","setelement":"Valle de Zaragoza"},{"postalCode":"63035","state":"Nayarit","municipality":"Tepic","setelement":"Ampliación El Paraíso"},{"postalCode":"63035","state":"Nayarit","municipality":"Tepic","setelement":"Nuevo Progreso"},{"postalCode":"63035","state":"Nayarit","municipality":"Tepic","setelement":"Islas del Paraíso"},{"postalCode":"63037","state":"Nayarit","municipality":"Tepic","setelement":"Lomas de La Cruz"},{"postalCode":"63037","state":"Nayarit","municipality":"Tepic","setelement":"Los Viveros"},{"postalCode":"63037","state":"Nayarit","municipality":"Tepic","setelement":"Sindicalistas"},{"postalCode":"63037","state":"Nayarit","municipality":"Tepic","setelement":"Villas de la Cruz"},{"postalCode":"63037","state":"Nayarit","municipality":"Tepic","setelement":"Residencial La Esmeralda"},{"postalCode":"63037","state":"Nayarit","municipality":"Tepic","setelement":"Valle Verde Conalep"},{"postalCode":"63037","state":"Nayarit","municipality":"Tepic","setelement":"Ingeniero Agrónomo"},{"postalCode":"63037","state":"Nayarit","municipality":"Tepic","setelement":"La Loma"},{"postalCode":"63037","state":"Nayarit","municipality":"Tepic","setelement":"Los Arcos"},{"postalCode":"63037","state":"Nayarit","municipality":"Tepic","setelement":"La Lomita"},{"postalCode":"63037","state":"Nayarit","municipality":"Tepic","setelement":"Villas de Zapopan"},{"postalCode":"63037","state":"Nayarit","municipality":"Tepic","setelement":"Villas de la Laguna"},{"postalCode":"63037","state":"Nayarit","municipality":"Tepic","setelement":"Villas Arana"},{"postalCode":"63038","state":"Nayarit","municipality":"Tepic","setelement":"El Mirador INFONAVIT"},{"postalCode":"63038","state":"Nayarit","municipality":"Tepic","setelement":"El Paraíso"},{"postalCode":"63038","state":"Nayarit","municipality":"Tepic","setelement":"Emilio M. González"},{"postalCode":"63038","state":"Nayarit","municipality":"Tepic","setelement":"Las Conchas"},{"postalCode":"63038","state":"Nayarit","municipality":"Tepic","setelement":"Las Pares"},{"postalCode":"63038","state":"Nayarit","municipality":"Tepic","setelement":"Reforma"},{"postalCode":"63038","state":"Nayarit","municipality":"Tepic","setelement":"Rancho las Cruces"},{"postalCode":"63039","state":"Nayarit","municipality":"Tepic","setelement":"Puerta de La Laguna"},{"postalCode":"63039","state":"Nayarit","municipality":"Tepic","setelement":"Real Montecarlo"},{"postalCode":"63039","state":"Nayarit","municipality":"Tepic","setelement":"Camino Real"},{"postalCode":"63039","state":"Nayarit","municipality":"Tepic","setelement":"Social Progresivo Cuba"},{"postalCode":"63039","state":"Nayarit","municipality":"Tepic","setelement":"Aztlán El Verde"},{"postalCode":"63039","state":"Nayarit","municipality":"Tepic","setelement":"Riveras de La Laguna"},{"postalCode":"63040","state":"Nayarit","municipality":"Tepic","setelement":"Magisterial"},{"postalCode":"63050","state":"Nayarit","municipality":"Tepic","setelement":"El Parían"},{"postalCode":"63050","state":"Nayarit","municipality":"Tepic","setelement":"Miguel Ángel Paredes"},{"postalCode":"63050","state":"Nayarit","municipality":"Tepic","setelement":"Mololoa"},{"postalCode":"63058","state":"Nayarit","municipality":"Tepic","setelement":"Rivas Allende"},{"postalCode":"63058","state":"Nayarit","municipality":"Tepic","setelement":"Sandino"},{"postalCode":"63058","state":"Nayarit","municipality":"Tepic","setelement":"Sanchez Ibarra"},{"postalCode":"63059","state":"Nayarit","municipality":"Tepic","setelement":"Lomas de Cortez"},{"postalCode":"63059","state":"Nayarit","municipality":"Tepic","setelement":"Lomas de La Laguna"},{"postalCode":"63059","state":"Nayarit","municipality":"Tepic","setelement":"Villas de Matatipac"},{"postalCode":"63059","state":"Nayarit","municipality":"Tepic","setelement":"El Limón"},{"postalCode":"63059","state":"Nayarit","municipality":"Tepic","setelement":"San Juanito"},{"postalCode":"63060","state":"Nayarit","municipality":"Tepic","setelement":"El Rodeo"},{"postalCode":"63061","state":"Nayarit","municipality":"Tepic","setelement":"Lomas Altas"},{"postalCode":"63062","state":"Nayarit","municipality":"Tepic","setelement":"El Palomar"},{"postalCode":"63062","state":"Nayarit","municipality":"Tepic","setelement":"Lomas Bonitas"},{"postalCode":"63062","state":"Nayarit","municipality":"Tepic","setelement":"Alaska"},{"postalCode":"63062","state":"Nayarit","municipality":"Tepic","setelement":"Rinconada Residencial"},{"postalCode":"63066","state":"Nayarit","municipality":"Tepic","setelement":"Lomas del Valle"},{"postalCode":"63066","state":"Nayarit","municipality":"Tepic","setelement":"Lomas del Valle Ampliación"},{"postalCode":"63066","state":"Nayarit","municipality":"Tepic","setelement":"Florencia"},{"postalCode":"63067","state":"Nayarit","municipality":"Tepic","setelement":"Las Flores"},{"postalCode":"63068","state":"Nayarit","municipality":"Tepic","setelement":"Luis Echeverría A."},{"postalCode":"63068","state":"Nayarit","municipality":"Tepic","setelement":"América Manríquez"},{"postalCode":"63069","state":"Nayarit","municipality":"Tepic","setelement":"Primero de Mayo"},{"postalCode":"63069","state":"Nayarit","municipality":"Tepic","setelement":"Unidad Obrera"},{"postalCode":"63069","state":"Nayarit","municipality":"Tepic","setelement":"Ampliación Unidad Obrera"},{"postalCode":"63070","state":"Nayarit","municipality":"Tepic","setelement":"Emiliano Zapata"},{"postalCode":"63070","state":"Nayarit","municipality":"Tepic","setelement":"La Huerta"},{"postalCode":"63080","state":"Nayarit","municipality":"Tepic","setelement":"Heriberto Casas"},{"postalCode":"63081","state":"Nayarit","municipality":"Tepic","setelement":"Acayapan"},{"postalCode":"63082","state":"Nayarit","municipality":"Tepic","setelement":"El Faisán"},{"postalCode":"63082","state":"Nayarit","municipality":"Tepic","setelement":"El Naranjal"},{"postalCode":"63083","state":"Nayarit","municipality":"Tepic","setelement":"Ruinas de Jauja"},{"postalCode":"63083","state":"Nayarit","municipality":"Tepic","setelement":"Ampliación Santa Teresita"},{"postalCode":"63084","state":"Nayarit","municipality":"Tepic","setelement":"Ingeniero Aguayo"},{"postalCode":"63084","state":"Nayarit","municipality":"Tepic","setelement":"Los Pinos"},{"postalCode":"63088","state":"Nayarit","municipality":"Tepic","setelement":"Santa Fe"},{"postalCode":"63089","state":"Nayarit","municipality":"Tepic","setelement":"Santa Cecilia"},{"postalCode":"63100","state":"Nayarit","municipality":"Tepic","setelement":"20 de Noviembre"},{"postalCode":"63109","state":"Nayarit","municipality":"Tepic","setelement":"Estadios"},{"postalCode":"63110","state":"Nayarit","municipality":"Tepic","setelement":"Lindavista"},{"postalCode":"63110","state":"Nayarit","municipality":"Tepic","setelement":"Rodeo de La Punta"},{"postalCode":"63114","state":"Nayarit","municipality":"Tepic","setelement":"Nuevas Delicias"},{"postalCode":"63114","state":"Nayarit","municipality":"Tepic","setelement":"Solidaridad INFONAVIT"},{"postalCode":"63114","state":"Nayarit","municipality":"Tepic","setelement":"Colinas del Nayar"},{"postalCode":"63114","state":"Nayarit","municipality":"Tepic","setelement":"Guadalupe"},{"postalCode":"63114","state":"Nayarit","municipality":"Tepic","setelement":"Solidaridad Primavera"},{"postalCode":"63114","state":"Nayarit","municipality":"Tepic","setelement":"Aztlán Solidaridad"},{"postalCode":"63114","state":"Nayarit","municipality":"Tepic","setelement":"Ecologistas"},{"postalCode":"63114","state":"Nayarit","municipality":"Tepic","setelement":"Dieciséis de Septiembre"},{"postalCode":"63114","state":"Nayarit","municipality":"Tepic","setelement":"Residencial los Olivos"},{"postalCode":"63115","state":"Nayarit","municipality":"Tepic","setelement":"SPAUAN"},{"postalCode":"63116","state":"Nayarit","municipality":"Tepic","setelement":"FOVISSSTE 2a Etapa"},{"postalCode":"63117","state":"Nayarit","municipality":"Tepic","setelement":"Brisas de San Juan"},{"postalCode":"63117","state":"Nayarit","municipality":"Tepic","setelement":"Las Brisas"},{"postalCode":"63117","state":"Nayarit","municipality":"Tepic","setelement":"Las Brisas FOVISSSTE"},{"postalCode":"63119","state":"Nayarit","municipality":"Tepic","setelement":"FOVISSSTE 1a Etapa"},{"postalCode":"63120","state":"Nayarit","municipality":"Tepic","setelement":"IMSS"},{"postalCode":"63120","state":"Nayarit","municipality":"Tepic","setelement":"Obrera CTM"},{"postalCode":"63120","state":"Nayarit","municipality":"Tepic","setelement":"Villa San Ángel"},{"postalCode":"63128","state":"Nayarit","municipality":"Tepic","setelement":"Lomas de San Juan"},{"postalCode":"63129","state":"Nayarit","municipality":"Tepic","setelement":"Arboledas"},{"postalCode":"63129","state":"Nayarit","municipality":"Tepic","setelement":"Aves del Paraíso"},{"postalCode":"63129","state":"Nayarit","municipality":"Tepic","setelement":"Jagüey"},{"postalCode":"63129","state":"Nayarit","municipality":"Tepic","setelement":"Cora"},{"postalCode":"63129","state":"Nayarit","municipality":"Tepic","setelement":"Rey Nayar"},{"postalCode":"63129","state":"Nayarit","municipality":"Tepic","setelement":"Tío Baltazar"},{"postalCode":"63129","state":"Nayarit","municipality":"Tepic","setelement":"Leonardo Rodríguez Alcaine"},{"postalCode":"63129","state":"Nayarit","municipality":"Tepic","setelement":"Villas de San Juan"},{"postalCode":"63130","state":"Nayarit","municipality":"Tepic","setelement":"San Juan"},{"postalCode":"63135","state":"Nayarit","municipality":"Tepic","setelement":"El Tecolote"},{"postalCode":"63135","state":"Nayarit","municipality":"Tepic","setelement":"El Tecolote INFONAVIT"},{"postalCode":"63136","state":"Nayarit","municipality":"Tepic","setelement":"Independencia"},{"postalCode":"63137","state":"Nayarit","municipality":"Tepic","setelement":"Residencial La Loma"},{"postalCode":"63138","state":"Nayarit","municipality":"Tepic","setelement":"Rincón de San Juan"},{"postalCode":"63138","state":"Nayarit","municipality":"Tepic","setelement":"Versalles Sur"},{"postalCode":"63139","state":"Nayarit","municipality":"Tepic","setelement":"Versalles Norte"},{"postalCode":"63150","state":"Nayarit","municipality":"Tepic","setelement":"Menchaca"},{"postalCode":"63155","state":"Nayarit","municipality":"Tepic","setelement":"Universidad Autónoma de Nayarit"},{"postalCode":"63156","state":"Nayarit","municipality":"Tepic","setelement":"Burócrata Federal"},{"postalCode":"63157","state":"Nayarit","municipality":"Tepic","setelement":"Ciudad del Valle"},{"postalCode":"63158","state":"Nayarit","municipality":"Tepic","setelement":"Caja de Agua"},{"postalCode":"63159","state":"Nayarit","municipality":"Tepic","setelement":"San Antonio"},{"postalCode":"63160","state":"Nayarit","municipality":"Tepic","setelement":"Electricistas"},{"postalCode":"63160","state":"Nayarit","municipality":"Tepic","setelement":"Morelos"},{"postalCode":"63163","state":"Nayarit","municipality":"Tepic","setelement":"Corralón"},{"postalCode":"63164","state":"Nayarit","municipality":"Tepic","setelement":"El Pedregal"},{"postalCode":"63164","state":"Nayarit","municipality":"Tepic","setelement":"Nueva Alemania"},{"postalCode":"63164","state":"Nayarit","municipality":"Tepic","setelement":"Pedregal de San Juan"},{"postalCode":"63165","state":"Nayarit","municipality":"Tepic","setelement":"Biosfera Residencial"},{"postalCode":"63166","state":"Nayarit","municipality":"Tepic","setelement":"Benito Juárez"},{"postalCode":"63166","state":"Nayarit","municipality":"Tepic","setelement":"Del Bosque"},{"postalCode":"63167","state":"Nayarit","municipality":"Tepic","setelement":"Peñita"},{"postalCode":"63167","state":"Nayarit","municipality":"Tepic","setelement":"Labores de Godínez"},{"postalCode":"63168","state":"Nayarit","municipality":"Tepic","setelement":"Jardines de La Cruz"},{"postalCode":"63169","state":"Nayarit","municipality":"Tepic","setelement":"Fray Junipero Serra"},{"postalCode":"63170","state":"Nayarit","municipality":"Tepic","setelement":"12 de Diciembre"},{"postalCode":"63170","state":"Nayarit","municipality":"Tepic","setelement":"Dr. Lucas Vallarta"},{"postalCode":"63170","state":"Nayarit","municipality":"Tepic","setelement":"Ferrocarrilero 2a Secc."},{"postalCode":"63170","state":"Nayarit","municipality":"Tepic","setelement":"Las Aves"},{"postalCode":"63170","state":"Nayarit","municipality":"Tepic","setelement":"Los Llanitos"},{"postalCode":"63170","state":"Nayarit","municipality":"Tepic","setelement":"Lagos  de Aztlán"},{"postalCode":"63170","state":"Nayarit","municipality":"Tepic","setelement":"México"},{"postalCode":"63170","state":"Nayarit","municipality":"Tepic","setelement":"Flamingos"},{"postalCode":"63170","state":"Nayarit","municipality":"Tepic","setelement":"Gobierno del Cambio I"},{"postalCode":"63172","state":"Nayarit","municipality":"Tepic","setelement":"Unidos por tu Tranquilidad"},{"postalCode":"63172","state":"Nayarit","municipality":"Tepic","setelement":"Los Álamos"},{"postalCode":"63172","state":"Nayarit","municipality":"Tepic","setelement":"3 de Julio"},{"postalCode":"63172","state":"Nayarit","municipality":"Tepic","setelement":"Nuevo Amanecer"},{"postalCode":"63172","state":"Nayarit","municipality":"Tepic","setelement":"Aurora"},{"postalCode":"63173","state":"Nayarit","municipality":"Tepic","setelement":"Puerta Encanto"},{"postalCode":"63173","state":"Nayarit","municipality":"Tepic","setelement":"Ciudad Industrial"},{"postalCode":"63173","state":"Nayarit","municipality":"Tepic","setelement":"Ciudad Industrial Microindustria"},{"postalCode":"63173","state":"Nayarit","municipality":"Tepic","setelement":"Jazmines"},{"postalCode":"63173","state":"Nayarit","municipality":"Tepic","setelement":"Jesús García"},{"postalCode":"63173","state":"Nayarit","municipality":"Tepic","setelement":"Nayarabastos"},{"postalCode":"63173","state":"Nayarit","municipality":"Tepic","setelement":"Parque Ecológico"},{"postalCode":"63173","state":"Nayarit","municipality":"Tepic","setelement":"Puerta Jardín"},{"postalCode":"63173","state":"Nayarit","municipality":"Tepic","setelement":"Villas del Prado"},{"postalCode":"63173","state":"Nayarit","municipality":"Tepic","setelement":"Colinas del Valle"},{"postalCode":"63173","state":"Nayarit","municipality":"Tepic","setelement":"Porta Alta"},{"postalCode":"63173","state":"Nayarit","municipality":"Tepic","setelement":"Puerta Paraíso"},{"postalCode":"63173","state":"Nayarit","municipality":"Tepic","setelement":"Lomas del Encanto"},{"postalCode":"63173","state":"Nayarit","municipality":"Tepic","setelement":"Antonio Echevarría Domínguez"},{"postalCode":"63173","state":"Nayarit","municipality":"Tepic","setelement":"Responsabilidad Social Comunitaria"},{"postalCode":"63173","state":"Nayarit","municipality":"Tepic","setelement":"Villas Aramara"},{"postalCode":"63173","state":"Nayarit","municipality":"Tepic","setelement":"Real de Lozada"},{"postalCode":"63173","state":"Nayarit","municipality":"Tepic","setelement":"El Rubí"},{"postalCode":"63173","state":"Nayarit","municipality":"Tepic","setelement":"Cantera del Nayar"},{"postalCode":"63173","state":"Nayarit","municipality":"Tepic","setelement":"Justino Ávila Arce"},{"postalCode":"63173","state":"Nayarit","municipality":"Tepic","setelement":"Villas del Parque"},{"postalCode":"63173","state":"Nayarit","municipality":"Tepic","setelement":"Jardines del Parque"},{"postalCode":"63173","state":"Nayarit","municipality":"Tepic","setelement":"Villas de La Cantera"},{"postalCode":"63173","state":"Nayarit","municipality":"Tepic","setelement":"Aramara"},{"postalCode":"63173","state":"Nayarit","municipality":"Tepic","setelement":"Revolución"},{"postalCode":"63173","state":"Nayarit","municipality":"Tepic","setelement":"Ejidal"},{"postalCode":"63173","state":"Nayarit","municipality":"Tepic","setelement":"La Floresta"},{"postalCode":"63173","state":"Nayarit","municipality":"Tepic","setelement":"Molinos del Rey"},{"postalCode":"63173","state":"Nayarit","municipality":"Tepic","setelement":"Vistas de La Cantera"},{"postalCode":"63173","state":"Nayarit","municipality":"Tepic","setelement":"Olimpo"},{"postalCode":"63173","state":"Nayarit","municipality":"Tepic","setelement":"Villas del Molino"},{"postalCode":"63173","state":"Nayarit","municipality":"Tepic","setelement":"Villas del Roble"},{"postalCode":"63173","state":"Nayarit","municipality":"Tepic","setelement":"Del Sol"},{"postalCode":"63173","state":"Nayarit","municipality":"Tepic","setelement":"Puesta del Sol"},{"postalCode":"63174","state":"Nayarit","municipality":"Tepic","setelement":"Prieto Crispín"},{"postalCode":"63174","state":"Nayarit","municipality":"Tepic","setelement":"4 Milpas"},{"postalCode":"63174","state":"Nayarit","municipality":"Tepic","setelement":"Flores Magón"},{"postalCode":"63174","state":"Nayarit","municipality":"Tepic","setelement":"Genaro Vázquez"},{"postalCode":"63174","state":"Nayarit","municipality":"Tepic","setelement":"La Esperanza"},{"postalCode":"63174","state":"Nayarit","municipality":"Tepic","setelement":"Venceremos"},{"postalCode":"63174","state":"Nayarit","municipality":"Tepic","setelement":"Zitacua"},{"postalCode":"63174","state":"Nayarit","municipality":"Tepic","setelement":"Las Fincas"},{"postalCode":"63175","state":"Nayarit","municipality":"Tepic","setelement":"Benito Juárez Oriente"},{"postalCode":"63175","state":"Nayarit","municipality":"Tepic","setelement":"Comerciantes"},{"postalCode":"63175","state":"Nayarit","municipality":"Tepic","setelement":"Dr. Cuesta Barrios"},{"postalCode":"63175","state":"Nayarit","municipality":"Tepic","setelement":"2 de Agosto"},{"postalCode":"63175","state":"Nayarit","municipality":"Tepic","setelement":"Gobernadores"},{"postalCode":"63175","state":"Nayarit","municipality":"Tepic","setelement":"Instituto Tecnológico de Tepic"},{"postalCode":"63175","state":"Nayarit","municipality":"Tepic","setelement":"Lagos del Country"},{"postalCode":"63175","state":"Nayarit","municipality":"Tepic","setelement":"Oriental"},{"postalCode":"63175","state":"Nayarit","municipality":"Tepic","setelement":"Valle del Country"},{"postalCode":"63175","state":"Nayarit","municipality":"Tepic","setelement":"Luis Donaldo Colosio Murrieta"},{"postalCode":"63176","state":"Nayarit","municipality":"Tepic","setelement":"Cáp. Orozco"},{"postalCode":"63176","state":"Nayarit","municipality":"Tepic","setelement":"Colonial"},{"postalCode":"63176","state":"Nayarit","municipality":"Tepic","setelement":"Gustavo Díaz Ordaz"},{"postalCode":"63177","state":"Nayarit","municipality":"Tepic","setelement":"Juventud"},{"postalCode":"63177","state":"Nayarit","municipality":"Tepic","setelement":"18 de Agosto"},{"postalCode":"63177","state":"Nayarit","municipality":"Tepic","setelement":"El Capomo"},{"postalCode":"63177","state":"Nayarit","municipality":"Tepic","setelement":"Ferrocarrilero 1a Secc."},{"postalCode":"63177","state":"Nayarit","municipality":"Tepic","setelement":"Heriberto Jara"},{"postalCode":"63177","state":"Nayarit","municipality":"Tepic","setelement":"Simancas"},{"postalCode":"63177","state":"Nayarit","municipality":"Tepic","setelement":"Universitario (AGEUAN)"},{"postalCode":"63177","state":"Nayarit","municipality":"Tepic","setelement":"Los Manantiales"},{"postalCode":"63177","state":"Nayarit","municipality":"Tepic","setelement":"Ampliación Tierra y Libertad"},{"postalCode":"63177","state":"Nayarit","municipality":"Tepic","setelement":"Los Colomos"},{"postalCode":"63177","state":"Nayarit","municipality":"Tepic","setelement":"Lirios"},{"postalCode":"63177","state":"Nayarit","municipality":"Tepic","setelement":"Villas del Nayar"},{"postalCode":"63177","state":"Nayarit","municipality":"Tepic","setelement":"Villa las Rosas"},{"postalCode":"63178","state":"Nayarit","municipality":"Tepic","setelement":"Luis Donaldo Colosio"},{"postalCode":"63178","state":"Nayarit","municipality":"Tepic","setelement":"Tierra y Libertad"},{"postalCode":"63179","state":"Nayarit","municipality":"Tepic","setelement":"Gilberto Flores Muñoz"},{"postalCode":"63180","state":"Nayarit","municipality":"Tepic","setelement":"Burócrata Estatal"},{"postalCode":"63180","state":"Nayarit","municipality":"Tepic","setelement":"Colinas del Rey"},{"postalCode":"63180","state":"Nayarit","municipality":"Tepic","setelement":"Cuauhtémoc"},{"postalCode":"63180","state":"Nayarit","municipality":"Tepic","setelement":"Moctezuma"},{"postalCode":"63180","state":"Nayarit","municipality":"Tepic","setelement":"Valle Dorado"},{"postalCode":"63180","state":"Nayarit","municipality":"Tepic","setelement":"Valle de Nayarit"},{"postalCode":"63180","state":"Nayarit","municipality":"Tepic","setelement":"Bethel"},{"postalCode":"63183","state":"Nayarit","municipality":"Tepic","setelement":"Insurgentes"},{"postalCode":"63184","state":"Nayarit","municipality":"Tepic","setelement":"Gardenias"},{"postalCode":"63184","state":"Nayarit","municipality":"Tepic","setelement":"Miravalles"},{"postalCode":"63185","state":"Nayarit","municipality":"Tepic","setelement":"El 8"},{"postalCode":"63185","state":"Nayarit","municipality":"Tepic","setelement":"Félix Peña"},{"postalCode":"63185","state":"Nayarit","municipality":"Tepic","setelement":"Los Fresnos Poniente"},{"postalCode":"63186","state":"Nayarit","municipality":"Tepic","setelement":"IMSS"},{"postalCode":"63186","state":"Nayarit","municipality":"Tepic","setelement":"Leyva Medina"},{"postalCode":"63186","state":"Nayarit","municipality":"Tepic","setelement":"Predio San Martín"},{"postalCode":"63190","state":"Nayarit","municipality":"Tepic","setelement":"Aviación"},{"postalCode":"63190","state":"Nayarit","municipality":"Tepic","setelement":"Juan Escutia"},{"postalCode":"63190","state":"Nayarit","municipality":"Tepic","setelement":"Lázaro Cárdenas"},{"postalCode":"63190","state":"Nayarit","municipality":"Tepic","setelement":"Los Fresnos Oriente"},{"postalCode":"63190","state":"Nayarit","municipality":"Tepic","setelement":"15 de Mayo"},{"postalCode":"63193","state":"Nayarit","municipality":"Tepic","setelement":"Miguel Hidalgo"},{"postalCode":"63194","state":"Nayarit","municipality":"Tepic","setelement":"El Puerto"},{"postalCode":"63194","state":"Nayarit","municipality":"Tepic","setelement":"Ladrilleras"},{"postalCode":"63194","state":"Nayarit","municipality":"Tepic","setelement":"Nuevas Palomas"},{"postalCode":"63194","state":"Nayarit","municipality":"Tepic","setelement":"Puente de San Cayetano"},{"postalCode":"63194","state":"Nayarit","municipality":"Tepic","setelement":"Valle Magno"},{"postalCode":"63194","state":"Nayarit","municipality":"Tepic","setelement":"El Armadillo"},{"postalCode":"63194","state":"Nayarit","municipality":"Tepic","setelement":"Bonaterra"},{"postalCode":"63195","state":"Nayarit","municipality":"Tepic","setelement":"Conasupo"},{"postalCode":"63195","state":"Nayarit","municipality":"Tepic","setelement":"Extamex"},{"postalCode":"63195","state":"Nayarit","municipality":"Tepic","setelement":"Marco Antonio Fernández"},{"postalCode":"63195","state":"Nayarit","municipality":"Tepic","setelement":"Los Sauces INFONAVIT"},{"postalCode":"63195","state":"Nayarit","municipality":"Tepic","setelement":"Valle de Matatipac"},{"postalCode":"63195","state":"Nayarit","municipality":"Tepic","setelement":"Los Ciruelos"},{"postalCode":"63195","state":"Nayarit","municipality":"Tepic","setelement":"Jacarandas"},{"postalCode":"63195","state":"Nayarit","municipality":"Tepic","setelement":"Severiano Ocegueda"},{"postalCode":"63195","state":"Nayarit","municipality":"Tepic","setelement":"Las Islas"},{"postalCode":"63195","state":"Nayarit","municipality":"Tepic","setelement":"Paseo del Valle Real"},{"postalCode":"63195","state":"Nayarit","municipality":"Tepic","setelement":"Las Palomas"},{"postalCode":"63195","state":"Nayarit","municipality":"Tepic","setelement":"La Joya"},{"postalCode":"63196","state":"Nayarit","municipality":"Tepic","setelement":"Caminera"},{"postalCode":"63196","state":"Nayarit","municipality":"Tepic","setelement":"Castilla"},{"postalCode":"63196","state":"Nayarit","municipality":"Tepic","setelement":"Nueva Aviación"},{"postalCode":"63196","state":"Nayarit","municipality":"Tepic","setelement":"Periodistas"},{"postalCode":"63196","state":"Nayarit","municipality":"Tepic","setelement":"26 de Septiembre"},{"postalCode":"63197","state":"Nayarit","municipality":"Tepic","setelement":"5 de Febrero"},{"postalCode":"63197","state":"Nayarit","municipality":"Tepic","setelement":"Hermosa Provincia"},{"postalCode":"63197","state":"Nayarit","municipality":"Tepic","setelement":"Los Fresnos INFONAVIT"},{"postalCode":"63197","state":"Nayarit","municipality":"Tepic","setelement":"Los Sauces"},{"postalCode":"63197","state":"Nayarit","municipality":"Tepic","setelement":"Tabacos Aztecas"},{"postalCode":"63197","state":"Nayarit","municipality":"Tepic","setelement":"Unión Popular"},{"postalCode":"63197","state":"Nayarit","municipality":"Tepic","setelement":"Plan de Ayala"},{"postalCode":"63197","state":"Nayarit","municipality":"Tepic","setelement":"Niños Héroes"},{"postalCode":"63197","state":"Nayarit","municipality":"Tepic","setelement":"Los Fresnos"},{"postalCode":"63198","state":"Nayarit","municipality":"Tepic","setelement":"Villas de La Paz"},{"postalCode":"63199","state":"Nayarit","municipality":"Tepic","setelement":"José María Martínez (El Molino)"},{"postalCode":"63200","state":"Nayarit","municipality":"Tuxpan","setelement":"Tuxpan Centro"},{"postalCode":"63202","state":"Nayarit","municipality":"Tuxpan","setelement":"Morelos"},{"postalCode":"63202","state":"Nayarit","municipality":"Tuxpan","setelement":"Deportiva"},{"postalCode":"63202","state":"Nayarit","municipality":"Tuxpan","setelement":"Talpita"},{"postalCode":"63202","state":"Nayarit","municipality":"Tuxpan","setelement":"Antonio R. Laureles"},{"postalCode":"63202","state":"Nayarit","municipality":"Tuxpan","setelement":"El Beis"},{"postalCode":"63203","state":"Nayarit","municipality":"Tuxpan","setelement":"Aviación"},{"postalCode":"63203","state":"Nayarit","municipality":"Tuxpan","setelement":"Emiliano Zapata"},{"postalCode":"63203","state":"Nayarit","municipality":"Tuxpan","setelement":"Independencia"},{"postalCode":"63203","state":"Nayarit","municipality":"Tuxpan","setelement":"Francisco Villa"},{"postalCode":"63205","state":"Nayarit","municipality":"Tuxpan","setelement":"Guadalupe Peña"},{"postalCode":"63205","state":"Nayarit","municipality":"Tuxpan","setelement":"Colosio"},{"postalCode":"63205","state":"Nayarit","municipality":"Tuxpan","setelement":"Magisterial"},{"postalCode":"63205","state":"Nayarit","municipality":"Tuxpan","setelement":"Juan Escutia"},{"postalCode":"63205","state":"Nayarit","municipality":"Tuxpan","setelement":"Ricardo Flores Magón"},{"postalCode":"63207","state":"Nayarit","municipality":"Tuxpan","setelement":"Ángel Flores"},{"postalCode":"63207","state":"Nayarit","municipality":"Tuxpan","setelement":"Pueblo Nuevo"},{"postalCode":"63207","state":"Nayarit","municipality":"Tuxpan","setelement":"Ismael Verdín"},{"postalCode":"63225","state":"Nayarit","municipality":"Tuxpan","setelement":"Benito Juárez"},{"postalCode":"63227","state":"Nayarit","municipality":"Tuxpan","setelement":"Cantarranas"},{"postalCode":"63300","state":"Nayarit","municipality":"Santiago Ixcuintla","setelement":"Cerro Chico"},{"postalCode":"63300","state":"Nayarit","municipality":"Santiago Ixcuintla","setelement":"Santiago Ixcuintla Centro"},{"postalCode":"63300","state":"Nayarit","municipality":"Santiago Ixcuintla","setelement":"Los Limos"},{"postalCode":"63310","state":"Nayarit","municipality":"Santiago Ixcuintla","setelement":"Amado Nervo"},{"postalCode":"63311","state":"Nayarit","municipality":"Santiago Ixcuintla","setelement":"El Mirador"},{"postalCode":"63311","state":"Nayarit","municipality":"Santiago Ixcuintla","setelement":"Ramón López Velarde"},{"postalCode":"63311","state":"Nayarit","municipality":"Santiago Ixcuintla","setelement":"Magisterial"},{"postalCode":"63311","state":"Nayarit","municipality":"Santiago Ixcuintla","setelement":"Universidad"},{"postalCode":"63311","state":"Nayarit","municipality":"Santiago Ixcuintla","setelement":"INFONAVIT"},{"postalCode":"63312","state":"Nayarit","municipality":"Santiago Ixcuintla","setelement":"Independencia"},{"postalCode":"63313","state":"Nayarit","municipality":"Santiago Ixcuintla","setelement":"CTM"},{"postalCode":"63320","state":"Nayarit","municipality":"Santiago Ixcuintla","setelement":"Obrera"},{"postalCode":"63321","state":"Nayarit","municipality":"Santiago Ixcuintla","setelement":"Flores Magón"},{"postalCode":"63330","state":"Nayarit","municipality":"Santiago Ixcuintla","setelement":"Cuauhtémoc"},{"postalCode":"63330","state":"Nayarit","municipality":"Santiago Ixcuintla","setelement":"Los Hornos"},{"postalCode":"63330","state":"Nayarit","municipality":"Santiago Ixcuintla","setelement":"19 de Septiembre"},{"postalCode":"63340","state":"Nayarit","municipality":"Santiago Ixcuintla","setelement":"La Quinta"},{"postalCode":"63340","state":"Nayarit","municipality":"Santiago Ixcuintla","setelement":"Nuevo México"},{"postalCode":"63341","state":"Nayarit","municipality":"Santiago Ixcuintla","setelement":"Las Flores"},{"postalCode":"63341","state":"Nayarit","municipality":"Santiago Ixcuintla","setelement":"Primero de Enero"},{"postalCode":"63350","state":"Nayarit","municipality":"Santiago Ixcuintla","setelement":"Juárez"},{"postalCode":"63351","state":"Nayarit","municipality":"Santiago Ixcuintla","setelement":"12 de Octubre"},{"postalCode":"63352","state":"Nayarit","municipality":"Santiago Ixcuintla","setelement":"Luís Donaldo Colosio"},{"postalCode":"63352","state":"Nayarit","municipality":"Santiago Ixcuintla","setelement":"Villas de Ixcuintla"},{"postalCode":"63352","state":"Nayarit","municipality":"Santiago Ixcuintla","setelement":"Los Pinos"},{"postalCode":"63360","state":"Nayarit","municipality":"Santiago Ixcuintla","setelement":"Cerro Grande"},{"postalCode":"63380","state":"Nayarit","municipality":"Santiago Ixcuintla","setelement":"Campo 7"},{"postalCode":"63380","state":"Nayarit","municipality":"Santiago Ixcuintla","setelement":"La Cruz"},{"postalCode":"63380","state":"Nayarit","municipality":"Santiago Ixcuintla","setelement":"Yago Estación"},{"postalCode":"63383","state":"Nayarit","municipality":"Santiago Ixcuintla","setelement":"Pantano Grande"},{"postalCode":"63384","state":"Nayarit","municipality":"Santiago Ixcuintla","setelement":"Caramota"},{"postalCode":"63384","state":"Nayarit","municipality":"Santiago Ixcuintla","setelement":"Acaponetilla"},{"postalCode":"63384","state":"Nayarit","municipality":"Santiago Ixcuintla","setelement":"Corral de Piedra"},{"postalCode":"63384","state":"Nayarit","municipality":"Santiago Ixcuintla","setelement":"Emerita"},{"postalCode":"63384","state":"Nayarit","municipality":"Santiago Ixcuintla","setelement":"Las Parejas"},{"postalCode":"63384","state":"Nayarit","municipality":"Santiago Ixcuintla","setelement":"Redención"},{"postalCode":"63385","state":"Nayarit","municipality":"Santiago Ixcuintla","setelement":"El Manguito"},{"postalCode":"63385","state":"Nayarit","municipality":"Santiago Ixcuintla","setelement":"Las Higueras"},{"postalCode":"63385","state":"Nayarit","municipality":"Santiago Ixcuintla","setelement":"Acatán de las Piñas"},{"postalCode":"63385","state":"Nayarit","municipality":"Santiago Ixcuintla","setelement":"El Cantón de Lozada"},{"postalCode":"63385","state":"Nayarit","municipality":"Santiago Ixcuintla","setelement":"Hacienda Vieja"},{"postalCode":"63385","state":"Nayarit","municipality":"Santiago Ixcuintla","setelement":"Paso Real de Cahuipa"},{"postalCode":"63386","state":"Nayarit","municipality":"Santiago Ixcuintla","setelement":"El Colomo"},{"postalCode":"63400","state":"Nayarit","municipality":"Acaponeta","setelement":"San José de Gracia"},{"postalCode":"63403","state":"Nayarit","municipality":"Acaponeta","setelement":"Las Mesitas"},{"postalCode":"63403","state":"Nayarit","municipality":"Acaponeta","setelement":"El Naranjo"},{"postalCode":"63403","state":"Nayarit","municipality":"Acaponeta","setelement":"La Morita (Anamorita)"},{"postalCode":"63403","state":"Nayarit","municipality":"Acaponeta","setelement":"Las Higueras"},{"postalCode":"63403","state":"Nayarit","municipality":"Acaponeta","setelement":"El Vigal"},{"postalCode":"63403","state":"Nayarit","municipality":"Acaponeta","setelement":"La Lagunita"},{"postalCode":"63404","state":"Nayarit","municipality":"Acaponeta","setelement":"Mesa las Arpas"},{"postalCode":"63405","state":"Nayarit","municipality":"Acaponeta","setelement":"San Dieguito de Abajo"},{"postalCode":"63405","state":"Nayarit","municipality":"Acaponeta","setelement":"San Dieguito de Arriba"},{"postalCode":"63406","state":"Nayarit","municipality":"Acaponeta","setelement":"El Carrizo"},{"postalCode":"63406","state":"Nayarit","municipality":"Acaponeta","setelement":"Los Morillo"},{"postalCode":"63407","state":"Nayarit","municipality":"Acaponeta","setelement":"Mesa de la Laguna"},{"postalCode":"63407","state":"Nayarit","municipality":"Acaponeta","setelement":"El Duraznito"},{"postalCode":"63407","state":"Nayarit","municipality":"Acaponeta","setelement":"Santa Cruz"},{"postalCode":"63408","state":"Nayarit","municipality":"Acaponeta","setelement":"El Oro"},{"postalCode":"63408","state":"Nayarit","municipality":"Acaponeta","setelement":"San Diego de Alcalá"},{"postalCode":"63409","state":"Nayarit","municipality":"Acaponeta","setelement":"El Carrizal"},{"postalCode":"63409","state":"Nayarit","municipality":"Acaponeta","setelement":"Cañones"},{"postalCode":"63409","state":"Nayarit","municipality":"Acaponeta","setelement":"La Colonia (La Guacamaya)"},{"postalCode":"63410","state":"Nayarit","municipality":"Acaponeta","setelement":"La Higuerita Nueva (El Carrizo)"},{"postalCode":"63410","state":"Nayarit","municipality":"Acaponeta","setelement":"El Tigre"},{"postalCode":"63410","state":"Nayarit","municipality":"Acaponeta","setelement":"El Aguaje"},{"postalCode":"63410","state":"Nayarit","municipality":"Acaponeta","setelement":"La Bayona"},{"postalCode":"63412","state":"Nayarit","municipality":"Acaponeta","setelement":"La Haciendilla"},{"postalCode":"63412","state":"Nayarit","municipality":"Acaponeta","setelement":"El Guayabo"},{"postalCode":"63412","state":"Nayarit","municipality":"Acaponeta","setelement":"El Tacote"},{"postalCode":"63412","state":"Nayarit","municipality":"Acaponeta","setelement":"Cerro Bola"},{"postalCode":"63413","state":"Nayarit","municipality":"Acaponeta","setelement":"El Centenario"},{"postalCode":"63413","state":"Nayarit","municipality":"Acaponeta","setelement":"La Palma"},{"postalCode":"63413","state":"Nayarit","municipality":"Acaponeta","setelement":"Hacienda Vieja"},{"postalCode":"63413","state":"Nayarit","municipality":"Acaponeta","setelement":"Llano de Mariquitas"},{"postalCode":"63413","state":"Nayarit","municipality":"Acaponeta","setelement":"Ochenta y Seis Batallón"},{"postalCode":"63413","state":"Nayarit","municipality":"Acaponeta","setelement":"El Recodo"},{"postalCode":"63413","state":"Nayarit","municipality":"Acaponeta","setelement":"Las Casitas"},{"postalCode":"63413","state":"Nayarit","municipality":"Acaponeta","setelement":"Hacienda de Mariquitas"},{"postalCode":"63414","state":"Nayarit","municipality":"Acaponeta","setelement":"Las Palmitas"},{"postalCode":"63414","state":"Nayarit","municipality":"Acaponeta","setelement":"Hojas Anchas"},{"postalCode":"63414","state":"Nayarit","municipality":"Acaponeta","setelement":"Crucero de Acaponeta"},{"postalCode":"63415","state":"Nayarit","municipality":"Acaponeta","setelement":"Chalpa"},{"postalCode":"63415","state":"Nayarit","municipality":"Acaponeta","setelement":"Valle de la Urraca (El Cabildo)"},{"postalCode":"63416","state":"Nayarit","municipality":"Acaponeta","setelement":"El Tejón (El Cantón)"},{"postalCode":"63420","state":"Nayarit","municipality":"Acaponeta","setelement":"La Cortez (El Zapote)"},{"postalCode":"63420","state":"Nayarit","municipality":"Acaponeta","setelement":"Casas Coloradas"},{"postalCode":"63420","state":"Nayarit","municipality":"Acaponeta","setelement":"Piedra Ancha"},{"postalCode":"63420","state":"Nayarit","municipality":"Acaponeta","setelement":"Sayulilla"},{"postalCode":"63420","state":"Nayarit","municipality":"Acaponeta","setelement":"Llano de la Cruz"},{"postalCode":"63421","state":"Nayarit","municipality":"Acaponeta","setelement":"El Alacrán"},{"postalCode":"63421","state":"Nayarit","municipality":"Acaponeta","setelement":"Las Bugambilias"},{"postalCode":"63421","state":"Nayarit","municipality":"Acaponeta","setelement":"La Higuerita Vieja"},{"postalCode":"63421","state":"Nayarit","municipality":"Acaponeta","setelement":"Buenavista (Las Paredes)"},{"postalCode":"63421","state":"Nayarit","municipality":"Acaponeta","setelement":"Los Sandovales"},{"postalCode":"63423","state":"Nayarit","municipality":"Acaponeta","setelement":"Saycota"},{"postalCode":"63424","state":"Nayarit","municipality":"Acaponeta","setelement":"San Blasito"},{"postalCode":"63424","state":"Nayarit","municipality":"Acaponeta","setelement":"El Zapote"},{"postalCode":"63425","state":"Nayarit","municipality":"Acaponeta","setelement":"El Llorón"},{"postalCode":"63425","state":"Nayarit","municipality":"Acaponeta","setelement":"Arroyo de San Francisco"},{"postalCode":"63425","state":"Nayarit","municipality":"Acaponeta","setelement":"Amado Nervo"},{"postalCode":"63425","state":"Nayarit","municipality":"Acaponeta","setelement":"La Guásima"},{"postalCode":"63426","state":"Nayarit","municipality":"Acaponeta","setelement":"Mesa de Pedro Pablo"},{"postalCode":"63426","state":"Nayarit","municipality":"Acaponeta","setelement":"San Pedro de Honor"},{"postalCode":"63427","state":"Nayarit","municipality":"Acaponeta","setelement":"La Paloma Primera"},{"postalCode":"63427","state":"Nayarit","municipality":"Acaponeta","setelement":"San Miguel"},{"postalCode":"63427","state":"Nayarit","municipality":"Acaponeta","setelement":"La Paloma Nueva Reforma"},{"postalCode":"63429","state":"Nayarit","municipality":"Acaponeta","setelement":"San José de Motaje"},{"postalCode":"63429","state":"Nayarit","municipality":"Acaponeta","setelement":"El Resbalón"},{"postalCode":"63429","state":"Nayarit","municipality":"Acaponeta","setelement":"Zavala"},{"postalCode":"63430","state":"Nayarit","municipality":"Acaponeta","setelement":"Acaponeta Centro"},{"postalCode":"63434","state":"Nayarit","municipality":"Acaponeta","setelement":"El Camichin"},{"postalCode":"63434","state":"Nayarit","municipality":"Acaponeta","setelement":"Jardín"},{"postalCode":"63434","state":"Nayarit","municipality":"Acaponeta","setelement":"Antonio Chumacero"},{"postalCode":"63434","state":"Nayarit","municipality":"Acaponeta","setelement":"INFONAVIT"},{"postalCode":"63435","state":"Nayarit","municipality":"Acaponeta","setelement":"Vicente Lombardo Toledano"},{"postalCode":"63435","state":"Nayarit","municipality":"Acaponeta","setelement":"INVINAY Porfirio Vázquez Cosío"},{"postalCode":"63435","state":"Nayarit","municipality":"Acaponeta","setelement":"Independencia"},{"postalCode":"63435","state":"Nayarit","municipality":"Acaponeta","setelement":"El Molino"},{"postalCode":"63435","state":"Nayarit","municipality":"Acaponeta","setelement":"Nueva Galaxia"},{"postalCode":"63436","state":"Nayarit","municipality":"Acaponeta","setelement":"Las Colonias"},{"postalCode":"63436","state":"Nayarit","municipality":"Acaponeta","setelement":"Del Carmen"},{"postalCode":"63436","state":"Nayarit","municipality":"Acaponeta","setelement":"Estadio"},{"postalCode":"63436","state":"Nayarit","municipality":"Acaponeta","setelement":"Mazatlancito"},{"postalCode":"63436","state":"Nayarit","municipality":"Acaponeta","setelement":"La Capilla"},{"postalCode":"63437","state":"Nayarit","municipality":"Acaponeta","setelement":"Loma Atravesada"},{"postalCode":"63437","state":"Nayarit","municipality":"Acaponeta","setelement":"Loma Bonita"},{"postalCode":"63437","state":"Nayarit","municipality":"Acaponeta","setelement":"Lázaro Cárdenas"},{"postalCode":"63437","state":"Nayarit","municipality":"Acaponeta","setelement":"Las Mojoneras"},{"postalCode":"63437","state":"Nayarit","municipality":"Acaponeta","setelement":"Juan Escutia"},{"postalCode":"63438","state":"Nayarit","municipality":"Acaponeta","setelement":"Cerro de la Cruz"},{"postalCode":"63438","state":"Nayarit","municipality":"Acaponeta","setelement":"Cerro de la Glorieta"},{"postalCode":"63438","state":"Nayarit","municipality":"Acaponeta","setelement":"Obrera"},{"postalCode":"63440","state":"Nayarit","municipality":"Tecuala","setelement":"Guamuchilito"},{"postalCode":"63440","state":"Nayarit","municipality":"Tecuala","setelement":"El Arrayán"},{"postalCode":"63440","state":"Nayarit","municipality":"Tecuala","setelement":"Las Anonas"},{"postalCode":"63443","state":"Nayarit","municipality":"Tecuala","setelement":"Antonio R. Laureles"},{"postalCode":"63444","state":"Nayarit","municipality":"Tecuala","setelement":"Los Morillos"},{"postalCode":"63445","state":"Nayarit","municipality":"Tecuala","setelement":"El Limón"},{"postalCode":"63445","state":"Nayarit","municipality":"Tecuala","setelement":"Los Esteros"},{"postalCode":"63446","state":"Nayarit","municipality":"Tecuala","setelement":"El Pato"},{"postalCode":"63446","state":"Nayarit","municipality":"Tecuala","setelement":"El Pozole"},{"postalCode":"63446","state":"Nayarit","municipality":"Tecuala","setelement":"El Filo"},{"postalCode":"63446","state":"Nayarit","municipality":"Tecuala","setelement":"Milpas Viejas"},{"postalCode":"63446","state":"Nayarit","municipality":"Tecuala","setelement":"San Felipe Aztatán"},{"postalCode":"63447","state":"Nayarit","municipality":"Tecuala","setelement":"La Presa"},{"postalCode":"63449","state":"Nayarit","municipality":"Tecuala","setelement":"La Magdalena"},{"postalCode":"63449","state":"Nayarit","municipality":"Tecuala","setelement":"Las Lumbres"},{"postalCode":"63449","state":"Nayarit","municipality":"Tecuala","setelement":"Cuastecomate (Los Tecomates)"},{"postalCode":"63449","state":"Nayarit","municipality":"Tecuala","setelement":"Palo Blanco"},{"postalCode":"63450","state":"Nayarit","municipality":"Tecuala","setelement":"Mancillas"},{"postalCode":"63450","state":"Nayarit","municipality":"Tecuala","setelement":"Tecuala Centro"},{"postalCode":"63453","state":"Nayarit","municipality":"Tecuala","setelement":"Del Río"},{"postalCode":"63453","state":"Nayarit","municipality":"Tecuala","setelement":"El Tacote"},{"postalCode":"63453","state":"Nayarit","municipality":"Tecuala","setelement":"La Loma"},{"postalCode":"63453","state":"Nayarit","municipality":"Tecuala","setelement":"Las Brisas"},{"postalCode":"63453","state":"Nayarit","municipality":"Tecuala","setelement":"Libertad"},{"postalCode":"63454","state":"Nayarit","municipality":"Tecuala","setelement":"Juan Escutia"},{"postalCode":"63454","state":"Nayarit","municipality":"Tecuala","setelement":"Pueblo Nuevo"},{"postalCode":"63455","state":"Nayarit","municipality":"Tecuala","setelement":"Chino"},{"postalCode":"63455","state":"Nayarit","municipality":"Tecuala","setelement":"El Tinaco"},{"postalCode":"63455","state":"Nayarit","municipality":"Tecuala","setelement":"La Bomba"},{"postalCode":"63455","state":"Nayarit","municipality":"Tecuala","setelement":"Los Camichines"},{"postalCode":"63455","state":"Nayarit","municipality":"Tecuala","setelement":"Luis Donaldo Colosio"},{"postalCode":"63455","state":"Nayarit","municipality":"Tecuala","setelement":"Patria Nueva"},{"postalCode":"63455","state":"Nayarit","municipality":"Tecuala","setelement":"Vicente Guerrero"},{"postalCode":"63455","state":"Nayarit","municipality":"Tecuala","setelement":"Prolongación Galeana"},{"postalCode":"63455","state":"Nayarit","municipality":"Tecuala","setelement":"Amado Nervo"},{"postalCode":"63455","state":"Nayarit","municipality":"Tecuala","setelement":"CNOP PRI"},{"postalCode":"63455","state":"Nayarit","municipality":"Tecuala","setelement":"Revolución"},{"postalCode":"63456","state":"Nayarit","municipality":"Tecuala","setelement":"Camalotita"},{"postalCode":"63457","state":"Nayarit","municipality":"Tecuala","setelement":"Agua Verde (El Salto)"},{"postalCode":"63458","state":"Nayarit","municipality":"Tecuala","setelement":"Pajaritos"},{"postalCode":"63458","state":"Nayarit","municipality":"Tecuala","setelement":"Los Remos"},{"postalCode":"63458","state":"Nayarit","municipality":"Tecuala","setelement":"Huajuquilla"},{"postalCode":"63459","state":"Nayarit","municipality":"Tecuala","setelement":"Atotonilco"},{"postalCode":"63460","state":"Nayarit","municipality":"Tecuala","setelement":"Quimichis"},{"postalCode":"63463","state":"Nayarit","municipality":"Tecuala","setelement":"Paso Hondo"},{"postalCode":"63463","state":"Nayarit","municipality":"Tecuala","setelement":"Río Viejo"},{"postalCode":"63463","state":"Nayarit","municipality":"Tecuala","setelement":"Chocota"},{"postalCode":"63464","state":"Nayarit","municipality":"Tecuala","setelement":"Arenitas"},{"postalCode":"63464","state":"Nayarit","municipality":"Tecuala","setelement":"El Tecomate"},{"postalCode":"63464","state":"Nayarit","municipality":"Tecuala","setelement":"El Roblito"},{"postalCode":"63466","state":"Nayarit","municipality":"Tecuala","setelement":"La Puntilla"},{"postalCode":"63466","state":"Nayarit","municipality":"Tecuala","setelement":"Novillero"},{"postalCode":"63466","state":"Nayarit","municipality":"Tecuala","setelement":"San Cayetano"},{"postalCode":"63466","state":"Nayarit","municipality":"Tecuala","setelement":"Playa Novillero"},{"postalCode":"63470","state":"Nayarit","municipality":"Tecuala","setelement":"Tierra Generosa"},{"postalCode":"63480","state":"Nayarit","municipality":"Huajicori","setelement":"Huajicori"},{"postalCode":"63484","state":"Nayarit","municipality":"Huajicori","setelement":"Las Cebollitas"},{"postalCode":"63485","state":"Nayarit","municipality":"Huajicori","setelement":"El Tepehuaje"},{"postalCode":"63485","state":"Nayarit","municipality":"Huajicori","setelement":"Zapotillos"},{"postalCode":"63485","state":"Nayarit","municipality":"Huajicori","setelement":"Santa María de Picachos"},{"postalCode":"63486","state":"Nayarit","municipality":"Huajicori","setelement":"Agua Caliente"},{"postalCode":"63486","state":"Nayarit","municipality":"Huajicori","setelement":"Quiviquinta"},{"postalCode":"63487","state":"Nayarit","municipality":"Huajicori","setelement":"San Francisco del Caimán"},{"postalCode":"63489","state":"Nayarit","municipality":"Huajicori","setelement":"La Estancia"},{"postalCode":"63489","state":"Nayarit","municipality":"Huajicori","setelement":"Valle Morelos (Higuera Gacha)"},{"postalCode":"63489","state":"Nayarit","municipality":"Huajicori","setelement":"Potrerillos"},{"postalCode":"63494","state":"Nayarit","municipality":"Huajicori","setelement":"Mesa de los Ricos"},{"postalCode":"63494","state":"Nayarit","municipality":"Huajicori","setelement":"La Murallita"},{"postalCode":"63495","state":"Nayarit","municipality":"Huajicori","setelement":"El Colomo"},{"postalCode":"63495","state":"Nayarit","municipality":"Huajicori","setelement":"San Andrés Milpillas"},{"postalCode":"63496","state":"Nayarit","municipality":"Huajicori","setelement":"El Aserradero"},{"postalCode":"63496","state":"Nayarit","municipality":"Huajicori","setelement":"Llano Grande"},{"postalCode":"63497","state":"Nayarit","municipality":"Huajicori","setelement":"Acatita"},{"postalCode":"63497","state":"Nayarit","municipality":"Huajicori","setelement":"Mineral de Cucharas"},{"postalCode":"63497","state":"Nayarit","municipality":"Huajicori","setelement":"El Guamuchilito"},{"postalCode":"63498","state":"Nayarit","municipality":"Huajicori","setelement":"Tescomatita (Las Trojas)"},{"postalCode":"63499","state":"Nayarit","municipality":"Huajicori","setelement":"Contadero"},{"postalCode":"63499","state":"Nayarit","municipality":"Huajicori","setelement":"Guamuchilar"},{"postalCode":"63500","state":"Nayarit","municipality":"Tepic","setelement":"Hebrón"},{"postalCode":"63500","state":"Nayarit","municipality":"Tepic","setelement":"Los Sabinos"},{"postalCode":"63500","state":"Nayarit","municipality":"Tepic","setelement":"Azucareros"},{"postalCode":"63500","state":"Nayarit","municipality":"Tepic","setelement":"Francisco I. Madero (Puga) Centro"},{"postalCode":"63500","state":"Nayarit","municipality":"Tepic","setelement":"Francisco Velázquez"},{"postalCode":"63500","state":"Nayarit","municipality":"Tepic","setelement":"Lázaro Cárdenas"},{"postalCode":"63500","state":"Nayarit","municipality":"Tepic","setelement":"El Campo"},{"postalCode":"63500","state":"Nayarit","municipality":"Tepic","setelement":"18 de Marzo"},{"postalCode":"63500","state":"Nayarit","municipality":"Tepic","setelement":"El Chorro"},{"postalCode":"63500","state":"Nayarit","municipality":"Tepic","setelement":"Caja de Agua"},{"postalCode":"63500","state":"Nayarit","municipality":"Tepic","setelement":"Nueva Valey"},{"postalCode":"63500","state":"Nayarit","municipality":"Tepic","setelement":"Las Parejas"},{"postalCode":"63500","state":"Nayarit","municipality":"Tepic","setelement":"Las Cruces"},{"postalCode":"63500","state":"Nayarit","municipality":"Tepic","setelement":"El Cerro"},{"postalCode":"63501","state":"Nayarit","municipality":"Tepic","setelement":"Bellavista"},{"postalCode":"63502","state":"Nayarit","municipality":"Tepic","setelement":"El Rincón"},{"postalCode":"63502","state":"Nayarit","municipality":"Tepic","setelement":"San Andrés"},{"postalCode":"63502","state":"Nayarit","municipality":"Tepic","setelement":"CEFERESO"},{"postalCode":"63503","state":"Nayarit","municipality":"Tepic","setelement":"San Fernando"},{"postalCode":"63504","state":"Nayarit","municipality":"Tepic","setelement":"Mora"},{"postalCode":"63504","state":"Nayarit","municipality":"Tepic","setelement":"Seis de Enero"},{"postalCode":"63505","state":"Nayarit","municipality":"Tepic","setelement":"La Fortuna"},{"postalCode":"63505","state":"Nayarit","municipality":"Tepic","setelement":"El Pichón"},{"postalCode":"63505","state":"Nayarit","municipality":"Tepic","setelement":"Lo de Lamedo"},{"postalCode":"63505","state":"Nayarit","municipality":"Tepic","setelement":"Morelos"},{"postalCode":"63506","state":"Nayarit","municipality":"Tepic","setelement":"La Cantera"},{"postalCode":"63507","state":"Nayarit","municipality":"Tepic","setelement":"El Izote"},{"postalCode":"63507","state":"Nayarit","municipality":"Tepic","setelement":"El Ahuacate"},{"postalCode":"63507","state":"Nayarit","municipality":"Tepic","setelement":"Las Delicias"},{"postalCode":"63507","state":"Nayarit","municipality":"Tepic","setelement":"Platanitos"},{"postalCode":"63507","state":"Nayarit","municipality":"Tepic","setelement":"Venustiano Carranza"},{"postalCode":"63508","state":"Nayarit","municipality":"Tepic","setelement":"Camichín de Jauja"},{"postalCode":"63508","state":"Nayarit","municipality":"Tepic","setelement":"La Escondida"},{"postalCode":"63509","state":"Nayarit","municipality":"Tepic","setelement":"El Refugio"},{"postalCode":"63510","state":"Nayarit","municipality":"Tepic","setelement":"Catorce de Marzo"},{"postalCode":"63510","state":"Nayarit","municipality":"Tepic","setelement":"Cinco de Mayo (El Ciruelo)"},{"postalCode":"63510","state":"Nayarit","municipality":"Tepic","setelement":"El Jicote"},{"postalCode":"63511","state":"Nayarit","municipality":"Tepic","setelement":"Novillero"},{"postalCode":"63511","state":"Nayarit","municipality":"Tepic","setelement":"Las Joyas"},{"postalCode":"63511","state":"Nayarit","municipality":"Tepic","setelement":"La Guadalupana"},{"postalCode":"63511","state":"Nayarit","municipality":"Tepic","setelement":"Diamante"},{"postalCode":"63511","state":"Nayarit","municipality":"Tepic","setelement":"El Verde"},{"postalCode":"63511","state":"Nayarit","municipality":"Tepic","setelement":"San Cayetano"},{"postalCode":"63511","state":"Nayarit","municipality":"Tepic","setelement":"Volcanes"},{"postalCode":"63511","state":"Nayarit","municipality":"Tepic","setelement":"La Corregidora"},{"postalCode":"63512","state":"Nayarit","municipality":"Tepic","setelement":"Las Peñitas (La Repisa)"},{"postalCode":"63512","state":"Nayarit","municipality":"Tepic","setelement":"Lo de García"},{"postalCode":"63513","state":"Nayarit","municipality":"Tepic","setelement":"Estación Roseta"},{"postalCode":"63514","state":"Nayarit","municipality":"Tepic","setelement":"Las Pilas (El Tepeguaje)"},{"postalCode":"63514","state":"Nayarit","municipality":"Tepic","setelement":"Los Salazares"},{"postalCode":"63515","state":"Nayarit","municipality":"Tepic","setelement":"Benito Juárez (Las Chivas)"},{"postalCode":"63515","state":"Nayarit","municipality":"Tepic","setelement":"El Espino"},{"postalCode":"63516","state":"Nayarit","municipality":"Tepic","setelement":"El Limón"},{"postalCode":"63516","state":"Nayarit","municipality":"Tepic","setelement":"Jumatán"},{"postalCode":"63517","state":"Nayarit","municipality":"Tepic","setelement":"Barranca Blanca"},{"postalCode":"63517","state":"Nayarit","municipality":"Tepic","setelement":"El Trapichillo"},{"postalCode":"63518","state":"Nayarit","municipality":"Tepic","setelement":"Pajuelazo (El Guanacaste)"},{"postalCode":"63518","state":"Nayarit","municipality":"Tepic","setelement":"La Herradura"},{"postalCode":"63518","state":"Nayarit","municipality":"Tepic","setelement":"La Resolana"},{"postalCode":"63519","state":"Nayarit","municipality":"Tepic","setelement":"La Yerba"},{"postalCode":"63520","state":"Nayarit","municipality":"Tepic","setelement":"El Colorado"},{"postalCode":"63522","state":"Nayarit","municipality":"Tepic","setelement":"Jesús María Cortes"},{"postalCode":"63523","state":"Nayarit","municipality":"Tepic","setelement":"Las Norias del Manantial"},{"postalCode":"63523","state":"Nayarit","municipality":"Tepic","setelement":"Atonalisco"},{"postalCode":"63524","state":"Nayarit","municipality":"Tepic","setelement":"El Floreño (El Capulín)"},{"postalCode":"63524","state":"Nayarit","municipality":"Tepic","setelement":"Santiago de Pochotitán"},{"postalCode":"63524","state":"Nayarit","municipality":"Tepic","setelement":"Buenos Aires"},{"postalCode":"63524","state":"Nayarit","municipality":"Tepic","setelement":"Caleras de Cofrados"},{"postalCode":"63526","state":"Nayarit","municipality":"Tepic","setelement":"Zapote de Picachos"},{"postalCode":"63527","state":"Nayarit","municipality":"Tepic","setelement":"San Luis de Lozada"},{"postalCode":"63528","state":"Nayarit","municipality":"Tepic","setelement":"Mesa de Picachos (El Casco)"},{"postalCode":"63529","state":"Nayarit","municipality":"Tepic","setelement":"Las Blancas (Carretones de Cerritos)"},{"postalCode":"63530","state":"Nayarit","municipality":"Del Nayar","setelement":"Jesús María"},{"postalCode":"63533","state":"Nayarit","municipality":"Del Nayar","setelement":"El Colomo"},{"postalCode":"63533","state":"Nayarit","municipality":"Del Nayar","setelement":"Santa Bárbara"},{"postalCode":"63533","state":"Nayarit","municipality":"Del Nayar","setelement":"Las Huertitas"},{"postalCode":"63533","state":"Nayarit","municipality":"Del Nayar","setelement":"Arroyo Capomo"},{"postalCode":"63533","state":"Nayarit","municipality":"Del Nayar","setelement":"Aurelio de la Cruz Serrano"},{"postalCode":"63533","state":"Nayarit","municipality":"Del Nayar","setelement":"Cerro Chino"},{"postalCode":"63533","state":"Nayarit","municipality":"Del Nayar","setelement":"Cerro Pelón"},{"postalCode":"63533","state":"Nayarit","municipality":"Del Nayar","setelement":"Ciénega de Santa Rosa"},{"postalCode":"63533","state":"Nayarit","municipality":"Del Nayar","setelement":"El Banco"},{"postalCode":"63533","state":"Nayarit","municipality":"Del Nayar","setelement":"El Caligüey"},{"postalCode":"63533","state":"Nayarit","municipality":"Del Nayar","setelement":"El Cascabel"},{"postalCode":"63533","state":"Nayarit","municipality":"Del Nayar","setelement":"El Limón"},{"postalCode":"63533","state":"Nayarit","municipality":"Del Nayar","setelement":"El Molino"},{"postalCode":"63533","state":"Nayarit","municipality":"Del Nayar","setelement":"El Purgatorio"},{"postalCode":"63533","state":"Nayarit","municipality":"Del Nayar","setelement":"El Salitre"},{"postalCode":"63533","state":"Nayarit","municipality":"Del Nayar","setelement":"El Saucito"},{"postalCode":"63533","state":"Nayarit","municipality":"Del Nayar","setelement":"El Segundo Paso"},{"postalCode":"63533","state":"Nayarit","municipality":"Del Nayar","setelement":"El Tesorero"},{"postalCode":"63533","state":"Nayarit","municipality":"Del Nayar","setelement":"El Trigalillo"},{"postalCode":"63533","state":"Nayarit","municipality":"Del Nayar","setelement":"Guapinole"},{"postalCode":"63533","state":"Nayarit","municipality":"Del Nayar","setelement":"La Laguna"},{"postalCode":"63533","state":"Nayarit","municipality":"Del Nayar","setelement":"La Mojarra"},{"postalCode":"63533","state":"Nayarit","municipality":"Del Nayar","setelement":"La Mojonera"},{"postalCode":"63533","state":"Nayarit","municipality":"Del Nayar","setelement":"La Nanchilera"},{"postalCode":"63533","state":"Nayarit","municipality":"Del Nayar","setelement":"La Palma"},{"postalCode":"63533","state":"Nayarit","municipality":"Del Nayar","setelement":"Las Ranas"},{"postalCode":"63533","state":"Nayarit","municipality":"Del Nayar","setelement":"Los Aguacates"},{"postalCode":"63533","state":"Nayarit","municipality":"Del Nayar","setelement":"Los Bancos"},{"postalCode":"63533","state":"Nayarit","municipality":"Del Nayar","setelement":"Los Corpos"},{"postalCode":"63533","state":"Nayarit","municipality":"Del Nayar","setelement":"Los Cuervitos"},{"postalCode":"63533","state":"Nayarit","municipality":"Del Nayar","setelement":"Los Ladrillos"},{"postalCode":"63533","state":"Nayarit","municipality":"Del Nayar","setelement":"Los Manguitos"},{"postalCode":"63533","state":"Nayarit","municipality":"Del Nayar","setelement":"Los Serranos"},{"postalCode":"63533","state":"Nayarit","municipality":"Del Nayar","setelement":"Picachitos (Juan Sabás)"},{"postalCode":"63533","state":"Nayarit","municipality":"Del Nayar","setelement":"San Isidro"},{"postalCode":"63533","state":"Nayarit","municipality":"Del Nayar","setelement":"San Joaquín"},{"postalCode":"63533","state":"Nayarit","municipality":"Del Nayar","setelement":"Santa Rosa"},{"postalCode":"63533","state":"Nayarit","municipality":"Del Nayar","setelement":"Santos Rojas"},{"postalCode":"63533","state":"Nayarit","municipality":"Del Nayar","setelement":"Teodoro Valentín"},{"postalCode":"63533","state":"Nayarit","municipality":"Del Nayar","setelement":"Terrurúripa"},{"postalCode":"63533","state":"Nayarit","municipality":"Del Nayar","setelement":"Zapopan"},{"postalCode":"63534","state":"Nayarit","municipality":"Del Nayar","setelement":"Rancho Viejo"},{"postalCode":"63534","state":"Nayarit","municipality":"Del Nayar","setelement":"San Francisco"},{"postalCode":"63534","state":"Nayarit","municipality":"Del Nayar","setelement":"Arroyo Cañaveral"},{"postalCode":"63534","state":"Nayarit","municipality":"Del Nayar","setelement":"Arroyo de Santiago"},{"postalCode":"63534","state":"Nayarit","municipality":"Del Nayar","setelement":"Arroyo del Fraile"},{"postalCode":"63534","state":"Nayarit","municipality":"Del Nayar","setelement":"Arroyo Hondo"},{"postalCode":"63534","state":"Nayarit","municipality":"Del Nayar","setelement":"Boca de Arroyo Santiago"},{"postalCode":"63534","state":"Nayarit","municipality":"Del Nayar","setelement":"Boca del Arroyo"},{"postalCode":"63534","state":"Nayarit","municipality":"Del Nayar","setelement":"El Algodonal"},{"postalCode":"63534","state":"Nayarit","municipality":"Del Nayar","setelement":"El Campamento (La Silleta)"},{"postalCode":"63534","state":"Nayarit","municipality":"Del Nayar","setelement":"El Capomo"},{"postalCode":"63534","state":"Nayarit","municipality":"Del Nayar","setelement":"El Chalate"},{"postalCode":"63534","state":"Nayarit","municipality":"Del Nayar","setelement":"El Chalate"},{"postalCode":"63534","state":"Nayarit","municipality":"Del Nayar","setelement":"El Jazmín"},{"postalCode":"63534","state":"Nayarit","municipality":"Del Nayar","setelement":"El Pastor"},{"postalCode":"63534","state":"Nayarit","municipality":"Del Nayar","setelement":"El Picacho"},{"postalCode":"63534","state":"Nayarit","municipality":"Del Nayar","setelement":"El Zapote"},{"postalCode":"63534","state":"Nayarit","municipality":"Del Nayar","setelement":"Ixtalpa"},{"postalCode":"63534","state":"Nayarit","municipality":"Del Nayar","setelement":"La Banquita"},{"postalCode":"63534","state":"Nayarit","municipality":"Del Nayar","setelement":"La Ciénega"},{"postalCode":"63534","state":"Nayarit","municipality":"Del Nayar","setelement":"La Concepción"},{"postalCode":"63534","state":"Nayarit","municipality":"Del Nayar","setelement":"La Cuesta"},{"postalCode":"63534","state":"Nayarit","municipality":"Del Nayar","setelement":"La Guerra"},{"postalCode":"63534","state":"Nayarit","municipality":"Del Nayar","setelement":"La Mesita (El Llano Grande)"},{"postalCode":"63534","state":"Nayarit","municipality":"Del Nayar","setelement":"La Mezquitera"},{"postalCode":"63534","state":"Nayarit","municipality":"Del Nayar","setelement":"Laguna de Ojo de Agua"},{"postalCode":"63534","state":"Nayarit","municipality":"Del Nayar","setelement":"Las Patas"},{"postalCode":"63534","state":"Nayarit","municipality":"Del Nayar","setelement":"Los Arrayanes"},{"postalCode":"63534","state":"Nayarit","municipality":"Del Nayar","setelement":"Los Brincos"},{"postalCode":"63534","state":"Nayarit","municipality":"Del Nayar","setelement":"Los Manguitos"},{"postalCode":"63534","state":"Nayarit","municipality":"Del Nayar","setelement":"Palomas"},{"postalCode":"63534","state":"Nayarit","municipality":"Del Nayar","setelement":"Piedra Iglesia"},{"postalCode":"63534","state":"Nayarit","municipality":"Del Nayar","setelement":"Puente el Fraile"},{"postalCode":"63534","state":"Nayarit","municipality":"Del Nayar","setelement":"Santa Cruz"},{"postalCode":"63535","state":"Nayarit","municipality":"Del Nayar","setelement":"San Juan Peyotán"},{"postalCode":"63535","state":"Nayarit","municipality":"Del Nayar","setelement":"Arroyo del Guamúchil"},{"postalCode":"63535","state":"Nayarit","municipality":"Del Nayar","setelement":"Atonalisco"},{"postalCode":"63535","state":"Nayarit","municipality":"Del Nayar","setelement":"Bajío de la Cebolleta"},{"postalCode":"63535","state":"Nayarit","municipality":"Del Nayar","setelement":"Campatehuala"},{"postalCode":"63535","state":"Nayarit","municipality":"Del Nayar","setelement":"El Arco"},{"postalCode":"63535","state":"Nayarit","municipality":"Del Nayar","setelement":"El Arrayán"},{"postalCode":"63535","state":"Nayarit","municipality":"Del Nayar","setelement":"El Chalate"},{"postalCode":"63535","state":"Nayarit","municipality":"Del Nayar","setelement":"El Gabino"},{"postalCode":"63535","state":"Nayarit","municipality":"Del Nayar","setelement":"El Limón"},{"postalCode":"63535","state":"Nayarit","municipality":"Del Nayar","setelement":"El Reventón"},{"postalCode":"63535","state":"Nayarit","municipality":"Del Nayar","setelement":"El Rincón"},{"postalCode":"63535","state":"Nayarit","municipality":"Del Nayar","setelement":"El Saucito Peyotán"},{"postalCode":"63535","state":"Nayarit","municipality":"Del Nayar","setelement":"El Zapote"},{"postalCode":"63535","state":"Nayarit","municipality":"Del Nayar","setelement":"La Cebolleta"},{"postalCode":"63535","state":"Nayarit","municipality":"Del Nayar","setelement":"La China"},{"postalCode":"63535","state":"Nayarit","municipality":"Del Nayar","setelement":"La Ciénega de San Felipe"},{"postalCode":"63535","state":"Nayarit","municipality":"Del Nayar","setelement":"La Curva"},{"postalCode":"63535","state":"Nayarit","municipality":"Del Nayar","setelement":"La Metatita"},{"postalCode":"63535","state":"Nayarit","municipality":"Del Nayar","setelement":"La Peña Blanca"},{"postalCode":"63535","state":"Nayarit","municipality":"Del Nayar","setelement":"Las Adjuntas"},{"postalCode":"63535","state":"Nayarit","municipality":"Del Nayar","setelement":"Las Patillas"},{"postalCode":"63535","state":"Nayarit","municipality":"Del Nayar","setelement":"Los Arrayanes"},{"postalCode":"63535","state":"Nayarit","municipality":"Del Nayar","setelement":"Ortega"},{"postalCode":"63535","state":"Nayarit","municipality":"Del Nayar","setelement":"Peña Blanca"},{"postalCode":"63535","state":"Nayarit","municipality":"Del Nayar","setelement":"Rancho del Bajío"},{"postalCode":"63536","state":"Nayarit","municipality":"Del Nayar","setelement":"Jazmines de Coyultita"},{"postalCode":"63536","state":"Nayarit","municipality":"Del Nayar","setelement":"Zoquipan"},{"postalCode":"63536","state":"Nayarit","municipality":"Del Nayar","setelement":"Coyultita de Jazmines"},{"postalCode":"63536","state":"Nayarit","municipality":"Del Nayar","setelement":"Arrayanes"},{"postalCode":"63536","state":"Nayarit","municipality":"Del Nayar","setelement":"Arroyo de Pericos"},{"postalCode":"63536","state":"Nayarit","municipality":"Del Nayar","setelement":"Cabeza de Venado"},{"postalCode":"63536","state":"Nayarit","municipality":"Del Nayar","setelement":"Cofradía de Pericos"},{"postalCode":"63536","state":"Nayarit","municipality":"Del Nayar","setelement":"Comal de Peñita"},{"postalCode":"63536","state":"Nayarit","municipality":"Del Nayar","setelement":"El Agua Caliente"},{"postalCode":"63536","state":"Nayarit","municipality":"Del Nayar","setelement":"El Capomo"},{"postalCode":"63536","state":"Nayarit","municipality":"Del Nayar","setelement":"El Capomo"},{"postalCode":"63536","state":"Nayarit","municipality":"Del Nayar","setelement":"El Ciruelar"},{"postalCode":"63536","state":"Nayarit","municipality":"Del Nayar","setelement":"El Conejo"},{"postalCode":"63536","state":"Nayarit","municipality":"Del Nayar","setelement":"El Duraznito"},{"postalCode":"63536","state":"Nayarit","municipality":"Del Nayar","setelement":"El Guayabo"},{"postalCode":"63536","state":"Nayarit","municipality":"Del Nayar","setelement":"El Limón"},{"postalCode":"63536","state":"Nayarit","municipality":"Del Nayar","setelement":"El Maguey"},{"postalCode":"63536","state":"Nayarit","municipality":"Del Nayar","setelement":"El Manguito"},{"postalCode":"63536","state":"Nayarit","municipality":"Del Nayar","setelement":"El Naranjo"},{"postalCode":"63536","state":"Nayarit","municipality":"Del Nayar","setelement":"El Pitallito"},{"postalCode":"63536","state":"Nayarit","municipality":"Del Nayar","setelement":"El Quicuixtle"},{"postalCode":"63536","state":"Nayarit","municipality":"Del Nayar","setelement":"El Risco"},{"postalCode":"63536","state":"Nayarit","municipality":"Del Nayar","setelement":"El Sapo"},{"postalCode":"63536","state":"Nayarit","municipality":"Del Nayar","setelement":"El Zapote"},{"postalCode":"63536","state":"Nayarit","municipality":"Del Nayar","setelement":"El Zapote"},{"postalCode":"63536","state":"Nayarit","municipality":"Del Nayar","setelement":"El Zapote"},{"postalCode":"63536","state":"Nayarit","municipality":"Del Nayar","setelement":"Gabino Severiano"},{"postalCode":"63536","state":"Nayarit","municipality":"Del Nayar","setelement":"Guamuchilillo"},{"postalCode":"63536","state":"Nayarit","municipality":"Del Nayar","setelement":"Guásima del Metate"},{"postalCode":"63536","state":"Nayarit","municipality":"Del Nayar","setelement":"La Mesa"},{"postalCode":"63536","state":"Nayarit","municipality":"Del Nayar","setelement":"La Nopalera"},{"postalCode":"63536","state":"Nayarit","municipality":"Del Nayar","setelement":"La Palma"},{"postalCode":"63536","state":"Nayarit","municipality":"Del Nayar","setelement":"La Quemada"},{"postalCode":"63536","state":"Nayarit","municipality":"Del Nayar","setelement":"Las Cuevas"},{"postalCode":"63536","state":"Nayarit","municipality":"Del Nayar","setelement":"Las Peñas Coloradas"},{"postalCode":"63536","state":"Nayarit","municipality":"Del Nayar","setelement":"Las Tapias (Santa Gertrudis)"},{"postalCode":"63536","state":"Nayarit","municipality":"Del Nayar","setelement":"Los Aguacates"},{"postalCode":"63536","state":"Nayarit","municipality":"Del Nayar","setelement":"Los Aires"},{"postalCode":"63536","state":"Nayarit","municipality":"Del Nayar","setelement":"Los Cuervitos"},{"postalCode":"63536","state":"Nayarit","municipality":"Del Nayar","setelement":"Los Encinos"},{"postalCode":"63536","state":"Nayarit","municipality":"Del Nayar","setelement":"Los Guajolotes"},{"postalCode":"63536","state":"Nayarit","municipality":"Del Nayar","setelement":"Los Medina"},{"postalCode":"63536","state":"Nayarit","municipality":"Del Nayar","setelement":"Los Tigres (El Metate)"},{"postalCode":"63536","state":"Nayarit","municipality":"Del Nayar","setelement":"Nochecita"},{"postalCode":"63536","state":"Nayarit","municipality":"Del Nayar","setelement":"Rancho Nuevo (Juventino)"},{"postalCode":"63536","state":"Nayarit","municipality":"Del Nayar","setelement":"Tierra Caliente"},{"postalCode":"63536","state":"Nayarit","municipality":"Del Nayar","setelement":"Tierras Blancas del Picacho"},{"postalCode":"63537","state":"Nayarit","municipality":"Del Nayar","setelement":"Alto de Ventanas"},{"postalCode":"63537","state":"Nayarit","municipality":"Del Nayar","setelement":"Huaynamota"},{"postalCode":"63537","state":"Nayarit","municipality":"Del Nayar","setelement":"Arroyo Barbón"},{"postalCode":"63537","state":"Nayarit","municipality":"Del Nayar","setelement":"Carrizal de las Vigas"},{"postalCode":"63537","state":"Nayarit","municipality":"Del Nayar","setelement":"Chapiles"},{"postalCode":"63537","state":"Nayarit","municipality":"Del Nayar","setelement":"El Espejo"},{"postalCode":"63537","state":"Nayarit","municipality":"Del Nayar","setelement":"El Pinito"},{"postalCode":"63537","state":"Nayarit","municipality":"Del Nayar","setelement":"El Rincón"},{"postalCode":"63537","state":"Nayarit","municipality":"Del Nayar","setelement":"El Zopilote"},{"postalCode":"63537","state":"Nayarit","municipality":"Del Nayar","setelement":"Guásimas del Caimán"},{"postalCode":"63537","state":"Nayarit","municipality":"Del Nayar","setelement":"Jazmines"},{"postalCode":"63537","state":"Nayarit","municipality":"Del Nayar","setelement":"La Ciénega"},{"postalCode":"63537","state":"Nayarit","municipality":"Del Nayar","setelement":"La Loma de los Encinos"},{"postalCode":"63537","state":"Nayarit","municipality":"Del Nayar","setelement":"La Mata"},{"postalCode":"63537","state":"Nayarit","municipality":"Del Nayar","setelement":"La Mesa de la Pitayera"},{"postalCode":"63537","state":"Nayarit","municipality":"Del Nayar","setelement":"La Palmita"},{"postalCode":"63537","state":"Nayarit","municipality":"Del Nayar","setelement":"Las Adjuntas (La Peña)"},{"postalCode":"63537","state":"Nayarit","municipality":"Del Nayar","setelement":"Las Cruces"},{"postalCode":"63537","state":"Nayarit","municipality":"Del Nayar","setelement":"Las Cuevas"},{"postalCode":"63537","state":"Nayarit","municipality":"Del Nayar","setelement":"Las Guásimas"},{"postalCode":"63537","state":"Nayarit","municipality":"Del Nayar","setelement":"Las Palmas"},{"postalCode":"63537","state":"Nayarit","municipality":"Del Nayar","setelement":"Los Encinos"},{"postalCode":"63537","state":"Nayarit","municipality":"Del Nayar","setelement":"Los Guayabos"},{"postalCode":"63537","state":"Nayarit","municipality":"Del Nayar","setelement":"Los Sabinos"},{"postalCode":"63537","state":"Nayarit","municipality":"Del Nayar","setelement":"Los Yugos"},{"postalCode":"63537","state":"Nayarit","municipality":"Del Nayar","setelement":"Palma Chica"},{"postalCode":"63537","state":"Nayarit","municipality":"Del Nayar","setelement":"Paredes"},{"postalCode":"63537","state":"Nayarit","municipality":"Del Nayar","setelement":"Rancho de Emilia"},{"postalCode":"63537","state":"Nayarit","municipality":"Del Nayar","setelement":"Teneracas"},{"postalCode":"63537","state":"Nayarit","municipality":"Del Nayar","setelement":"Tierra Blanca (El Tempisque)"},{"postalCode":"63537","state":"Nayarit","municipality":"Del Nayar","setelement":"Tutuyecuamama"},{"postalCode":"63537","state":"Nayarit","municipality":"Del Nayar","setelement":"Vuelta del Cerro"},{"postalCode":"63538","state":"Nayarit","municipality":"Del Nayar","setelement":"San Rafael"},{"postalCode":"63538","state":"Nayarit","municipality":"Del Nayar","setelement":"Higuera Gorda"},{"postalCode":"63538","state":"Nayarit","municipality":"Del Nayar","setelement":"El Novillero"},{"postalCode":"63538","state":"Nayarit","municipality":"Del Nayar","setelement":"Agua Caliente"},{"postalCode":"63538","state":"Nayarit","municipality":"Del Nayar","setelement":"Aguamilpa"},{"postalCode":"63538","state":"Nayarit","municipality":"Del Nayar","setelement":"Caimantita"},{"postalCode":"63538","state":"Nayarit","municipality":"Del Nayar","setelement":"Caleras"},{"postalCode":"63538","state":"Nayarit","municipality":"Del Nayar","setelement":"Corrales"},{"postalCode":"63538","state":"Nayarit","municipality":"Del Nayar","setelement":"Coyultita de Mala Noche"},{"postalCode":"63538","state":"Nayarit","municipality":"Del Nayar","setelement":"Cuauhtémoc"},{"postalCode":"63538","state":"Nayarit","municipality":"Del Nayar","setelement":"El Aire"},{"postalCode":"63538","state":"Nayarit","municipality":"Del Nayar","setelement":"El Anonito"},{"postalCode":"63538","state":"Nayarit","municipality":"Del Nayar","setelement":"El Carrizal"},{"postalCode":"63538","state":"Nayarit","municipality":"Del Nayar","setelement":"El Ciruelar"},{"postalCode":"63538","state":"Nayarit","municipality":"Del Nayar","setelement":"El Colorín"},{"postalCode":"63538","state":"Nayarit","municipality":"Del Nayar","setelement":"El Cordón"},{"postalCode":"63538","state":"Nayarit","municipality":"Del Nayar","setelement":"El Guariche"},{"postalCode":"63538","state":"Nayarit","municipality":"Del Nayar","setelement":"El Manguito"},{"postalCode":"63538","state":"Nayarit","municipality":"Del Nayar","setelement":"El Nogal"},{"postalCode":"63538","state":"Nayarit","municipality":"Del Nayar","setelement":"El Papalote"},{"postalCode":"63538","state":"Nayarit","municipality":"Del Nayar","setelement":"El Pino"},{"postalCode":"63538","state":"Nayarit","municipality":"Del Nayar","setelement":"El Ranchito"},{"postalCode":"63538","state":"Nayarit","municipality":"Del Nayar","setelement":"El Sordo"},{"postalCode":"63538","state":"Nayarit","municipality":"Del Nayar","setelement":"El Tepetate"},{"postalCode":"63538","state":"Nayarit","municipality":"Del Nayar","setelement":"El Vicenteño (Calaveras)"},{"postalCode":"63538","state":"Nayarit","municipality":"Del Nayar","setelement":"El Vicenteño (Huamiloya)"},{"postalCode":"63538","state":"Nayarit","municipality":"Del Nayar","setelement":"La Higuerita"},{"postalCode":"63538","state":"Nayarit","municipality":"Del Nayar","setelement":"La Nanchilera"},{"postalCode":"63538","state":"Nayarit","municipality":"Del Nayar","setelement":"La Nanchilera"},{"postalCode":"63538","state":"Nayarit","municipality":"Del Nayar","setelement":"La Polvareda (Higueral de Don Pancho)"},{"postalCode":"63538","state":"Nayarit","municipality":"Del Nayar","setelement":"La Travesía"},{"postalCode":"63538","state":"Nayarit","municipality":"Del Nayar","setelement":"La Ventanilla"},{"postalCode":"63538","state":"Nayarit","municipality":"Del Nayar","setelement":"Las Azucenas"},{"postalCode":"63538","state":"Nayarit","municipality":"Del Nayar","setelement":"Las Cuevas"},{"postalCode":"63538","state":"Nayarit","municipality":"Del Nayar","setelement":"Las Guineas de Guadalupe"},{"postalCode":"63538","state":"Nayarit","municipality":"Del Nayar","setelement":"Las Higueras"},{"postalCode":"63538","state":"Nayarit","municipality":"Del Nayar","setelement":"Las Palmas"},{"postalCode":"63538","state":"Nayarit","municipality":"Del Nayar","setelement":"Los Barros Negros"},{"postalCode":"63538","state":"Nayarit","municipality":"Del Nayar","setelement":"Los Cajones"},{"postalCode":"63538","state":"Nayarit","municipality":"Del Nayar","setelement":"Los Parejos"},{"postalCode":"63538","state":"Nayarit","municipality":"Del Nayar","setelement":"Potrero de la Palmita"},{"postalCode":"63538","state":"Nayarit","municipality":"Del Nayar","setelement":"Puerto de Mala Noche"},{"postalCode":"63538","state":"Nayarit","municipality":"Del Nayar","setelement":"Rancho Viejo"},{"postalCode":"63538","state":"Nayarit","municipality":"Del Nayar","setelement":"San Luisito"},{"postalCode":"63538","state":"Nayarit","municipality":"Del Nayar","setelement":"San Pablo"},{"postalCode":"63538","state":"Nayarit","municipality":"Del Nayar","setelement":"Zapotán"},{"postalCode":"63539","state":"Nayarit","municipality":"Del Nayar","setelement":"El Saucito"},{"postalCode":"63539","state":"Nayarit","municipality":"Del Nayar","setelement":"La Palmita"},{"postalCode":"63539","state":"Nayarit","municipality":"Del Nayar","setelement":"El Mango"},{"postalCode":"63539","state":"Nayarit","municipality":"Del Nayar","setelement":"Los Limoncitos"},{"postalCode":"63539","state":"Nayarit","municipality":"Del Nayar","setelement":"El Pinito (Pedro Esparza)"},{"postalCode":"63539","state":"Nayarit","municipality":"Del Nayar","setelement":"El Roble"},{"postalCode":"63539","state":"Nayarit","municipality":"Del Nayar","setelement":"El Sauz"},{"postalCode":"63539","state":"Nayarit","municipality":"Del Nayar","setelement":"Gualupillo"},{"postalCode":"63539","state":"Nayarit","municipality":"Del Nayar","setelement":"La Laguna Seca"},{"postalCode":"63539","state":"Nayarit","municipality":"Del Nayar","setelement":"Laguna de las Vacas"},{"postalCode":"63539","state":"Nayarit","municipality":"Del Nayar","setelement":"Los Hornitos"},{"postalCode":"63539","state":"Nayarit","municipality":"Del Nayar","setelement":"Naranjito de Copal"},{"postalCode":"63539","state":"Nayarit","municipality":"Del Nayar","setelement":"Palomas"},{"postalCode":"63539","state":"Nayarit","municipality":"Del Nayar","setelement":"Paso de Álica (Agua Buena)"},{"postalCode":"63539","state":"Nayarit","municipality":"Del Nayar","setelement":"Paso de Lozada"},{"postalCode":"63539","state":"Nayarit","municipality":"Del Nayar","setelement":"Playa de Golondrinas"},{"postalCode":"63539","state":"Nayarit","municipality":"Del Nayar","setelement":"Rancho Alegre (Agua Hedionda)"},{"postalCode":"63540","state":"Nayarit","municipality":"Del Nayar","setelement":"Santa Teresa"},{"postalCode":"63540","state":"Nayarit","municipality":"Del Nayar","setelement":"Cebollitas"},{"postalCode":"63540","state":"Nayarit","municipality":"Del Nayar","setelement":"Cerro del Águila"},{"postalCode":"63540","state":"Nayarit","municipality":"Del Nayar","setelement":"El Bajío"},{"postalCode":"63540","state":"Nayarit","municipality":"Del Nayar","setelement":"El Carrizo"},{"postalCode":"63540","state":"Nayarit","municipality":"Del Nayar","setelement":"Las Pulgas"},{"postalCode":"63540","state":"Nayarit","municipality":"Del Nayar","setelement":"Las Tortugas"},{"postalCode":"63540","state":"Nayarit","municipality":"Del Nayar","setelement":"Los Chapiles (Hitachi)"},{"postalCode":"63540","state":"Nayarit","municipality":"Del Nayar","setelement":"Mesa de Cocorochas"},{"postalCode":"63540","state":"Nayarit","municipality":"Del Nayar","setelement":"San Victoria"},{"postalCode":"63540","state":"Nayarit","municipality":"Del Nayar","setelement":"Santa Anita"},{"postalCode":"63543","state":"Nayarit","municipality":"Del Nayar","setelement":"Dolores"},{"postalCode":"63543","state":"Nayarit","municipality":"Del Nayar","setelement":"Anselmo Lemus Valle"},{"postalCode":"63543","state":"Nayarit","municipality":"Del Nayar","setelement":"Asención Lemus Valle"},{"postalCode":"63543","state":"Nayarit","municipality":"Del Nayar","setelement":"Cerritos (Tierras Blancas)"},{"postalCode":"63543","state":"Nayarit","municipality":"Del Nayar","setelement":"Coyultita"},{"postalCode":"63543","state":"Nayarit","municipality":"Del Nayar","setelement":"El Brinco"},{"postalCode":"63543","state":"Nayarit","municipality":"Del Nayar","setelement":"El Caimán"},{"postalCode":"63543","state":"Nayarit","municipality":"Del Nayar","setelement":"El Cangrejo"},{"postalCode":"63543","state":"Nayarit","municipality":"Del Nayar","setelement":"El Guaco"},{"postalCode":"63543","state":"Nayarit","municipality":"Del Nayar","setelement":"El Manguito"},{"postalCode":"63543","state":"Nayarit","municipality":"Del Nayar","setelement":"El Portezuelo"},{"postalCode":"63543","state":"Nayarit","municipality":"Del Nayar","setelement":"El Roblito"},{"postalCode":"63543","state":"Nayarit","municipality":"Del Nayar","setelement":"El Sobadero"},{"postalCode":"63543","state":"Nayarit","municipality":"Del Nayar","setelement":"Guásimas"},{"postalCode":"63543","state":"Nayarit","municipality":"Del Nayar","setelement":"Juan Carrillo"},{"postalCode":"63543","state":"Nayarit","municipality":"Del Nayar","setelement":"La Bonita"},{"postalCode":"63543","state":"Nayarit","municipality":"Del Nayar","setelement":"La Pintada"},{"postalCode":"63543","state":"Nayarit","municipality":"Del Nayar","setelement":"Las Conchas"},{"postalCode":"63543","state":"Nayarit","municipality":"Del Nayar","setelement":"Las Habitas"},{"postalCode":"63543","state":"Nayarit","municipality":"Del Nayar","setelement":"Las Mesitas"},{"postalCode":"63543","state":"Nayarit","municipality":"Del Nayar","setelement":"Las Tortugas"},{"postalCode":"63543","state":"Nayarit","municipality":"Del Nayar","setelement":"Los Coamiles"},{"postalCode":"63543","state":"Nayarit","municipality":"Del Nayar","setelement":"Los Guajolotes"},{"postalCode":"63543","state":"Nayarit","municipality":"Del Nayar","setelement":"Los Padres"},{"postalCode":"63543","state":"Nayarit","municipality":"Del Nayar","setelement":"Los Pinitos (Dolores Viejo)"},{"postalCode":"63543","state":"Nayarit","municipality":"Del Nayar","setelement":"Los Tacos"},{"postalCode":"63543","state":"Nayarit","municipality":"Del Nayar","setelement":"Los Tenamaxtles"},{"postalCode":"63543","state":"Nayarit","municipality":"Del Nayar","setelement":"Melesio Valle Gómez"},{"postalCode":"63543","state":"Nayarit","municipality":"Del Nayar","setelement":"Mesa de los Huicholes"},{"postalCode":"63543","state":"Nayarit","municipality":"Del Nayar","setelement":"Palo Boludo"},{"postalCode":"63543","state":"Nayarit","municipality":"Del Nayar","setelement":"Petronilo Gutiérrez"},{"postalCode":"63543","state":"Nayarit","municipality":"Del Nayar","setelement":"Piedra Bola"},{"postalCode":"63543","state":"Nayarit","municipality":"Del Nayar","setelement":"San Isidro"},{"postalCode":"63543","state":"Nayarit","municipality":"Del Nayar","setelement":"San Vicente"},{"postalCode":"63543","state":"Nayarit","municipality":"Del Nayar","setelement":"San Vicente Viejo"},{"postalCode":"63543","state":"Nayarit","municipality":"Del Nayar","setelement":"Sixto Santiago Lincer"},{"postalCode":"63543","state":"Nayarit","municipality":"Del Nayar","setelement":"Tapinada"},{"postalCode":"63543","state":"Nayarit","municipality":"Del Nayar","setelement":"Tierras Coloradas"},{"postalCode":"63543","state":"Nayarit","municipality":"Del Nayar","setelement":"Zeferinos"},{"postalCode":"63544","state":"Nayarit","municipality":"Del Nayar","setelement":"Camaleones"},{"postalCode":"63544","state":"Nayarit","municipality":"Del Nayar","setelement":"La Cieneguita"},{"postalCode":"63544","state":"Nayarit","municipality":"Del Nayar","setelement":"La Mesita"},{"postalCode":"63544","state":"Nayarit","municipality":"Del Nayar","setelement":"La Yerba"},{"postalCode":"63544","state":"Nayarit","municipality":"Del Nayar","setelement":"Las Guacamayas"},{"postalCode":"63544","state":"Nayarit","municipality":"Del Nayar","setelement":"Las Guitarras"},{"postalCode":"63544","state":"Nayarit","municipality":"Del Nayar","setelement":"Linda Vista"},{"postalCode":"63544","state":"Nayarit","municipality":"Del Nayar","setelement":"Los Carrizos"},{"postalCode":"63544","state":"Nayarit","municipality":"Del Nayar","setelement":"Los Conejos"},{"postalCode":"63544","state":"Nayarit","municipality":"Del Nayar","setelement":"Los Cueros"},{"postalCode":"63544","state":"Nayarit","municipality":"Del Nayar","setelement":"Los Fierros"},{"postalCode":"63544","state":"Nayarit","municipality":"Del Nayar","setelement":"Los Zorrillos"},{"postalCode":"63544","state":"Nayarit","municipality":"Del Nayar","setelement":"Ojo de Agua"},{"postalCode":"63544","state":"Nayarit","municipality":"Del Nayar","setelement":"Pico del Águila (Tankanini)"},{"postalCode":"63544","state":"Nayarit","municipality":"Del Nayar","setelement":"Rancho Doroteo"},{"postalCode":"63544","state":"Nayarit","municipality":"Del Nayar","setelement":"Rancho Viejo"},{"postalCode":"63544","state":"Nayarit","municipality":"Del Nayar","setelement":"Santa Cruz"},{"postalCode":"63544","state":"Nayarit","municipality":"Del Nayar","setelement":"Santa Gertrudis"},{"postalCode":"63544","state":"Nayarit","municipality":"Del Nayar","setelement":"Tapeistes"},{"postalCode":"63544","state":"Nayarit","municipality":"Del Nayar","setelement":"Tierras Cuevas"},{"postalCode":"63545","state":"Nayarit","municipality":"Del Nayar","setelement":"Cañada de la Laguna"},{"postalCode":"63545","state":"Nayarit","municipality":"Del Nayar","setelement":"Juan Pérez"},{"postalCode":"63545","state":"Nayarit","municipality":"Del Nayar","setelement":"La Ciénega"},{"postalCode":"63545","state":"Nayarit","municipality":"Del Nayar","setelement":"La Palma"},{"postalCode":"63545","state":"Nayarit","municipality":"Del Nayar","setelement":"La Ventana"},{"postalCode":"63545","state":"Nayarit","municipality":"Del Nayar","setelement":"Las Minas"},{"postalCode":"63545","state":"Nayarit","municipality":"Del Nayar","setelement":"Los Arenales"},{"postalCode":"63545","state":"Nayarit","municipality":"Del Nayar","setelement":"Los Huizaches"},{"postalCode":"63545","state":"Nayarit","municipality":"Del Nayar","setelement":"Los Llanitos"},{"postalCode":"63545","state":"Nayarit","municipality":"Del Nayar","setelement":"Los Nopales (Karurita)"},{"postalCode":"63545","state":"Nayarit","municipality":"Del Nayar","setelement":"Los Pinitos"},{"postalCode":"63545","state":"Nayarit","municipality":"Del Nayar","setelement":"Meseta Llano Grande"},{"postalCode":"63546","state":"Nayarit","municipality":"Del Nayar","setelement":"Mesa del Nayar"},{"postalCode":"63546","state":"Nayarit","municipality":"Del Nayar","setelement":"San Rafael (San Rafael Alto)"},{"postalCode":"63546","state":"Nayarit","municipality":"Del Nayar","setelement":"Anastasio Melchor Due"},{"postalCode":"63546","state":"Nayarit","municipality":"Del Nayar","setelement":"Aserradero"},{"postalCode":"63546","state":"Nayarit","municipality":"Del Nayar","setelement":"El Cangrejo"},{"postalCode":"63546","state":"Nayarit","municipality":"Del Nayar","setelement":"Mayolo"},{"postalCode":"63546","state":"Nayarit","municipality":"Del Nayar","setelement":"El Molcajete"},{"postalCode":"63546","state":"Nayarit","municipality":"Del Nayar","setelement":"El Rincón (Las Sillas)"},{"postalCode":"63546","state":"Nayarit","municipality":"Del Nayar","setelement":"Guadalupe (El Magueyito)"},{"postalCode":"63546","state":"Nayarit","municipality":"Del Nayar","setelement":"La Ciénega"},{"postalCode":"63546","state":"Nayarit","municipality":"Del Nayar","setelement":"La Laguna"},{"postalCode":"63546","state":"Nayarit","municipality":"Del Nayar","setelement":"La Taberna"},{"postalCode":"63546","state":"Nayarit","municipality":"Del Nayar","setelement":"Las Avispas"},{"postalCode":"63546","state":"Nayarit","municipality":"Del Nayar","setelement":"Los Alacranes"},{"postalCode":"63546","state":"Nayarit","municipality":"Del Nayar","setelement":"Los Robles"},{"postalCode":"63546","state":"Nayarit","municipality":"Del Nayar","setelement":"Los Tepetates"},{"postalCode":"63546","state":"Nayarit","municipality":"Del Nayar","setelement":"Luis Romero (Las Cocorochas)"},{"postalCode":"63546","state":"Nayarit","municipality":"Del Nayar","setelement":"Manuel Pancho"},{"postalCode":"63546","state":"Nayarit","municipality":"Del Nayar","setelement":"Rancho de Antolino"},{"postalCode":"63546","state":"Nayarit","municipality":"Del Nayar","setelement":"Rancho de Gervasio"},{"postalCode":"63546","state":"Nayarit","municipality":"Del Nayar","setelement":"Rancho de Margarito"},{"postalCode":"63546","state":"Nayarit","municipality":"Del Nayar","setelement":"Sacaymota"},{"postalCode":"63547","state":"Nayarit","municipality":"Del Nayar","setelement":"Gavilanes"},{"postalCode":"63547","state":"Nayarit","municipality":"Del Nayar","setelement":"Agua Caliente"},{"postalCode":"63547","state":"Nayarit","municipality":"Del Nayar","setelement":"Arroyo de Camarones"},{"postalCode":"63547","state":"Nayarit","municipality":"Del Nayar","setelement":"Cerro Redondo"},{"postalCode":"63547","state":"Nayarit","municipality":"Del Nayar","setelement":"El Carrizal"},{"postalCode":"63547","state":"Nayarit","municipality":"Del Nayar","setelement":"El Cerrito"},{"postalCode":"63547","state":"Nayarit","municipality":"Del Nayar","setelement":"El Durazno"},{"postalCode":"63547","state":"Nayarit","municipality":"Del Nayar","setelement":"El Guaco"},{"postalCode":"63547","state":"Nayarit","municipality":"Del Nayar","setelement":"El Mirador"},{"postalCode":"63547","state":"Nayarit","municipality":"Del Nayar","setelement":"El Nanchi"},{"postalCode":"63547","state":"Nayarit","municipality":"Del Nayar","setelement":"El Pescuezo"},{"postalCode":"63547","state":"Nayarit","municipality":"Del Nayar","setelement":"El Pinito"},{"postalCode":"63547","state":"Nayarit","municipality":"Del Nayar","setelement":"El Pinito Nuevo (La Muñeca)"},{"postalCode":"63547","state":"Nayarit","municipality":"Del Nayar","setelement":"El Sabino"},{"postalCode":"63547","state":"Nayarit","municipality":"Del Nayar","setelement":"El Tepetate"},{"postalCode":"63547","state":"Nayarit","municipality":"Del Nayar","setelement":"Gualacamote"},{"postalCode":"63547","state":"Nayarit","municipality":"Del Nayar","setelement":"Huizache"},{"postalCode":"63547","state":"Nayarit","municipality":"Del Nayar","setelement":"La Ciénega"},{"postalCode":"63547","state":"Nayarit","municipality":"Del Nayar","setelement":"La Cofradía Uno"},{"postalCode":"63547","state":"Nayarit","municipality":"Del Nayar","setelement":"La Joya"},{"postalCode":"63547","state":"Nayarit","municipality":"Del Nayar","setelement":"La Laguna"},{"postalCode":"63547","state":"Nayarit","municipality":"Del Nayar","setelement":"La Lamedera"},{"postalCode":"63547","state":"Nayarit","municipality":"Del Nayar","setelement":"La Nopalera"},{"postalCode":"63547","state":"Nayarit","municipality":"Del Nayar","setelement":"La Palma"},{"postalCode":"63547","state":"Nayarit","municipality":"Del Nayar","setelement":"La Segueta"},{"postalCode":"63547","state":"Nayarit","municipality":"Del Nayar","setelement":"La Silleta"},{"postalCode":"63547","state":"Nayarit","municipality":"Del Nayar","setelement":"Las Guayabas"},{"postalCode":"63547","state":"Nayarit","municipality":"Del Nayar","setelement":"Las Pilas"},{"postalCode":"63547","state":"Nayarit","municipality":"Del Nayar","setelement":"Las Sillas"},{"postalCode":"63547","state":"Nayarit","municipality":"Del Nayar","setelement":"Las Tarabillas"},{"postalCode":"63547","state":"Nayarit","municipality":"Del Nayar","setelement":"Los Bules"},{"postalCode":"63547","state":"Nayarit","municipality":"Del Nayar","setelement":"Los Calixtro"},{"postalCode":"63547","state":"Nayarit","municipality":"Del Nayar","setelement":"Los Granos"},{"postalCode":"63547","state":"Nayarit","municipality":"Del Nayar","setelement":"Los Limones"},{"postalCode":"63547","state":"Nayarit","municipality":"Del Nayar","setelement":"Los Lirios"},{"postalCode":"63547","state":"Nayarit","municipality":"Del Nayar","setelement":"Los Sabinos"},{"postalCode":"63547","state":"Nayarit","municipality":"Del Nayar","setelement":"Los Tabacos"},{"postalCode":"63547","state":"Nayarit","municipality":"Del Nayar","setelement":"Mesa de los Cánare"},{"postalCode":"63547","state":"Nayarit","municipality":"Del Nayar","setelement":"Pajarillos"},{"postalCode":"63547","state":"Nayarit","municipality":"Del Nayar","setelement":"Pajaritos"},{"postalCode":"63547","state":"Nayarit","municipality":"Del Nayar","setelement":"Picachitos"},{"postalCode":"63547","state":"Nayarit","municipality":"Del Nayar","setelement":"Primer Paso"},{"postalCode":"63547","state":"Nayarit","municipality":"Del Nayar","setelement":"Rancho de Leandro Estrada"},{"postalCode":"63547","state":"Nayarit","municipality":"Del Nayar","setelement":"Rancho de Santos García"},{"postalCode":"63547","state":"Nayarit","municipality":"Del Nayar","setelement":"Zoquipilla"},{"postalCode":"63548","state":"Nayarit","municipality":"Del Nayar","setelement":"San Miguel del Zapote"},{"postalCode":"63548","state":"Nayarit","municipality":"Del Nayar","setelement":"Las Hormigas"},{"postalCode":"63548","state":"Nayarit","municipality":"Del Nayar","setelement":"Los Ciruelos"},{"postalCode":"63548","state":"Nayarit","municipality":"Del Nayar","setelement":"Arroyo de la Cueva"},{"postalCode":"63548","state":"Nayarit","municipality":"Del Nayar","setelement":"Arroyo del Capomo"},{"postalCode":"63548","state":"Nayarit","municipality":"Del Nayar","setelement":"Cerro de la Lluvia"},{"postalCode":"63548","state":"Nayarit","municipality":"Del Nayar","setelement":"Ciénega del Mango"},{"postalCode":"63548","state":"Nayarit","municipality":"Del Nayar","setelement":"Culebras"},{"postalCode":"63548","state":"Nayarit","municipality":"Del Nayar","setelement":"El Agua Caliente"},{"postalCode":"63548","state":"Nayarit","municipality":"Del Nayar","setelement":"El Arroyo del Tezcalame"},{"postalCode":"63548","state":"Nayarit","municipality":"Del Nayar","setelement":"El Gato Negro"},{"postalCode":"63548","state":"Nayarit","municipality":"Del Nayar","setelement":"El Camichín"},{"postalCode":"63548","state":"Nayarit","municipality":"Del Nayar","setelement":"El Carrizo"},{"postalCode":"63548","state":"Nayarit","municipality":"Del Nayar","setelement":"El Chalate"},{"postalCode":"63548","state":"Nayarit","municipality":"Del Nayar","setelement":"El Clavellino"},{"postalCode":"63548","state":"Nayarit","municipality":"Del Nayar","setelement":"El Faisán"},{"postalCode":"63548","state":"Nayarit","municipality":"Del Nayar","setelement":"El Izote"},{"postalCode":"63548","state":"Nayarit","municipality":"Del Nayar","setelement":"El Maguey"},{"postalCode":"63548","state":"Nayarit","municipality":"Del Nayar","setelement":"El Monte del Palo Cuate"},{"postalCode":"63548","state":"Nayarit","municipality":"Del Nayar","setelement":"El Nogal"},{"postalCode":"63548","state":"Nayarit","municipality":"Del Nayar","setelement":"El Papayito"},{"postalCode":"63548","state":"Nayarit","municipality":"Del Nayar","setelement":"El Pinito"},{"postalCode":"63548","state":"Nayarit","municipality":"Del Nayar","setelement":"El Puente de las Guayabas"},{"postalCode":"63548","state":"Nayarit","municipality":"Del Nayar","setelement":"El Tempisque"},{"postalCode":"63548","state":"Nayarit","municipality":"Del Nayar","setelement":"El Zapote"},{"postalCode":"63548","state":"Nayarit","municipality":"Del Nayar","setelement":"Gualsamayeta"},{"postalCode":"63548","state":"Nayarit","municipality":"Del Nayar","setelement":"Jazmín del Coquito"},{"postalCode":"63548","state":"Nayarit","municipality":"Del Nayar","setelement":"Jerónimo Melchor"},{"postalCode":"63548","state":"Nayarit","municipality":"Del Nayar","setelement":"La Ciénega"},{"postalCode":"63548","state":"Nayarit","municipality":"Del Nayar","setelement":"La Cueva Prieta"},{"postalCode":"63548","state":"Nayarit","municipality":"Del Nayar","setelement":"La Cumbre del Duraznito"},{"postalCode":"63548","state":"Nayarit","municipality":"Del Nayar","setelement":"La Ladrillera"},{"postalCode":"63548","state":"Nayarit","municipality":"Del Nayar","setelement":"La Nopalera"},{"postalCode":"63548","state":"Nayarit","municipality":"Del Nayar","setelement":"La Piedra del Cangrejo"},{"postalCode":"63548","state":"Nayarit","municipality":"Del Nayar","setelement":"La Puerta"},{"postalCode":"63548","state":"Nayarit","municipality":"Del Nayar","setelement":"Las Calandrias"},{"postalCode":"63548","state":"Nayarit","municipality":"Del Nayar","setelement":"Las Crucecitas"},{"postalCode":"63548","state":"Nayarit","municipality":"Del Nayar","setelement":"Las Estrellas"},{"postalCode":"63548","state":"Nayarit","municipality":"Del Nayar","setelement":"Las Iguanas"},{"postalCode":"63548","state":"Nayarit","municipality":"Del Nayar","setelement":"Las Maravillas"},{"postalCode":"63548","state":"Nayarit","municipality":"Del Nayar","setelement":"Las Ollas"},{"postalCode":"63548","state":"Nayarit","municipality":"Del Nayar","setelement":"Las Peñitas (Las Antenas)"},{"postalCode":"63548","state":"Nayarit","municipality":"Del Nayar","setelement":"Las Pestañas"},{"postalCode":"63548","state":"Nayarit","municipality":"Del Nayar","setelement":"Las Urracas"},{"postalCode":"63548","state":"Nayarit","municipality":"Del Nayar","setelement":"Los Aguacates"},{"postalCode":"63548","state":"Nayarit","municipality":"Del Nayar","setelement":"Los Aires"},{"postalCode":"63548","state":"Nayarit","municipality":"Del Nayar","setelement":"Los Arcos"},{"postalCode":"63548","state":"Nayarit","municipality":"Del Nayar","setelement":"Los Arrayanes"},{"postalCode":"63548","state":"Nayarit","municipality":"Del Nayar","setelement":"Los Banquitos"},{"postalCode":"63548","state":"Nayarit","municipality":"Del Nayar","setelement":"Los Ciruelitos"},{"postalCode":"63548","state":"Nayarit","municipality":"Del Nayar","setelement":"Los Fortines"},{"postalCode":"63548","state":"Nayarit","municipality":"Del Nayar","setelement":"Los Mangos"},{"postalCode":"63548","state":"Nayarit","municipality":"Del Nayar","setelement":"Los Zapotes"},{"postalCode":"63548","state":"Nayarit","municipality":"Del Nayar","setelement":"Melquiades de la Cruz Cuevas"},{"postalCode":"63548","state":"Nayarit","municipality":"Del Nayar","setelement":"Peñas Amarillas"},{"postalCode":"63548","state":"Nayarit","municipality":"Del Nayar","setelement":"Peñasco Blanco"},{"postalCode":"63548","state":"Nayarit","municipality":"Del Nayar","setelement":"Rancho de Eustorgio"},{"postalCode":"63548","state":"Nayarit","municipality":"Del Nayar","setelement":"Rancho de Ignacio (Los Fortines)"},{"postalCode":"63548","state":"Nayarit","municipality":"Del Nayar","setelement":"Rancho de la Cueva"},{"postalCode":"63548","state":"Nayarit","municipality":"Del Nayar","setelement":"Rancho de Mariano"},{"postalCode":"63548","state":"Nayarit","municipality":"Del Nayar","setelement":"Rancho de Pánfilo"},{"postalCode":"63548","state":"Nayarit","municipality":"Del Nayar","setelement":"San Gregorio"},{"postalCode":"63548","state":"Nayarit","municipality":"Del Nayar","setelement":"Santa Cruz de Guaybel"},{"postalCode":"63548","state":"Nayarit","municipality":"Del Nayar","setelement":"Ta Puaa Ta"},{"postalCode":"63548","state":"Nayarit","municipality":"Del Nayar","setelement":"Tierras Blancas"},{"postalCode":"63549","state":"Nayarit","municipality":"Del Nayar","setelement":"Coyultita"},{"postalCode":"63549","state":"Nayarit","municipality":"Del Nayar","setelement":"Coyunque"},{"postalCode":"63549","state":"Nayarit","municipality":"Del Nayar","setelement":"El Carrizo"},{"postalCode":"63549","state":"Nayarit","municipality":"Del Nayar","setelement":"El Guaco"},{"postalCode":"63549","state":"Nayarit","municipality":"Del Nayar","setelement":"El Nogal"},{"postalCode":"63549","state":"Nayarit","municipality":"Del Nayar","setelement":"El Sapo"},{"postalCode":"63549","state":"Nayarit","municipality":"Del Nayar","setelement":"El Tapeiste"},{"postalCode":"63549","state":"Nayarit","municipality":"Del Nayar","setelement":"El Tempisque"},{"postalCode":"63549","state":"Nayarit","municipality":"Del Nayar","setelement":"El Tenamaiste"},{"postalCode":"63549","state":"Nayarit","municipality":"Del Nayar","setelement":"El Tenamaste"},{"postalCode":"63549","state":"Nayarit","municipality":"Del Nayar","setelement":"El Tunaiste"},{"postalCode":"63549","state":"Nayarit","municipality":"Del Nayar","setelement":"Encino Colorado"},{"postalCode":"63549","state":"Nayarit","municipality":"Del Nayar","setelement":"La Cofradía"},{"postalCode":"63549","state":"Nayarit","municipality":"Del Nayar","setelement":"La Cortadilla"},{"postalCode":"63549","state":"Nayarit","municipality":"Del Nayar","setelement":"La Nopalera"},{"postalCode":"63549","state":"Nayarit","municipality":"Del Nayar","setelement":"Las Hormigas"},{"postalCode":"63549","state":"Nayarit","municipality":"Del Nayar","setelement":"Las Jabas"},{"postalCode":"63549","state":"Nayarit","municipality":"Del Nayar","setelement":"Las Tortugas"},{"postalCode":"63549","state":"Nayarit","municipality":"Del Nayar","setelement":"Los Banquitos"},{"postalCode":"63549","state":"Nayarit","municipality":"Del Nayar","setelement":"Los Encinos"},{"postalCode":"63549","state":"Nayarit","municipality":"Del Nayar","setelement":"Los Llanitos"},{"postalCode":"63549","state":"Nayarit","municipality":"Del Nayar","setelement":"Los Llanitos"},{"postalCode":"63549","state":"Nayarit","municipality":"Del Nayar","setelement":"Naute"},{"postalCode":"63549","state":"Nayarit","municipality":"Del Nayar","setelement":"Ojo de Agua"},{"postalCode":"63549","state":"Nayarit","municipality":"Del Nayar","setelement":"Platanitos"},{"postalCode":"63549","state":"Nayarit","municipality":"Del Nayar","setelement":"Las Lechuguillas"},{"postalCode":"63549","state":"Nayarit","municipality":"Del Nayar","setelement":"Tapanco"},{"postalCode":"63549","state":"Nayarit","municipality":"Del Nayar","setelement":"Tierras Blancas"},{"postalCode":"63549","state":"Nayarit","municipality":"Del Nayar","setelement":"Tierras Blancas"},{"postalCode":"63550","state":"Nayarit","municipality":"Santiago Ixcuintla","setelement":"Morelos"},{"postalCode":"63550","state":"Nayarit","municipality":"Santiago Ixcuintla","setelement":"Miguel Hidalgo"},{"postalCode":"63550","state":"Nayarit","municipality":"Santiago Ixcuintla","setelement":"Leyes de Reforma"},{"postalCode":"63550","state":"Nayarit","municipality":"Santiago Ixcuintla","setelement":"Las Colonias"},{"postalCode":"63550","state":"Nayarit","municipality":"Santiago Ixcuintla","setelement":"José Martínez Escobedo"},{"postalCode":"63550","state":"Nayarit","municipality":"Santiago Ixcuintla","setelement":"Amado Nervo"},{"postalCode":"63550","state":"Nayarit","municipality":"Santiago Ixcuintla","setelement":"Villa Hidalgo Centro"},{"postalCode":"63550","state":"Nayarit","municipality":"Santiago Ixcuintla","setelement":"Villa de Guadalupe"},{"postalCode":"63550","state":"Nayarit","municipality":"Santiago Ixcuintla","setelement":"Solorceño"},{"postalCode":"63550","state":"Nayarit","municipality":"Santiago Ixcuintla","setelement":"San Antonio"},{"postalCode":"63550","state":"Nayarit","municipality":"Santiago Ixcuintla","setelement":"Santa Cecilia"},{"postalCode":"63550","state":"Nayarit","municipality":"Santiago Ixcuintla","setelement":"Emiliano Zapata"},{"postalCode":"63550","state":"Nayarit","municipality":"Santiago Ixcuintla","setelement":"Talpita"},{"postalCode":"63550","state":"Nayarit","municipality":"Santiago Ixcuintla","setelement":"Crispín Duran Z"},{"postalCode":"63550","state":"Nayarit","municipality":"Santiago Ixcuintla","setelement":"Roma"},{"postalCode":"63550","state":"Nayarit","municipality":"Santiago Ixcuintla","setelement":"Benito Juárez"},{"postalCode":"63550","state":"Nayarit","municipality":"Santiago Ixcuintla","setelement":"San José"},{"postalCode":"63550","state":"Nayarit","municipality":"Santiago Ixcuintla","setelement":"San Martín"},{"postalCode":"63550","state":"Nayarit","municipality":"Santiago Ixcuintla","setelement":"La Nayarita"},{"postalCode":"63552","state":"Nayarit","municipality":"Santiago Ixcuintla","setelement":"Loma Bonita"},{"postalCode":"63552","state":"Nayarit","municipality":"Santiago Ixcuintla","setelement":"El Novillero"},{"postalCode":"63552","state":"Nayarit","municipality":"Santiago Ixcuintla","setelement":"El Puente"},{"postalCode":"63552","state":"Nayarit","municipality":"Santiago Ixcuintla","setelement":"Ojos de Agua"},{"postalCode":"63552","state":"Nayarit","municipality":"Santiago Ixcuintla","setelement":"Paredones (La Punta de la Laguna)"},{"postalCode":"63552","state":"Nayarit","municipality":"Santiago Ixcuintla","setelement":"Puerta Azul"},{"postalCode":"63552","state":"Nayarit","municipality":"Santiago Ixcuintla","setelement":"Valle Morelos"},{"postalCode":"63552","state":"Nayarit","municipality":"Santiago Ixcuintla","setelement":"Emiliano Zapata"},{"postalCode":"63552","state":"Nayarit","municipality":"Santiago Ixcuintla","setelement":"Pozo de Villa"},{"postalCode":"63553","state":"Nayarit","municipality":"Santiago Ixcuintla","setelement":"San Isidro"},{"postalCode":"63553","state":"Nayarit","municipality":"Santiago Ixcuintla","setelement":"Valle Zaragoza"},{"postalCode":"63553","state":"Nayarit","municipality":"Santiago Ixcuintla","setelement":"18 de Septiembre"},{"postalCode":"63554","state":"Nayarit","municipality":"Santiago Ixcuintla","setelement":"El Carrizo"},{"postalCode":"63554","state":"Nayarit","municipality":"Santiago Ixcuintla","setelement":"Cerritos"},{"postalCode":"63554","state":"Nayarit","municipality":"Santiago Ixcuintla","setelement":"Gavilán Grande"},{"postalCode":"63554","state":"Nayarit","municipality":"Santiago Ixcuintla","setelement":"Amapa"},{"postalCode":"63555","state":"Nayarit","municipality":"Santiago Ixcuintla","setelement":"Marcos Cárdenas"},{"postalCode":"63555","state":"Nayarit","municipality":"Santiago Ixcuintla","setelement":"Olímpica"},{"postalCode":"63555","state":"Nayarit","municipality":"Santiago Ixcuintla","setelement":"Talpita"},{"postalCode":"63555","state":"Nayarit","municipality":"Santiago Ixcuintla","setelement":"La Presa Centro"},{"postalCode":"63556","state":"Nayarit","municipality":"Santiago Ixcuintla","setelement":"Pozo de Ibarra"},{"postalCode":"63556","state":"Nayarit","municipality":"Santiago Ixcuintla","setelement":"El Limón"},{"postalCode":"63557","state":"Nayarit","municipality":"Santiago Ixcuintla","setelement":"El Papalote"},{"postalCode":"63558","state":"Nayarit","municipality":"Santiago Ixcuintla","setelement":"Vado del Cora"},{"postalCode":"63558","state":"Nayarit","municipality":"Santiago Ixcuintla","setelement":"Vado del Cora (Estación Pani)"},{"postalCode":"63558","state":"Nayarit","municipality":"Santiago Ixcuintla","setelement":"El Tambor"},{"postalCode":"63559","state":"Nayarit","municipality":"Santiago Ixcuintla","setelement":"Crucero de Villa Hidalgo"},{"postalCode":"63559","state":"Nayarit","municipality":"Santiago Ixcuintla","setelement":"Crucero las Higueras"},{"postalCode":"63559","state":"Nayarit","municipality":"Santiago Ixcuintla","setelement":"Crucero Bonfil"},{"postalCode":"63559","state":"Nayarit","municipality":"Santiago Ixcuintla","setelement":"Parque Industrial El Tizate"},{"postalCode":"63559","state":"Nayarit","municipality":"Santiago Ixcuintla","setelement":"Valle Lerma"},{"postalCode":"63559","state":"Nayarit","municipality":"Santiago Ixcuintla","setelement":"Las Higueras"},{"postalCode":"63559","state":"Nayarit","municipality":"Santiago Ixcuintla","setelement":"Mojarritas"},{"postalCode":"63559","state":"Nayarit","municipality":"Santiago Ixcuintla","setelement":"Estación Nanchi (Peñasquillo)"},{"postalCode":"63560","state":"Nayarit","municipality":"Santiago Ixcuintla","setelement":"La Quinta (El Rancho de la Higuera)"},{"postalCode":"63560","state":"Nayarit","municipality":"Santiago Ixcuintla","setelement":"Santa Cruz"},{"postalCode":"63561","state":"Nayarit","municipality":"Santiago Ixcuintla","setelement":"Cañada Grande"},{"postalCode":"63561","state":"Nayarit","municipality":"Santiago Ixcuintla","setelement":"Sinaloa"},{"postalCode":"63561","state":"Nayarit","municipality":"Santiago Ixcuintla","setelement":"La Higuerita (La Escondida)"},{"postalCode":"63561","state":"Nayarit","municipality":"Santiago Ixcuintla","setelement":"Rancho Nuevo"},{"postalCode":"63561","state":"Nayarit","municipality":"Santiago Ixcuintla","setelement":"San Andrés"},{"postalCode":"63561","state":"Nayarit","municipality":"Santiago Ixcuintla","setelement":"Las Labores"},{"postalCode":"63561","state":"Nayarit","municipality":"Santiago Ixcuintla","setelement":"Mayorquín"},{"postalCode":"63562","state":"Nayarit","municipality":"Santiago Ixcuintla","setelement":"El Famoso"},{"postalCode":"63562","state":"Nayarit","municipality":"Santiago Ixcuintla","setelement":"Puerta de Palapares"},{"postalCode":"63563","state":"Nayarit","municipality":"Santiago Ixcuintla","setelement":"San Vicente"},{"postalCode":"63563","state":"Nayarit","municipality":"Santiago Ixcuintla","setelement":"El Nuevo Mexcaltitán"},{"postalCode":"63563","state":"Nayarit","municipality":"Santiago Ixcuintla","setelement":"Mexcaltitán de Uribe"},{"postalCode":"63564","state":"Nayarit","municipality":"Santiago Ixcuintla","setelement":"El Mezcal"},{"postalCode":"63565","state":"Nayarit","municipality":"Santiago Ixcuintla","setelement":"El Estero"},{"postalCode":"63565","state":"Nayarit","municipality":"Santiago Ixcuintla","setelement":"4 de Octubre"},{"postalCode":"63565","state":"Nayarit","municipality":"Santiago Ixcuintla","setelement":"San Miguel Número Dos (El Quemado)"},{"postalCode":"63565","state":"Nayarit","municipality":"Santiago Ixcuintla","setelement":"Los Pérez"},{"postalCode":"63565","state":"Nayarit","municipality":"Santiago Ixcuintla","setelement":"Aztlán de las Garzas"},{"postalCode":"63565","state":"Nayarit","municipality":"Santiago Ixcuintla","setelement":"Campo de los Limones"},{"postalCode":"63565","state":"Nayarit","municipality":"Santiago Ixcuintla","setelement":"Gavilán Chico"},{"postalCode":"63565","state":"Nayarit","municipality":"Santiago Ixcuintla","setelement":"Sentispac"},{"postalCode":"63567","state":"Nayarit","municipality":"Santiago Ixcuintla","setelement":"El Capomal"},{"postalCode":"63568","state":"Nayarit","municipality":"Santiago Ixcuintla","setelement":"Palmar de Cuautla"},{"postalCode":"63570","state":"Nayarit","municipality":"Santiago Ixcuintla","setelement":"La Guinea"},{"postalCode":"63570","state":"Nayarit","municipality":"Santiago Ixcuintla","setelement":"Sauta"},{"postalCode":"63573","state":"Nayarit","municipality":"Santiago Ixcuintla","setelement":"Playa el Sesteo"},{"postalCode":"63573","state":"Nayarit","municipality":"Santiago Ixcuintla","setelement":"Boca de Camichín"},{"postalCode":"63573","state":"Nayarit","municipality":"Santiago Ixcuintla","setelement":"Los Corchos"},{"postalCode":"63573","state":"Nayarit","municipality":"Santiago Ixcuintla","setelement":"Toro Mocho"},{"postalCode":"63575","state":"Nayarit","municipality":"Santiago Ixcuintla","setelement":"Patroneño I"},{"postalCode":"63575","state":"Nayarit","municipality":"Santiago Ixcuintla","setelement":"El Botadero"},{"postalCode":"63575","state":"Nayarit","municipality":"Santiago Ixcuintla","setelement":"Pueblo Nuevo"},{"postalCode":"63576","state":"Nayarit","municipality":"Santiago Ixcuintla","setelement":"El Corte (El Tuchi)"},{"postalCode":"63576","state":"Nayarit","municipality":"Santiago Ixcuintla","setelement":"El Turco"},{"postalCode":"63577","state":"Nayarit","municipality":"Santiago Ixcuintla","setelement":"Puerta de Mangos"},{"postalCode":"63578","state":"Nayarit","municipality":"Santiago Ixcuintla","setelement":"Los Otates"},{"postalCode":"63578","state":"Nayarit","municipality":"Santiago Ixcuintla","setelement":"Cañada del Tabaco"},{"postalCode":"63578","state":"Nayarit","municipality":"Santiago Ixcuintla","setelement":"Santa Rosa"},{"postalCode":"63579","state":"Nayarit","municipality":"Santiago Ixcuintla","setelement":"Villa Juárez"},{"postalCode":"63580","state":"Nayarit","municipality":"La Yesca","setelement":"La Yesca"},{"postalCode":"63582","state":"Nayarit","municipality":"La Yesca","setelement":"San Juan Ixtapalapa"},{"postalCode":"63582","state":"Nayarit","municipality":"La Yesca","setelement":"San Pelayo"},{"postalCode":"63583","state":"Nayarit","municipality":"La Yesca","setelement":"Los Suspiros"},{"postalCode":"63583","state":"Nayarit","municipality":"La Yesca","setelement":"El Izote"},{"postalCode":"63583","state":"Nayarit","municipality":"La Yesca","setelement":"La Cofradía"},{"postalCode":"63583","state":"Nayarit","municipality":"La Yesca","setelement":"Mesa de los Saucedos"},{"postalCode":"63583","state":"Nayarit","municipality":"La Yesca","setelement":"Las Higueras"},{"postalCode":"63583","state":"Nayarit","municipality":"La Yesca","setelement":"Popota"},{"postalCode":"63584","state":"Nayarit","municipality":"La Yesca","setelement":"El Pinal"},{"postalCode":"63584","state":"Nayarit","municipality":"La Yesca","setelement":"El Limón"},{"postalCode":"63584","state":"Nayarit","municipality":"La Yesca","setelement":"Amatlán de Jora"},{"postalCode":"63584","state":"Nayarit","municipality":"La Yesca","setelement":"Hacienda de Ambas Aguas"},{"postalCode":"63584","state":"Nayarit","municipality":"La Yesca","setelement":"La Ciénega"},{"postalCode":"63584","state":"Nayarit","municipality":"La Yesca","setelement":"El Jirón"},{"postalCode":"63584","state":"Nayarit","municipality":"La Yesca","setelement":"El Carrizal"},{"postalCode":"63586","state":"Nayarit","municipality":"La Yesca","setelement":"La Piedra Picada"},{"postalCode":"63586","state":"Nayarit","municipality":"La Yesca","setelement":"El Carrizal"},{"postalCode":"63586","state":"Nayarit","municipality":"La Yesca","setelement":"Palmillas"},{"postalCode":"63586","state":"Nayarit","municipality":"La Yesca","setelement":"La Ciénega"},{"postalCode":"63586","state":"Nayarit","municipality":"La Yesca","setelement":"La Playa"},{"postalCode":"63586","state":"Nayarit","municipality":"La Yesca","setelement":"Guanacaste"},{"postalCode":"63586","state":"Nayarit","municipality":"La Yesca","setelement":"La Cuchilla"},{"postalCode":"63586","state":"Nayarit","municipality":"La Yesca","setelement":"La Palmita"},{"postalCode":"63586","state":"Nayarit","municipality":"La Yesca","setelement":"La Guasimera"},{"postalCode":"63587","state":"Nayarit","municipality":"La Yesca","setelement":"Cortapico"},{"postalCode":"63587","state":"Nayarit","municipality":"La Yesca","setelement":"Apozolco"},{"postalCode":"63587","state":"Nayarit","municipality":"La Yesca","setelement":"El Pinole"},{"postalCode":"63587","state":"Nayarit","municipality":"La Yesca","setelement":"La Cueva Blanca"},{"postalCode":"63587","state":"Nayarit","municipality":"La Yesca","setelement":"Los Encantos"},{"postalCode":"63590","state":"Nayarit","municipality":"La Yesca","setelement":"Batallón"},{"postalCode":"63590","state":"Nayarit","municipality":"La Yesca","setelement":"Puente de Camotlán"},{"postalCode":"63593","state":"Nayarit","municipality":"La Yesca","setelement":"Mesa del Tirador"},{"postalCode":"63593","state":"Nayarit","municipality":"La Yesca","setelement":"El Jazmín"},{"postalCode":"63594","state":"Nayarit","municipality":"La Yesca","setelement":"La Manga"},{"postalCode":"63594","state":"Nayarit","municipality":"La Yesca","setelement":"El Trapiche"},{"postalCode":"63595","state":"Nayarit","municipality":"La Yesca","setelement":"Las Jaras"},{"postalCode":"63595","state":"Nayarit","municipality":"La Yesca","setelement":"Huajimic"},{"postalCode":"63595","state":"Nayarit","municipality":"La Yesca","setelement":"Buenavista"},{"postalCode":"63596","state":"Nayarit","municipality":"La Yesca","setelement":"Guadalupe Ocotán"},{"postalCode":"63596","state":"Nayarit","municipality":"La Yesca","setelement":"Ocota de la Sierra"},{"postalCode":"63596","state":"Nayarit","municipality":"La Yesca","setelement":"Mesa de Chapalilla"},{"postalCode":"63596","state":"Nayarit","municipality":"La Yesca","setelement":"22 de Enero"},{"postalCode":"63596","state":"Nayarit","municipality":"La Yesca","setelement":"Cebolletas (El Maguey)"},{"postalCode":"63596","state":"Nayarit","municipality":"La Yesca","setelement":"El Mirador"},{"postalCode":"63596","state":"Nayarit","municipality":"La Yesca","setelement":"Tierra Amarilla"},{"postalCode":"63596","state":"Nayarit","municipality":"La Yesca","setelement":"El Mezquite"},{"postalCode":"63596","state":"Nayarit","municipality":"La Yesca","setelement":"Las Palomas"},{"postalCode":"63596","state":"Nayarit","municipality":"La Yesca","setelement":"La Mesa"},{"postalCode":"63597","state":"Nayarit","municipality":"La Yesca","setelement":"Ayotita"},{"postalCode":"63600","state":"Nayarit","municipality":"Ruíz","setelement":"Vado de San Pedro"},{"postalCode":"63603","state":"Nayarit","municipality":"Ruíz","setelement":"Crucero de Ruiz"},{"postalCode":"63603","state":"Nayarit","municipality":"Ruíz","setelement":"El Capomo"},{"postalCode":"63603","state":"Nayarit","municipality":"Ruíz","setelement":"El Chalán"},{"postalCode":"63603","state":"Nayarit","municipality":"Ruíz","setelement":"La Frontera"},{"postalCode":"63604","state":"Nayarit","municipality":"Ruíz","setelement":"Heroico Batallón de San Blas (La Noria)"},{"postalCode":"63604","state":"Nayarit","municipality":"Ruíz","setelement":"Salvador Allende (Las Labradas)"},{"postalCode":"63605","state":"Nayarit","municipality":"Ruíz","setelement":"Laguna del Mar"},{"postalCode":"63605","state":"Nayarit","municipality":"Ruíz","setelement":"San Lorenzo"},{"postalCode":"63605","state":"Nayarit","municipality":"Ruíz","setelement":"La Jarretadera"},{"postalCode":"63605","state":"Nayarit","municipality":"Ruíz","setelement":"Crucero de Jarretadera (El Manguito)"},{"postalCode":"63605","state":"Nayarit","municipality":"Ruíz","setelement":"Crucero de la Laguna"},{"postalCode":"63605","state":"Nayarit","municipality":"Ruíz","setelement":"El Mirador"},{"postalCode":"63605","state":"Nayarit","municipality":"Ruíz","setelement":"El Veinticinco (El Topete)"},{"postalCode":"63605","state":"Nayarit","municipality":"Ruíz","setelement":"El Venadito"},{"postalCode":"63605","state":"Nayarit","municipality":"Ruíz","setelement":"La Soledad"},{"postalCode":"63605","state":"Nayarit","municipality":"Ruíz","setelement":"Los Veranos"},{"postalCode":"63605","state":"Nayarit","municipality":"Ruíz","setelement":"Pajaritos"},{"postalCode":"63605","state":"Nayarit","municipality":"Ruíz","setelement":"Alfonso Vidal (El Mirador)"},{"postalCode":"63606","state":"Nayarit","municipality":"Ruíz","setelement":"Juan Escutia"},{"postalCode":"63606","state":"Nayarit","municipality":"Ruíz","setelement":"El Duende"},{"postalCode":"63606","state":"Nayarit","municipality":"Ruíz","setelement":"El Guarichi"},{"postalCode":"63607","state":"Nayarit","municipality":"Ruíz","setelement":"La Limonera (Las Higueras)"},{"postalCode":"63607","state":"Nayarit","municipality":"Ruíz","setelement":"La Mojonera"},{"postalCode":"63610","state":"Nayarit","municipality":"Ruíz","setelement":"El Venado"},{"postalCode":"63613","state":"Nayarit","municipality":"Ruíz","setelement":"Puerta de Platanares"},{"postalCode":"63613","state":"Nayarit","municipality":"Ruíz","setelement":"Los Llanitos (Los Rivera)"},{"postalCode":"63614","state":"Nayarit","municipality":"Ruíz","setelement":"El Zopilote"},{"postalCode":"63614","state":"Nayarit","municipality":"Ruíz","setelement":"El Coquito"},{"postalCode":"63614","state":"Nayarit","municipality":"Ruíz","setelement":"El Veloz"},{"postalCode":"63614","state":"Nayarit","municipality":"Ruíz","setelement":"La Embocada del Tenamache"},{"postalCode":"63614","state":"Nayarit","municipality":"Ruíz","setelement":"La Minera Nival"},{"postalCode":"63614","state":"Nayarit","municipality":"Ruíz","setelement":"Lagunitas de Ventanas"},{"postalCode":"63614","state":"Nayarit","municipality":"Ruíz","setelement":"Planes de Guadalupe"},{"postalCode":"63614","state":"Nayarit","municipality":"Ruíz","setelement":"Santo Domingo"},{"postalCode":"63615","state":"Nayarit","municipality":"Ruíz","setelement":"La Bolita"},{"postalCode":"63615","state":"Nayarit","municipality":"Ruíz","setelement":"El Carrizal"},{"postalCode":"63615","state":"Nayarit","municipality":"Ruíz","setelement":"El Refugio"},{"postalCode":"63616","state":"Nayarit","municipality":"Ruíz","setelement":"Cordón del Jilguero"},{"postalCode":"63616","state":"Nayarit","municipality":"Ruíz","setelement":"El Paraíso"},{"postalCode":"63616","state":"Nayarit","municipality":"Ruíz","setelement":"El Taixte"},{"postalCode":"63616","state":"Nayarit","municipality":"Ruíz","setelement":"El Volantín"},{"postalCode":"63617","state":"Nayarit","municipality":"Ruíz","setelement":"Anastacio Flores"},{"postalCode":"63617","state":"Nayarit","municipality":"Ruíz","setelement":"Andrés Lamas"},{"postalCode":"63617","state":"Nayarit","municipality":"Ruíz","setelement":"Chimaltita"},{"postalCode":"63617","state":"Nayarit","municipality":"Ruíz","setelement":"El Banco"},{"postalCode":"63617","state":"Nayarit","municipality":"Ruíz","setelement":"El Guajolote"},{"postalCode":"63617","state":"Nayarit","municipality":"Ruíz","setelement":"Huicot (Villa Hermosa)"},{"postalCode":"63617","state":"Nayarit","municipality":"Ruíz","setelement":"La Sanguijuela"},{"postalCode":"63617","state":"Nayarit","municipality":"Ruíz","setelement":"Las Planillas"},{"postalCode":"63617","state":"Nayarit","municipality":"Ruíz","setelement":"Los Limos"},{"postalCode":"63617","state":"Nayarit","municipality":"Ruíz","setelement":"Los Tepehuanos"},{"postalCode":"63618","state":"Nayarit","municipality":"Ruíz","setelement":"El Carrizo"},{"postalCode":"63618","state":"Nayarit","municipality":"Ruíz","setelement":"El Naranjo"},{"postalCode":"63618","state":"Nayarit","municipality":"Ruíz","setelement":"El Camichín (La Roblera)"},{"postalCode":"63618","state":"Nayarit","municipality":"Ruíz","setelement":"El Crucero de los Sauces"},{"postalCode":"63618","state":"Nayarit","municipality":"Ruíz","setelement":"El Guanacaste"},{"postalCode":"63618","state":"Nayarit","municipality":"Ruíz","setelement":"El Limón"},{"postalCode":"63618","state":"Nayarit","municipality":"Ruíz","setelement":"El Limoncito"},{"postalCode":"63618","state":"Nayarit","municipality":"Ruíz","setelement":"El Manguito"},{"postalCode":"63618","state":"Nayarit","municipality":"Ruíz","setelement":"El Otatillo"},{"postalCode":"63618","state":"Nayarit","municipality":"Ruíz","setelement":"El Pino"},{"postalCode":"63618","state":"Nayarit","municipality":"Ruíz","setelement":"El Sombrero"},{"postalCode":"63618","state":"Nayarit","municipality":"Ruíz","setelement":"Huiscóyotl"},{"postalCode":"63618","state":"Nayarit","municipality":"Ruíz","setelement":"La Majada del Huanacaxtle"},{"postalCode":"63618","state":"Nayarit","municipality":"Ruíz","setelement":"La Petaquilla"},{"postalCode":"63618","state":"Nayarit","municipality":"Ruíz","setelement":"La Tepamera"},{"postalCode":"63618","state":"Nayarit","municipality":"Ruíz","setelement":"La Trompeta"},{"postalCode":"63618","state":"Nayarit","municipality":"Ruíz","setelement":"La Yerbabuena"},{"postalCode":"63618","state":"Nayarit","municipality":"Ruíz","setelement":"Las Adjuntas"},{"postalCode":"63618","state":"Nayarit","municipality":"Ruíz","setelement":"Las Majadas"},{"postalCode":"63618","state":"Nayarit","municipality":"Ruíz","setelement":"Los Cimientos"},{"postalCode":"63618","state":"Nayarit","municipality":"Ruíz","setelement":"Los Cuernitos"},{"postalCode":"63618","state":"Nayarit","municipality":"Ruíz","setelement":"Los Sauces"},{"postalCode":"63618","state":"Nayarit","municipality":"Ruíz","setelement":"La Estaca"},{"postalCode":"63618","state":"Nayarit","municipality":"Ruíz","setelement":"Pancho Guardado"},{"postalCode":"63618","state":"Nayarit","municipality":"Ruíz","setelement":"Silvestre Trinidad"},{"postalCode":"63619","state":"Nayarit","municipality":"Ruíz","setelement":"Ixcatán del Pozolillo"},{"postalCode":"63619","state":"Nayarit","municipality":"Ruíz","setelement":"San Pedro Ixcatán"},{"postalCode":"63619","state":"Nayarit","municipality":"Ruíz","setelement":"Presidio de los Reyes"},{"postalCode":"63619","state":"Nayarit","municipality":"Ruíz","setelement":"El Agua Caliente"},{"postalCode":"63619","state":"Nayarit","municipality":"Ruíz","setelement":"El Limón"},{"postalCode":"63619","state":"Nayarit","municipality":"Ruíz","setelement":"El Tempizque"},{"postalCode":"63619","state":"Nayarit","municipality":"Ruíz","setelement":"El Zapote"},{"postalCode":"63619","state":"Nayarit","municipality":"Ruíz","setelement":"Huiscóyotl"},{"postalCode":"63619","state":"Nayarit","municipality":"Ruíz","setelement":"La Ceiba"},{"postalCode":"63619","state":"Nayarit","municipality":"Ruíz","setelement":"La Encinera"},{"postalCode":"63619","state":"Nayarit","municipality":"Ruíz","setelement":"La Loma del Toro"},{"postalCode":"63619","state":"Nayarit","municipality":"Ruíz","setelement":"Los Arrayanes"},{"postalCode":"63619","state":"Nayarit","municipality":"Ruíz","setelement":"Los Cajones"},{"postalCode":"63619","state":"Nayarit","municipality":"Ruíz","setelement":"Prisciliano Flores"},{"postalCode":"63619","state":"Nayarit","municipality":"Ruíz","setelement":"René Salas"},{"postalCode":"63620","state":"Nayarit","municipality":"Ruíz","setelement":"Centro"},{"postalCode":"63622","state":"Nayarit","municipality":"Ruíz","setelement":"Rey Nayar"},{"postalCode":"63622","state":"Nayarit","municipality":"Ruíz","setelement":"El Panteón"},{"postalCode":"63622","state":"Nayarit","municipality":"Ruíz","setelement":"La Redonda"},{"postalCode":"63623","state":"Nayarit","municipality":"Ruíz","setelement":"Talpita"},{"postalCode":"63623","state":"Nayarit","municipality":"Ruíz","setelement":"El Capomal"},{"postalCode":"63623","state":"Nayarit","municipality":"Ruíz","setelement":"Emilio M. González"},{"postalCode":"63625","state":"Nayarit","municipality":"Ruíz","setelement":"Tijuanita"},{"postalCode":"63625","state":"Nayarit","municipality":"Ruíz","setelement":"San Antonio"},{"postalCode":"63626","state":"Nayarit","municipality":"Ruíz","setelement":"Tiro al Blanco"},{"postalCode":"63626","state":"Nayarit","municipality":"Ruíz","setelement":"Cerro de la Cruz"},{"postalCode":"63626","state":"Nayarit","municipality":"Ruíz","setelement":"El Rastro"},{"postalCode":"63626","state":"Nayarit","municipality":"Ruíz","setelement":"Unidad Deportiva"},{"postalCode":"63627","state":"Nayarit","municipality":"Ruíz","setelement":"Benito Juárez"},{"postalCode":"63628","state":"Nayarit","municipality":"Ruíz","setelement":"Lindavista"},{"postalCode":"63628","state":"Nayarit","municipality":"Ruíz","setelement":"Achota"},{"postalCode":"63630","state":"Nayarit","municipality":"Rosamorada","setelement":"Caminera"},{"postalCode":"63630","state":"Nayarit","municipality":"Rosamorada","setelement":"Rosamorada Centro"},{"postalCode":"63630","state":"Nayarit","municipality":"Rosamorada","setelement":"Agua Caliente"},{"postalCode":"63630","state":"Nayarit","municipality":"Rosamorada","setelement":"Las Lajitas"},{"postalCode":"63630","state":"Nayarit","municipality":"Rosamorada","setelement":"El Rastro"},{"postalCode":"63630","state":"Nayarit","municipality":"Rosamorada","setelement":"Insurgentes"},{"postalCode":"63630","state":"Nayarit","municipality":"Rosamorada","setelement":"La Pila"},{"postalCode":"63633","state":"Nayarit","municipality":"Rosamorada","setelement":"Abelardo L. Rodríguez (Amapa)"},{"postalCode":"63633","state":"Nayarit","municipality":"Rosamorada","setelement":"Pescadero"},{"postalCode":"63633","state":"Nayarit","municipality":"Rosamorada","setelement":"Francisco Villa"},{"postalCode":"63634","state":"Nayarit","municipality":"Rosamorada","setelement":"Bonita"},{"postalCode":"63634","state":"Nayarit","municipality":"Rosamorada","setelement":"Lázaro Cárdenas"},{"postalCode":"63634","state":"Nayarit","municipality":"Rosamorada","setelement":"Providencia"},{"postalCode":"63634","state":"Nayarit","municipality":"Rosamorada","setelement":"Teponahuaxtla (Huaixta)"},{"postalCode":"63634","state":"Nayarit","municipality":"Rosamorada","setelement":"Cerro Verde"},{"postalCode":"63634","state":"Nayarit","municipality":"Rosamorada","setelement":"Copales"},{"postalCode":"63634","state":"Nayarit","municipality":"Rosamorada","setelement":"Crucero Providencia"},{"postalCode":"63634","state":"Nayarit","municipality":"Rosamorada","setelement":"Las Adelitas"},{"postalCode":"63634","state":"Nayarit","municipality":"Rosamorada","setelement":"Las Anonas"},{"postalCode":"63634","state":"Nayarit","municipality":"Rosamorada","setelement":"Los Horcones"},{"postalCode":"63634","state":"Nayarit","municipality":"Rosamorada","setelement":"Los Petates"},{"postalCode":"63634","state":"Nayarit","municipality":"Rosamorada","setelement":"El Camionero [Restaurante]"},{"postalCode":"63635","state":"Nayarit","municipality":"Rosamorada","setelement":"Cofradía de Cuyutlán"},{"postalCode":"63635","state":"Nayarit","municipality":"Rosamorada","setelement":"Los Arrayanes"},{"postalCode":"63635","state":"Nayarit","municipality":"Rosamorada","setelement":"Paramita"},{"postalCode":"63635","state":"Nayarit","municipality":"Rosamorada","setelement":"San Juan Bautista"},{"postalCode":"63635","state":"Nayarit","municipality":"Rosamorada","setelement":"San Marcos Cuyutlán"},{"postalCode":"63635","state":"Nayarit","municipality":"Rosamorada","setelement":"El Cuatante"},{"postalCode":"63635","state":"Nayarit","municipality":"Rosamorada","setelement":"Los Cinco Hermanos"},{"postalCode":"63636","state":"Nayarit","municipality":"Rosamorada","setelement":"Llano del Tigre"},{"postalCode":"63636","state":"Nayarit","municipality":"Rosamorada","setelement":"San Miguelito"},{"postalCode":"63637","state":"Nayarit","municipality":"Rosamorada","setelement":"Chilapa"},{"postalCode":"63637","state":"Nayarit","municipality":"Rosamorada","setelement":"Zomatlán del Caimanero"},{"postalCode":"63637","state":"Nayarit","municipality":"Rosamorada","setelement":"Colonias 18 de Marzo"},{"postalCode":"63637","state":"Nayarit","municipality":"Rosamorada","setelement":"Crucero a Zomatlán"},{"postalCode":"63637","state":"Nayarit","municipality":"Rosamorada","setelement":"El Mil"},{"postalCode":"63637","state":"Nayarit","municipality":"Rosamorada","setelement":"Huerta Paula Sojo"},{"postalCode":"63638","state":"Nayarit","municipality":"Rosamorada","setelement":"Minitas"},{"postalCode":"63638","state":"Nayarit","municipality":"Rosamorada","setelement":"Las Pilas"},{"postalCode":"63638","state":"Nayarit","municipality":"Rosamorada","setelement":"El Potro"},{"postalCode":"63638","state":"Nayarit","municipality":"Rosamorada","setelement":"Rancho de Ramón Ibarra"},{"postalCode":"63640","state":"Nayarit","municipality":"Rosamorada","setelement":"La Boquita"},{"postalCode":"63640","state":"Nayarit","municipality":"Rosamorada","setelement":"Los Medina"},{"postalCode":"63640","state":"Nayarit","municipality":"Rosamorada","setelement":"Vicente Guerrero (El Mogote)"},{"postalCode":"63640","state":"Nayarit","municipality":"Rosamorada","setelement":"Crucero de los Medina"},{"postalCode":"63640","state":"Nayarit","municipality":"Rosamorada","setelement":"Rancho de Miguel Sosa (Crucero de Pericos)"},{"postalCode":"63643","state":"Nayarit","municipality":"Rosamorada","setelement":"Pericos"},{"postalCode":"63644","state":"Nayarit","municipality":"Rosamorada","setelement":"Pimientillo"},{"postalCode":"63644","state":"Nayarit","municipality":"Rosamorada","setelement":"El Chirimoyo [Embarcadero]"},{"postalCode":"63644","state":"Nayarit","municipality":"Rosamorada","setelement":"Los Espejos [Embarcadero]"},{"postalCode":"63644","state":"Nayarit","municipality":"Rosamorada","setelement":"Francisco Contreras [Granja Camaronera]"},{"postalCode":"63644","state":"Nayarit","municipality":"Rosamorada","setelement":"Los Espejos [Granja Camaronera]"},{"postalCode":"63645","state":"Nayarit","municipality":"Rosamorada","setelement":"20 noviembre"},{"postalCode":"63645","state":"Nayarit","municipality":"Rosamorada","setelement":"San Vicente Centro"},{"postalCode":"63645","state":"Nayarit","municipality":"Rosamorada","setelement":"16 de Septiembre"},{"postalCode":"63645","state":"Nayarit","municipality":"Rosamorada","setelement":"Lázaro Cárdenas"},{"postalCode":"63645","state":"Nayarit","municipality":"Rosamorada","setelement":"Obrera CTM"},{"postalCode":"63645","state":"Nayarit","municipality":"Rosamorada","setelement":"Teodoro Estrada"},{"postalCode":"63646","state":"Nayarit","municipality":"Rosamorada","setelement":"La Loma"},{"postalCode":"63646","state":"Nayarit","municipality":"Rosamorada","setelement":"El Llanito"},{"postalCode":"63648","state":"Nayarit","municipality":"Rosamorada","setelement":"El Tamarindo"},{"postalCode":"63648","state":"Nayarit","municipality":"Rosamorada","setelement":"Crucero a Mexcaltitán (La Siesta)"},{"postalCode":"63648","state":"Nayarit","municipality":"Rosamorada","setelement":"El Canal de la Lima"},{"postalCode":"63648","state":"Nayarit","municipality":"Rosamorada","setelement":"Los Cerritos (Loma de los Chivos)"},{"postalCode":"63648","state":"Nayarit","municipality":"Rosamorada","setelement":"Los Ramírez"},{"postalCode":"63650","state":"Nayarit","municipality":"Rosamorada","setelement":"San Diego del Naranjo"},{"postalCode":"63650","state":"Nayarit","municipality":"Rosamorada","setelement":"Coyotes"},{"postalCode":"63650","state":"Nayarit","municipality":"Rosamorada","setelement":"Rancho Miguel Cervantes"},{"postalCode":"63652","state":"Nayarit","municipality":"Rosamorada","setelement":"Santa Fe"},{"postalCode":"63652","state":"Nayarit","municipality":"Rosamorada","setelement":"Agua Aceda"},{"postalCode":"63652","state":"Nayarit","municipality":"Rosamorada","setelement":"La Flecha"},{"postalCode":"63655","state":"Nayarit","municipality":"Rosamorada","setelement":"Mojocuautla (Adjuntas)"},{"postalCode":"63655","state":"Nayarit","municipality":"Rosamorada","setelement":"San Juan Corapan"},{"postalCode":"63655","state":"Nayarit","municipality":"Rosamorada","setelement":"Rancho de Agripin Flores"},{"postalCode":"63656","state":"Nayarit","municipality":"Rosamorada","setelement":"Paso Real del Bejuco"},{"postalCode":"63656","state":"Nayarit","municipality":"Rosamorada","setelement":"Estación Chilapa"},{"postalCode":"63656","state":"Nayarit","municipality":"Rosamorada","setelement":"Rancho Hermanos Bautista"},{"postalCode":"63657","state":"Nayarit","municipality":"Rosamorada","setelement":"Rosarito"},{"postalCode":"63657","state":"Nayarit","municipality":"Rosamorada","setelement":"Benito Valle (San Miguel)"},{"postalCode":"63657","state":"Nayarit","municipality":"Rosamorada","setelement":"El Bálsamo"},{"postalCode":"63657","state":"Nayarit","municipality":"Rosamorada","setelement":"Las Conchas"},{"postalCode":"63657","state":"Nayarit","municipality":"Rosamorada","setelement":"Rincón de las Cucharas"},{"postalCode":"63658","state":"Nayarit","municipality":"Rosamorada","setelement":"El Ochenta"},{"postalCode":"63658","state":"Nayarit","municipality":"Rosamorada","setelement":"Los 5 Puentes"},{"postalCode":"63658","state":"Nayarit","municipality":"Rosamorada","setelement":"El Quebrantadero (Hermanos Ibarra)"},{"postalCode":"63658","state":"Nayarit","municipality":"Rosamorada","setelement":"Los Cuates"},{"postalCode":"63658","state":"Nayarit","municipality":"Rosamorada","setelement":"Los Leandros"},{"postalCode":"63658","state":"Nayarit","municipality":"Rosamorada","setelement":"Los Pimienta"},{"postalCode":"63658","state":"Nayarit","municipality":"Rosamorada","setelement":"Puente el Bejuco (El Capricho)"},{"postalCode":"63660","state":"Nayarit","municipality":"Tuxpan","setelement":"Coamiles"},{"postalCode":"63660","state":"Nayarit","municipality":"Tuxpan","setelement":"El Tecomate"},{"postalCode":"63660","state":"Nayarit","municipality":"Tuxpan","setelement":"Palma Grande"},{"postalCode":"63660","state":"Nayarit","municipality":"Tuxpan","setelement":"Peñas"},{"postalCode":"63670","state":"Nayarit","municipality":"Tuxpan","setelement":"Unión de Corrientes"},{"postalCode":"63700","state":"Nayarit","municipality":"Compostela","setelement":"Compostela Centro"},{"postalCode":"63702","state":"Nayarit","municipality":"Compostela","setelement":"Luis Donaldo Colosio"},{"postalCode":"63702","state":"Nayarit","municipality":"Compostela","setelement":"Alto"},{"postalCode":"63702","state":"Nayarit","municipality":"Compostela","setelement":"Miravalles"},{"postalCode":"63702","state":"Nayarit","municipality":"Compostela","setelement":"Emiliano Zapata"},{"postalCode":"63702","state":"Nayarit","municipality":"Compostela","setelement":"Francisco Villa"},{"postalCode":"63702","state":"Nayarit","municipality":"Compostela","setelement":"Guadalupana"},{"postalCode":"63702","state":"Nayarit","municipality":"Compostela","setelement":"Lomas de San Cristóbal"},{"postalCode":"63702","state":"Nayarit","municipality":"Compostela","setelement":"Lázaro Cárdenas"},{"postalCode":"63702","state":"Nayarit","municipality":"Compostela","setelement":"Lomas Bonita"},{"postalCode":"63703","state":"Nayarit","municipality":"Compostela","setelement":"Guayabal"},{"postalCode":"63703","state":"Nayarit","municipality":"Compostela","setelement":"Las Flores"},{"postalCode":"63703","state":"Nayarit","municipality":"Compostela","setelement":"Aviación"},{"postalCode":"63703","state":"Nayarit","municipality":"Compostela","setelement":"Del Bosque"},{"postalCode":"63704","state":"Nayarit","municipality":"Compostela","setelement":"De Chila"},{"postalCode":"63704","state":"Nayarit","municipality":"Compostela","setelement":"Librado Rivera"},{"postalCode":"63704","state":"Nayarit","municipality":"Compostela","setelement":"Nueva Galicia"},{"postalCode":"63705","state":"Nayarit","municipality":"Compostela","setelement":"Santa Ana"},{"postalCode":"63705","state":"Nayarit","municipality":"Compostela","setelement":"El Molino"},{"postalCode":"63705","state":"Nayarit","municipality":"Compostela","setelement":"Estadios"},{"postalCode":"63705","state":"Nayarit","municipality":"Compostela","setelement":"Floresta"},{"postalCode":"63705","state":"Nayarit","municipality":"Compostela","setelement":"INFONAVIT"},{"postalCode":"63705","state":"Nayarit","municipality":"Compostela","setelement":"Nueva Esperanza"},{"postalCode":"63705","state":"Nayarit","municipality":"Compostela","setelement":"Subestación"},{"postalCode":"63705","state":"Nayarit","municipality":"Compostela","setelement":"Tierra y Libertad"},{"postalCode":"63705","state":"Nayarit","municipality":"Compostela","setelement":"Las Ordeñas"},{"postalCode":"63705","state":"Nayarit","municipality":"Compostela","setelement":"Los Sauces"},{"postalCode":"63706","state":"Nayarit","municipality":"Compostela","setelement":"El Refilión"},{"postalCode":"63706","state":"Nayarit","municipality":"Compostela","setelement":"Las Víboras"},{"postalCode":"63706","state":"Nayarit","municipality":"Compostela","setelement":"Miravalles"},{"postalCode":"63706","state":"Nayarit","municipality":"Compostela","setelement":"Tepiqueños"},{"postalCode":"63707","state":"Nayarit","municipality":"Compostela","setelement":"Jaltepec"},{"postalCode":"63707","state":"Nayarit","municipality":"Compostela","setelement":"Mesillas"},{"postalCode":"63707","state":"Nayarit","municipality":"Compostela","setelement":"Mezcales"},{"postalCode":"63707","state":"Nayarit","municipality":"Compostela","setelement":"Pajaritos"},{"postalCode":"63707","state":"Nayarit","municipality":"Compostela","setelement":"Vista al Mar (Bellavista)"},{"postalCode":"63707","state":"Nayarit","municipality":"Compostela","setelement":"Vizcarra"},{"postalCode":"63707","state":"Nayarit","municipality":"Compostela","setelement":"Huicicila"},{"postalCode":"63707","state":"Nayarit","municipality":"Compostela","setelement":"Cumbres de Huicicila"},{"postalCode":"63708","state":"Nayarit","municipality":"Compostela","setelement":"El Salitre"},{"postalCode":"63708","state":"Nayarit","municipality":"Compostela","setelement":"El Paranal (Arocha)"},{"postalCode":"63708","state":"Nayarit","municipality":"Compostela","setelement":"Coastecomatillo"},{"postalCode":"63708","state":"Nayarit","municipality":"Compostela","setelement":"Chacala"},{"postalCode":"63708","state":"Nayarit","municipality":"Compostela","setelement":"La Cuata"},{"postalCode":"63708","state":"Nayarit","municipality":"Compostela","setelement":"Las Piedras"},{"postalCode":"63708","state":"Nayarit","municipality":"Compostela","setelement":"Paso de las Palmas"},{"postalCode":"63708","state":"Nayarit","municipality":"Compostela","setelement":"Palos María"},{"postalCode":"63709","state":"Nayarit","municipality":"Compostela","setelement":"Platanitos"},{"postalCode":"63709","state":"Nayarit","municipality":"Compostela","setelement":"Las Lomitas"},{"postalCode":"63709","state":"Nayarit","municipality":"Compostela","setelement":"Ixtapa de la Concepción"},{"postalCode":"63710","state":"Nayarit","municipality":"Compostela","setelement":"El Cerrito"},{"postalCode":"63710","state":"Nayarit","municipality":"Compostela","setelement":"San Isidro"},{"postalCode":"63710","state":"Nayarit","municipality":"Compostela","setelement":"La Concepción"},{"postalCode":"63710","state":"Nayarit","municipality":"Compostela","setelement":"San Rafael"},{"postalCode":"63710","state":"Nayarit","municipality":"Compostela","setelement":"De la Cruz"},{"postalCode":"63710","state":"Nayarit","municipality":"Compostela","setelement":"Otates y Cantarranas"},{"postalCode":"63710","state":"Nayarit","municipality":"Compostela","setelement":"Zacualpan"},{"postalCode":"63713","state":"Nayarit","municipality":"Compostela","setelement":"El Palmoso"},{"postalCode":"63714","state":"Nayarit","municipality":"Compostela","setelement":"El Divisadero"},{"postalCode":"63714","state":"Nayarit","municipality":"Compostela","setelement":"Lima de Abajo"},{"postalCode":"63715","state":"Nayarit","municipality":"Compostela","setelement":"Guadajara"},{"postalCode":"63715","state":"Nayarit","municipality":"Compostela","setelement":"Las Varas Centro"},{"postalCode":"63715","state":"Nayarit","municipality":"Compostela","setelement":"Las Fuentes"},{"postalCode":"63715","state":"Nayarit","municipality":"Compostela","setelement":"Tepeyac"},{"postalCode":"63715","state":"Nayarit","municipality":"Compostela","setelement":"Atenas"},{"postalCode":"63715","state":"Nayarit","municipality":"Compostela","setelement":"Puerta de Oro"},{"postalCode":"63715","state":"Nayarit","municipality":"Compostela","setelement":"Agua Azul"},{"postalCode":"63715","state":"Nayarit","municipality":"Compostela","setelement":"Celso Hernández"},{"postalCode":"63715","state":"Nayarit","municipality":"Compostela","setelement":"Nueva Galicia"},{"postalCode":"63715","state":"Nayarit","municipality":"Compostela","setelement":"Nueva Era"},{"postalCode":"63715","state":"Nayarit","municipality":"Compostela","setelement":"San José"},{"postalCode":"63715","state":"Nayarit","municipality":"Compostela","setelement":"Niños Héroes"},{"postalCode":"63717","state":"Nayarit","municipality":"Compostela","setelement":"Caléxico"},{"postalCode":"63717","state":"Nayarit","municipality":"Compostela","setelement":"Las Coloradas"},{"postalCode":"63717","state":"Nayarit","municipality":"Compostela","setelement":"Mazatán"},{"postalCode":"63717","state":"Nayarit","municipality":"Compostela","setelement":"Felipe Carrillo Puerto"},{"postalCode":"63717","state":"Nayarit","municipality":"Compostela","setelement":"Juan Escutia (Borbollón)"},{"postalCode":"63717","state":"Nayarit","municipality":"Compostela","setelement":"Zapotán"},{"postalCode":"63719","state":"Nayarit","municipality":"Compostela","setelement":"Mesa del Rodeo"},{"postalCode":"63720","state":"Nayarit","municipality":"Compostela","setelement":"La Peñita de Jaltemba Centro"},{"postalCode":"63720","state":"Nayarit","municipality":"Compostela","setelement":"Paraíso"},{"postalCode":"63720","state":"Nayarit","municipality":"Compostela","setelement":"Playa Hermosa"},{"postalCode":"63720","state":"Nayarit","municipality":"Compostela","setelement":"Cedros"},{"postalCode":"63720","state":"Nayarit","municipality":"Compostela","setelement":"Pescadores"},{"postalCode":"63720","state":"Nayarit","municipality":"Compostela","setelement":"Arroyo Zarco"},{"postalCode":"63720","state":"Nayarit","municipality":"Compostela","setelement":"Miramar"},{"postalCode":"63720","state":"Nayarit","municipality":"Compostela","setelement":"El Campesino"},{"postalCode":"63720","state":"Nayarit","municipality":"Compostela","setelement":"Cerro de La Cruz"},{"postalCode":"63720","state":"Nayarit","municipality":"Compostela","setelement":"Lázaro Cárdenas"},{"postalCode":"63720","state":"Nayarit","municipality":"Compostela","setelement":"Isla del Verano"},{"postalCode":"63720","state":"Nayarit","municipality":"Compostela","setelement":"El Girasol"},{"postalCode":"63720","state":"Nayarit","municipality":"Compostela","setelement":"Paraíso Escondido"},{"postalCode":"63720","state":"Nayarit","municipality":"Compostela","setelement":"Las Cabras"},{"postalCode":"63720","state":"Nayarit","municipality":"Compostela","setelement":"La Islita"},{"postalCode":"63720","state":"Nayarit","municipality":"Compostela","setelement":"Garzas Rosas"},{"postalCode":"63722","state":"Nayarit","municipality":"Compostela","setelement":"El Tamarindo"},{"postalCode":"63722","state":"Nayarit","municipality":"Compostela","setelement":"Santa María de Jaltemba"},{"postalCode":"63722","state":"Nayarit","municipality":"Compostela","setelement":"La Cucaracha"},{"postalCode":"63722","state":"Nayarit","municipality":"Compostela","setelement":"El Capomo"},{"postalCode":"63722","state":"Nayarit","municipality":"Compostela","setelement":"Mamey Grande de Arriba"},{"postalCode":"63722","state":"Nayarit","municipality":"Compostela","setelement":"Bella Unión"},{"postalCode":"63722","state":"Nayarit","municipality":"Compostela","setelement":"Cándido Salazar"},{"postalCode":"63722","state":"Nayarit","municipality":"Compostela","setelement":"Altavista"},{"postalCode":"63722","state":"Nayarit","municipality":"Compostela","setelement":"El Porvenir"},{"postalCode":"63722","state":"Nayarit","municipality":"Compostela","setelement":"El Tonino"},{"postalCode":"63723","state":"Nayarit","municipality":"Compostela","setelement":"La Puerta de la Lima"},{"postalCode":"63724","state":"Nayarit","municipality":"Compostela","setelement":"Chulavista"},{"postalCode":"63724","state":"Nayarit","municipality":"Compostela","setelement":"Úrsulo Galván"},{"postalCode":"63724","state":"Nayarit","municipality":"Compostela","setelement":"Villa Morelos"},{"postalCode":"63724","state":"Nayarit","municipality":"Compostela","setelement":"Monteón"},{"postalCode":"63724","state":"Nayarit","municipality":"Compostela","setelement":"Rincón de Guayabitos"},{"postalCode":"63724","state":"Nayarit","municipality":"Compostela","setelement":"Nuevo Ixtlán (Las Cañadas)"},{"postalCode":"63724","state":"Nayarit","municipality":"Compostela","setelement":"Los Ayala"},{"postalCode":"63724","state":"Nayarit","municipality":"Compostela","setelement":"La Colmena"},{"postalCode":"63724","state":"Nayarit","municipality":"Compostela","setelement":"El Betel"},{"postalCode":"63726","state":"Nayarit","municipality":"Bahía de Banderas","setelement":"El Guamúchil"},{"postalCode":"63728","state":"Nayarit","municipality":"Bahía de Banderas","setelement":"San Ignacio"},{"postalCode":"63728","state":"Nayarit","municipality":"Bahía de Banderas","setelement":"San Quintín"},{"postalCode":"63729","state":"Nayarit","municipality":"Bahía de Banderas","setelement":"Lo de Marcos"},{"postalCode":"63729","state":"Nayarit","municipality":"Bahía de Banderas","setelement":"San Francisco"},{"postalCode":"63730","state":"Nayarit","municipality":"Bahía de Banderas","setelement":"Las Hachas"},{"postalCode":"63730","state":"Nayarit","municipality":"Bahía de Banderas","setelement":"El Rastro"},{"postalCode":"63730","state":"Nayarit","municipality":"Bahía de Banderas","setelement":"Valle de la Guadalupana"},{"postalCode":"63730","state":"Nayarit","municipality":"Bahía de Banderas","setelement":"San Juan de Abajo"},{"postalCode":"63730","state":"Nayarit","municipality":"Bahía de Banderas","setelement":"Valle de Banderas"},{"postalCode":"63730","state":"Nayarit","municipality":"Bahía de Banderas","setelement":"Santa Rosa Tapachula"},{"postalCode":"63730","state":"Nayarit","municipality":"Bahía de Banderas","setelement":"El Mirador"},{"postalCode":"63730","state":"Nayarit","municipality":"Bahía de Banderas","setelement":"Ramón Larios"},{"postalCode":"63730","state":"Nayarit","municipality":"Bahía de Banderas","setelement":"Tabacalera"},{"postalCode":"63732","state":"Nayarit","municipality":"Bahía de Banderas","setelement":"Colibrí"},{"postalCode":"63732","state":"Nayarit","municipality":"Bahía de Banderas","setelement":"Residencial Los Mangos"},{"postalCode":"63732","state":"Nayarit","municipality":"Bahía de Banderas","setelement":"Palma Residencial"},{"postalCode":"63732","state":"Nayarit","municipality":"Bahía de Banderas","setelement":"Flamingos"},{"postalCode":"63732","state":"Nayarit","municipality":"Bahía de Banderas","setelement":"Villas las Parotas"},{"postalCode":"63732","state":"Nayarit","municipality":"Bahía de Banderas","setelement":"Brisas"},{"postalCode":"63732","state":"Nayarit","municipality":"Bahía de Banderas","setelement":"Bucerías Centro"},{"postalCode":"63732","state":"Nayarit","municipality":"Bahía de Banderas","setelement":"Dorada"},{"postalCode":"63732","state":"Nayarit","municipality":"Bahía de Banderas","setelement":"Playas de Huanacaxtle"},{"postalCode":"63732","state":"Nayarit","municipality":"Bahía de Banderas","setelement":"Lomas Huanacaxtle"},{"postalCode":"63732","state":"Nayarit","municipality":"Bahía de Banderas","setelement":"Playas del Pacífico"},{"postalCode":"63732","state":"Nayarit","municipality":"Bahía de Banderas","setelement":"Loma Bonita"},{"postalCode":"63732","state":"Nayarit","municipality":"Bahía de Banderas","setelement":"Vista Bahía"},{"postalCode":"63732","state":"Nayarit","municipality":"Bahía de Banderas","setelement":"Francisco Javier Ovando"},{"postalCode":"63732","state":"Nayarit","municipality":"Bahía de Banderas","setelement":"Paraíso del Indio"},{"postalCode":"63732","state":"Nayarit","municipality":"Bahía de Banderas","setelement":"La Unidad"},{"postalCode":"63732","state":"Nayarit","municipality":"Bahía de Banderas","setelement":"Buenos Aires"},{"postalCode":"63732","state":"Nayarit","municipality":"Bahía de Banderas","setelement":"Tule Dorado"},{"postalCode":"63732","state":"Nayarit","municipality":"Bahía de Banderas","setelement":"Las Palmas"},{"postalCode":"63732","state":"Nayarit","municipality":"Bahía de Banderas","setelement":"La Entrada"},{"postalCode":"63732","state":"Nayarit","municipality":"Bahía de Banderas","setelement":"Los Arboles"},{"postalCode":"63732","state":"Nayarit","municipality":"Bahía de Banderas","setelement":"Terralta"},{"postalCode":"63732","state":"Nayarit","municipality":"Bahía de Banderas","setelement":"La Primavera"},{"postalCode":"63734","state":"Nayarit","municipality":"Bahía de Banderas","setelement":"Corral del Risco (Punta de Mita)"},{"postalCode":"63734","state":"Nayarit","municipality":"Bahía de Banderas","setelement":"Sayulita"},{"postalCode":"63734","state":"Nayarit","municipality":"Bahía de Banderas","setelement":"Cruz de Huanacaxtle"},{"postalCode":"63734","state":"Nayarit","municipality":"Bahía de Banderas","setelement":"Higuera Blanca"},{"postalCode":"63734","state":"Nayarit","municipality":"Bahía de Banderas","setelement":"Punta de Mita"},{"postalCode":"63734","state":"Nayarit","municipality":"Bahía de Banderas","setelement":"José Chávez"},{"postalCode":"63734","state":"Nayarit","municipality":"Bahía de Banderas","setelement":"Nueva Era"},{"postalCode":"63734","state":"Nayarit","municipality":"Bahía de Banderas","setelement":"Monte Calvario"},{"postalCode":"63735","state":"Nayarit","municipality":"Bahía de Banderas","setelement":"San Clemente de Lima"},{"postalCode":"63735","state":"Nayarit","municipality":"Bahía de Banderas","setelement":"Deportiva"},{"postalCode":"63735","state":"Nayarit","municipality":"Bahía de Banderas","setelement":"Paraíso Vallarta"},{"postalCode":"63735","state":"Nayarit","municipality":"Bahía de Banderas","setelement":"Real Nuevo Vallarta"},{"postalCode":"63735","state":"Nayarit","municipality":"Bahía de Banderas","setelement":"La Lomita"},{"postalCode":"63735","state":"Nayarit","municipality":"Bahía de Banderas","setelement":"Lomas del Sol"},{"postalCode":"63735","state":"Nayarit","municipality":"Bahía de Banderas","setelement":"Villas Green Canal"},{"postalCode":"63735","state":"Nayarit","municipality":"Bahía de Banderas","setelement":"Villas Vallarta"},{"postalCode":"63735","state":"Nayarit","municipality":"Bahía de Banderas","setelement":"Puerta del Mar"},{"postalCode":"63735","state":"Nayarit","municipality":"Bahía de Banderas","setelement":"Rinconada de Banderas"},{"postalCode":"63735","state":"Nayarit","municipality":"Bahía de Banderas","setelement":"Nuevo Vallarta"},{"postalCode":"63735","state":"Nayarit","municipality":"Bahía de Banderas","setelement":"Las Jarretaderas"},{"postalCode":"63735","state":"Nayarit","municipality":"Bahía de Banderas","setelement":"Mezcales"},{"postalCode":"63735","state":"Nayarit","municipality":"Bahía de Banderas","setelement":"Costa Coral"},{"postalCode":"63735","state":"Nayarit","municipality":"Bahía de Banderas","setelement":"Valle Dorado"},{"postalCode":"63735","state":"Nayarit","municipality":"Bahía de Banderas","setelement":"Las Ceibas"},{"postalCode":"63735","state":"Nayarit","municipality":"Bahía de Banderas","setelement":"Rincón del Cielo"},{"postalCode":"63735","state":"Nayarit","municipality":"Bahía de Banderas","setelement":"13 de Septiembre"},{"postalCode":"63735","state":"Nayarit","municipality":"Bahía de Banderas","setelement":"Villa Esmeralda"},{"postalCode":"63735","state":"Nayarit","municipality":"Bahía de Banderas","setelement":"San Isidro"},{"postalCode":"63735","state":"Nayarit","municipality":"Bahía de Banderas","setelement":"Los Encantos"},{"postalCode":"63735","state":"Nayarit","municipality":"Bahía de Banderas","setelement":"Mezcalitos"},{"postalCode":"63735","state":"Nayarit","municipality":"Bahía de Banderas","setelement":"Altavela"},{"postalCode":"63735","state":"Nayarit","municipality":"Bahía de Banderas","setelement":"Virreyes Vallarta"},{"postalCode":"63736","state":"Nayarit","municipality":"Bahía de Banderas","setelement":"El Colomo"},{"postalCode":"63737","state":"Nayarit","municipality":"Bahía de Banderas","setelement":"Lázaro Cárdenas"},{"postalCode":"63737","state":"Nayarit","municipality":"Bahía de Banderas","setelement":"Valle Marlín"},{"postalCode":"63737","state":"Nayarit","municipality":"Bahía de Banderas","setelement":"Villas Miramar"},{"postalCode":"63737","state":"Nayarit","municipality":"Bahía de Banderas","setelement":"San Vicente"},{"postalCode":"63737","state":"Nayarit","municipality":"Bahía de Banderas","setelement":"Los Ángeles"},{"postalCode":"63737","state":"Nayarit","municipality":"Bahía de Banderas","setelement":"Villas de San Vicente"},{"postalCode":"63737","state":"Nayarit","municipality":"Bahía de Banderas","setelement":"Tulipanes"},{"postalCode":"63737","state":"Nayarit","municipality":"Bahía de Banderas","setelement":"Los Palmares San Vicente"},{"postalCode":"63737","state":"Nayarit","municipality":"Bahía de Banderas","setelement":"Ex-Hacienda San Ángel"},{"postalCode":"63737","state":"Nayarit","municipality":"Bahía de Banderas","setelement":"El Parque"},{"postalCode":"63737","state":"Nayarit","municipality":"Bahía de Banderas","setelement":"San José"},{"postalCode":"63737","state":"Nayarit","municipality":"Bahía de Banderas","setelement":"Bugambilias"},{"postalCode":"63737","state":"Nayarit","municipality":"Bahía de Banderas","setelement":"Valle Esmeralda"},{"postalCode":"63737","state":"Nayarit","municipality":"Bahía de Banderas","setelement":"Jardín las Arboledas"},{"postalCode":"63737","state":"Nayarit","municipality":"Bahía de Banderas","setelement":"San José del Valle"},{"postalCode":"63737","state":"Nayarit","municipality":"Bahía de Banderas","setelement":"San Vicente"},{"postalCode":"63737","state":"Nayarit","municipality":"Bahía de Banderas","setelement":"Valle de San José"},{"postalCode":"63737","state":"Nayarit","municipality":"Bahía de Banderas","setelement":"Santa Fe"},{"postalCode":"63737","state":"Nayarit","municipality":"Bahía de Banderas","setelement":"Jardines de San José"},{"postalCode":"63737","state":"Nayarit","municipality":"Bahía de Banderas","setelement":"Jardines del Sol"},{"postalCode":"63737","state":"Nayarit","municipality":"Bahía de Banderas","setelement":"Haciendas de San Vicente"},{"postalCode":"63737","state":"Nayarit","municipality":"Bahía de Banderas","setelement":"La Primavera"},{"postalCode":"63737","state":"Nayarit","municipality":"Bahía de Banderas","setelement":"Jardines El Porvenir"},{"postalCode":"63737","state":"Nayarit","municipality":"Bahía de Banderas","setelement":"San Vicente del Mar"},{"postalCode":"63737","state":"Nayarit","municipality":"Bahía de Banderas","setelement":"Del Rastro"},{"postalCode":"63737","state":"Nayarit","municipality":"Bahía de Banderas","setelement":"Villas de La Bahía"},{"postalCode":"63737","state":"Nayarit","municipality":"Bahía de Banderas","setelement":"Diana Laura"},{"postalCode":"63737","state":"Nayarit","municipality":"Bahía de Banderas","setelement":"Palma Real"},{"postalCode":"63737","state":"Nayarit","municipality":"Bahía de Banderas","setelement":"El Manglar"},{"postalCode":"63737","state":"Nayarit","municipality":"Bahía de Banderas","setelement":"La Misión"},{"postalCode":"63737","state":"Nayarit","municipality":"Bahía de Banderas","setelement":"La Nueva Aurora"},{"postalCode":"63737","state":"Nayarit","municipality":"Bahía de Banderas","setelement":"Bahía de Banderas"},{"postalCode":"63737","state":"Nayarit","municipality":"Bahía de Banderas","setelement":"Las Flores"},{"postalCode":"63737","state":"Nayarit","municipality":"Bahía de Banderas","setelement":"Azul Turquesa"},{"postalCode":"63738","state":"Nayarit","municipality":"Bahía de Banderas","setelement":"Aguamilpa"},{"postalCode":"63738","state":"Nayarit","municipality":"Bahía de Banderas","setelement":"El Porvenir"},{"postalCode":"63738","state":"Nayarit","municipality":"Bahía de Banderas","setelement":"Los Mangos"},{"postalCode":"63738","state":"Nayarit","municipality":"Bahía de Banderas","setelement":"Concepción de Valle"},{"postalCode":"63739","state":"Nayarit","municipality":"Bahía de Banderas","setelement":"El Carrizo"},{"postalCode":"63739","state":"Nayarit","municipality":"Bahía de Banderas","setelement":"El Coatante"},{"postalCode":"63739","state":"Nayarit","municipality":"Bahía de Banderas","setelement":"Fortuna de Vallejo (La Gloria)"},{"postalCode":"63739","state":"Nayarit","municipality":"Bahía de Banderas","setelement":"Los Sauces"},{"postalCode":"63740","state":"Nayarit","municipality":"San Blas","setelement":"San Blas Centro"},{"postalCode":"63742","state":"Nayarit","municipality":"San Blas","setelement":"3 Lomas"},{"postalCode":"63742","state":"Nayarit","municipality":"San Blas","setelement":"Benito Juárez"},{"postalCode":"63742","state":"Nayarit","municipality":"San Blas","setelement":"Fray Junipero Serra"},{"postalCode":"63742","state":"Nayarit","municipality":"San Blas","setelement":"Luis Donaldo Colosio"},{"postalCode":"63742","state":"Nayarit","municipality":"San Blas","setelement":"Gilberto Flores M."},{"postalCode":"63743","state":"Nayarit","municipality":"San Blas","setelement":"El Conchal"},{"postalCode":"63743","state":"Nayarit","municipality":"San Blas","setelement":"José María Mercado"},{"postalCode":"63743","state":"Nayarit","municipality":"San Blas","setelement":"La Vaca y La Higuera"},{"postalCode":"63743","state":"Nayarit","municipality":"San Blas","setelement":"Emilio M González"},{"postalCode":"63743","state":"Nayarit","municipality":"San Blas","setelement":"Progreso"},{"postalCode":"63743","state":"Nayarit","municipality":"San Blas","setelement":"La Playa del Borrego"},{"postalCode":"63743","state":"Nayarit","municipality":"San Blas","setelement":"H. Batallón"},{"postalCode":"63743","state":"Nayarit","municipality":"San Blas","setelement":"Palmar de los Cocos"},{"postalCode":"63743","state":"Nayarit","municipality":"San Blas","setelement":"El Cerrito"},{"postalCode":"63744","state":"Nayarit","municipality":"San Blas","setelement":"Colonia La Marinera"},{"postalCode":"63744","state":"Nayarit","municipality":"San Blas","setelement":"La Playita"},{"postalCode":"63744","state":"Nayarit","municipality":"San Blas","setelement":"El Guayabal"},{"postalCode":"63744","state":"Nayarit","municipality":"San Blas","setelement":"10 de Mayo"},{"postalCode":"63744","state":"Nayarit","municipality":"San Blas","setelement":"Barrio Chino"},{"postalCode":"63744","state":"Nayarit","municipality":"San Blas","setelement":"Gómez Reyes"},{"postalCode":"63744","state":"Nayarit","municipality":"San Blas","setelement":"Zona Portuaria"},{"postalCode":"63745","state":"Nayarit","municipality":"San Blas","setelement":"Chacalilla"},{"postalCode":"63745","state":"Nayarit","municipality":"San Blas","setelement":"Singaita"},{"postalCode":"63745","state":"Nayarit","municipality":"San Blas","setelement":"José María Mercado"},{"postalCode":"63750","state":"Nayarit","municipality":"San Blas","setelement":"Aután"},{"postalCode":"63751","state":"Nayarit","municipality":"San Blas","setelement":"Laureles y Góngora (El Ciruelo)"},{"postalCode":"63751","state":"Nayarit","municipality":"San Blas","setelement":"Laureles y Góngora (El Limón)"},{"postalCode":"63751","state":"Nayarit","municipality":"San Blas","setelement":"El Madrigaleño"},{"postalCode":"63751","state":"Nayarit","municipality":"San Blas","setelement":"La Culebra"},{"postalCode":"63751","state":"Nayarit","municipality":"San Blas","setelement":"La Goma"},{"postalCode":"63751","state":"Nayarit","municipality":"San Blas","setelement":"Playa de Ramírez"},{"postalCode":"63751","state":"Nayarit","municipality":"San Blas","setelement":"Isla del Conde"},{"postalCode":"63753","state":"Nayarit","municipality":"San Blas","setelement":"El Carleño"},{"postalCode":"63754","state":"Nayarit","municipality":"San Blas","setelement":"Pimientillo"},{"postalCode":"63755","state":"Nayarit","municipality":"San Blas","setelement":"Boca del Asadero"},{"postalCode":"63756","state":"Nayarit","municipality":"San Blas","setelement":"La Chiripa"},{"postalCode":"63757","state":"Nayarit","municipality":"San Blas","setelement":"El Capomo"},{"postalCode":"63758","state":"Nayarit","municipality":"San Blas","setelement":"Felipe Ángeles"},{"postalCode":"63758","state":"Nayarit","municipality":"San Blas","setelement":"Guadalupe Victoria"},{"postalCode":"63760","state":"Nayarit","municipality":"San Blas","setelement":"Reforma Agraria (La Colorada)"},{"postalCode":"63762","state":"Nayarit","municipality":"San Blas","setelement":"Huaristemba"},{"postalCode":"63763","state":"Nayarit","municipality":"San Blas","setelement":"Huaynamota"},{"postalCode":"63764","state":"Nayarit","municipality":"San Blas","setelement":"Navarrete"},{"postalCode":"63764","state":"Nayarit","municipality":"San Blas","setelement":"La Chiltera"},{"postalCode":"63764","state":"Nayarit","municipality":"San Blas","setelement":"Las Palmas"},{"postalCode":"63765","state":"Nayarit","municipality":"San Blas","setelement":"El Tepeyac (Cofradía)"},{"postalCode":"63765","state":"Nayarit","municipality":"San Blas","setelement":"El Tepeyac"},{"postalCode":"63765","state":"Nayarit","municipality":"San Blas","setelement":"La Libertad"},{"postalCode":"63765","state":"Nayarit","municipality":"San Blas","setelement":"Pintadeño"},{"postalCode":"63766","state":"Nayarit","municipality":"San Blas","setelement":"Mecatán"},{"postalCode":"63770","state":"Nayarit","municipality":"San Blas","setelement":"Jalcocotán"},{"postalCode":"63771","state":"Nayarit","municipality":"San Blas","setelement":"Residencial Playa Los Cocos"},{"postalCode":"63771","state":"Nayarit","municipality":"San Blas","setelement":"Playa de los Cocos"},{"postalCode":"63772","state":"Nayarit","municipality":"San Blas","setelement":"Santa Cruz de Miramar"},{"postalCode":"63773","state":"Nayarit","municipality":"San Blas","setelement":"El Cora"},{"postalCode":"63774","state":"Nayarit","municipality":"San Blas","setelement":"La Bajada"},{"postalCode":"63775","state":"Nayarit","municipality":"San Blas","setelement":"La Palma"},{"postalCode":"63776","state":"Nayarit","municipality":"San Blas","setelement":"Aticama"},{"postalCode":"63776","state":"Nayarit","municipality":"San Blas","setelement":"Matanchén (La Aguada)"},{"postalCode":"63777","state":"Nayarit","municipality":"San Blas","setelement":"Tecuitata"},{"postalCode":"63777","state":"Nayarit","municipality":"San Blas","setelement":"El Espino"},{"postalCode":"63777","state":"Nayarit","municipality":"San Blas","setelement":"El Llano"},{"postalCode":"63777","state":"Nayarit","municipality":"San Blas","setelement":"Jolotemba"},{"postalCode":"63779","state":"Nayarit","municipality":"San Blas","setelement":"Aserradero"},{"postalCode":"63779","state":"Nayarit","municipality":"San Blas","setelement":"CICA (Bugambilias)"},{"postalCode":"63779","state":"Nayarit","municipality":"San Blas","setelement":"Camarón"},{"postalCode":"63779","state":"Nayarit","municipality":"San Blas","setelement":"Hospital (Veinte de Noviembre)"},{"postalCode":"63779","state":"Nayarit","municipality":"San Blas","setelement":"Laguna del Toro"},{"postalCode":"63779","state":"Nayarit","municipality":"San Blas","setelement":"Morelos"},{"postalCode":"63779","state":"Nayarit","municipality":"San Blas","setelement":"Nayarit"},{"postalCode":"63779","state":"Nayarit","municipality":"San Blas","setelement":"San Juan Papelillo"},{"postalCode":"63779","state":"Nayarit","municipality":"San Blas","setelement":"Rehilete"},{"postalCode":"63779","state":"Nayarit","municipality":"San Blas","setelement":"Zacatal"},{"postalCode":"63779","state":"Nayarit","municipality":"San Blas","setelement":"Puerto Balleto (Isla María Madre)"},{"postalCode":"63780","state":"Nayarit","municipality":"Xalisco","setelement":"Lomas Xalisco"},{"postalCode":"63780","state":"Nayarit","municipality":"Xalisco","setelement":"Xalisco Centro"},{"postalCode":"63780","state":"Nayarit","municipality":"Xalisco","setelement":"Canoas"},{"postalCode":"63782","state":"Nayarit","municipality":"Xalisco","setelement":"Alborada"},{"postalCode":"63782","state":"Nayarit","municipality":"Xalisco","setelement":"Salvador Sánchez Vázquez"},{"postalCode":"63782","state":"Nayarit","municipality":"Xalisco","setelement":"Nuevo Progreso"},{"postalCode":"63782","state":"Nayarit","municipality":"Xalisco","setelement":"Huertas de Matatipal"},{"postalCode":"63782","state":"Nayarit","municipality":"Xalisco","setelement":"Ampliación Nuevo Progreso"},{"postalCode":"63782","state":"Nayarit","municipality":"Xalisco","setelement":"Lomas del Nayar"},{"postalCode":"63782","state":"Nayarit","municipality":"Xalisco","setelement":"Las Águilas"},{"postalCode":"63783","state":"Nayarit","municipality":"Xalisco","setelement":"El Guayabo"},{"postalCode":"63783","state":"Nayarit","municipality":"Xalisco","setelement":"Puerta del Sol"},{"postalCode":"63783","state":"Nayarit","municipality":"Xalisco","setelement":"José Santos Godínez"},{"postalCode":"63783","state":"Nayarit","municipality":"Xalisco","setelement":"1ro. de Mayo"},{"postalCode":"63783","state":"Nayarit","municipality":"Xalisco","setelement":"Guadalupe Victoria"},{"postalCode":"63783","state":"Nayarit","municipality":"Xalisco","setelement":"SUTSEM Landereñas"},{"postalCode":"63783","state":"Nayarit","municipality":"Xalisco","setelement":"Progreso"},{"postalCode":"63783","state":"Nayarit","municipality":"Xalisco","setelement":"Valle de Roma"},{"postalCode":"63784","state":"Nayarit","municipality":"Xalisco","setelement":"Abel Isiordia"},{"postalCode":"63784","state":"Nayarit","municipality":"Xalisco","setelement":"Ramos Millán"},{"postalCode":"63784","state":"Nayarit","municipality":"Xalisco","setelement":"Jardines de Matatipac"},{"postalCode":"63784","state":"Nayarit","municipality":"Xalisco","setelement":"25 de Abril"},{"postalCode":"63784","state":"Nayarit","municipality":"Xalisco","setelement":"Landereñas"},{"postalCode":"63784","state":"Nayarit","municipality":"Xalisco","setelement":"Los Cordoncillos II"},{"postalCode":"63784","state":"Nayarit","municipality":"Xalisco","setelement":"El Navarreño II"},{"postalCode":"63784","state":"Nayarit","municipality":"Xalisco","setelement":"Pueblo Nuevo"},{"postalCode":"63785","state":"Nayarit","municipality":"Xalisco","setelement":"Puerta Luna"},{"postalCode":"63785","state":"Nayarit","municipality":"Xalisco","setelement":"Xalisca Residencial Los Laureles"},{"postalCode":"63785","state":"Nayarit","municipality":"Xalisco","setelement":"Ejidal"},{"postalCode":"63785","state":"Nayarit","municipality":"Xalisco","setelement":"Navarreño"},{"postalCode":"63785","state":"Nayarit","municipality":"Xalisco","setelement":"Hacienda Real"},{"postalCode":"63786","state":"Nayarit","municipality":"Xalisco","setelement":"Fernando Carrillo"},{"postalCode":"63786","state":"Nayarit","municipality":"Xalisco","setelement":"La Cruz"},{"postalCode":"63786","state":"Nayarit","municipality":"Xalisco","setelement":"24 de Febrero"},{"postalCode":"63787","state":"Nayarit","municipality":"Xalisco","setelement":"Vicente Guerrero"},{"postalCode":"63787","state":"Nayarit","municipality":"Xalisco","setelement":"Nahil"},{"postalCode":"63787","state":"Nayarit","municipality":"Xalisco","setelement":"Kiekari"},{"postalCode":"63787","state":"Nayarit","municipality":"Xalisco","setelement":"Las Rosas"},{"postalCode":"63787","state":"Nayarit","municipality":"Xalisco","setelement":"Colinas de San Juan"},{"postalCode":"63787","state":"Nayarit","municipality":"Xalisco","setelement":"Nuevo México"},{"postalCode":"63787","state":"Nayarit","municipality":"Xalisco","setelement":"Real del Bosque"},{"postalCode":"63787","state":"Nayarit","municipality":"Xalisco","setelement":"10 de Mayo"},{"postalCode":"63787","state":"Nayarit","municipality":"Xalisco","setelement":"Santa Mónica"},{"postalCode":"63787","state":"Nayarit","municipality":"Xalisco","setelement":"Villas de Guadalupe"},{"postalCode":"63787","state":"Nayarit","municipality":"Xalisco","setelement":"Bugambilias"},{"postalCode":"63787","state":"Nayarit","municipality":"Xalisco","setelement":"Lomas Verdes"},{"postalCode":"63787","state":"Nayarit","municipality":"Xalisco","setelement":"Ampliación Xalisco"},{"postalCode":"63787","state":"Nayarit","municipality":"Xalisco","setelement":"Tanuz"},{"postalCode":"63787","state":"Nayarit","municipality":"Xalisco","setelement":"El Indio"},{"postalCode":"63787","state":"Nayarit","municipality":"Xalisco","setelement":"Las Isabeles"},{"postalCode":"63787","state":"Nayarit","municipality":"Xalisco","setelement":"Emiliano Zapata"},{"postalCode":"63787","state":"Nayarit","municipality":"Xalisco","setelement":"Colinas de Xalisco"},{"postalCode":"63787","state":"Nayarit","municipality":"Xalisco","setelement":"Minas de Xalli"},{"postalCode":"63788","state":"Nayarit","municipality":"Xalisco","setelement":"Palomas Doradas"},{"postalCode":"63790","state":"Nayarit","municipality":"Xalisco","setelement":"San Antonio"},{"postalCode":"63790","state":"Nayarit","municipality":"Xalisco","setelement":"El Malinal"},{"postalCode":"63792","state":"Nayarit","municipality":"Xalisco","setelement":"Valles del Nayar"},{"postalCode":"63792","state":"Nayarit","municipality":"Xalisco","setelement":"Pantanal"},{"postalCode":"63793","state":"Nayarit","municipality":"Xalisco","setelement":"El Carrizal"},{"postalCode":"63793","state":"Nayarit","municipality":"Xalisco","setelement":"Adolfo López Mateos (Las Veredas)"},{"postalCode":"63793","state":"Nayarit","municipality":"Xalisco","setelement":"Cofradía de Chocolón"},{"postalCode":"63794","state":"Nayarit","municipality":"Xalisco","setelement":"Emiliano Zapata (Majadas)"},{"postalCode":"63794","state":"Nayarit","municipality":"Xalisco","setelement":"Aquiles Serdán"},{"postalCode":"63794","state":"Nayarit","municipality":"Xalisco","setelement":"Testerazo"},{"postalCode":"63794","state":"Nayarit","municipality":"Xalisco","setelement":"San José de Costilla (Estación Costilla)"},{"postalCode":"63795","state":"Nayarit","municipality":"Xalisco","setelement":"Los Fortines"},{"postalCode":"63795","state":"Nayarit","municipality":"Xalisco","setelement":"Trigomil"},{"postalCode":"63795","state":"Nayarit","municipality":"Xalisco","setelement":"La Curva"},{"postalCode":"63797","state":"Nayarit","municipality":"Xalisco","setelement":"El Cuarenteño"},{"postalCode":"63797","state":"Nayarit","municipality":"Xalisco","setelement":"Palapita"},{"postalCode":"63797","state":"Nayarit","municipality":"Xalisco","setelement":"El Tepozal"},{"postalCode":"63799","state":"Nayarit","municipality":"Xalisco","setelement":"Tepic (Poeta Amado Nervo)"},{"postalCode":"63800","state":"Nayarit","municipality":"San Pedro Lagunillas","setelement":"San Pedro Lagunillas Centro"},{"postalCode":"63800","state":"Nayarit","municipality":"San Pedro Lagunillas","setelement":"Emiliano Zapata"},{"postalCode":"63800","state":"Nayarit","municipality":"San Pedro Lagunillas","setelement":"Lázaro Cárdenas"},{"postalCode":"63804","state":"Nayarit","municipality":"San Pedro Lagunillas","setelement":"Milpillas Bajas"},{"postalCode":"63809","state":"Nayarit","municipality":"San Pedro Lagunillas","setelement":"Tepetiltic"},{"postalCode":"63810","state":"Nayarit","municipality":"San Pedro Lagunillas","setelement":"Amado Nervo (El Conde)"},{"postalCode":"63810","state":"Nayarit","municipality":"San Pedro Lagunillas","setelement":"Cuastecomate"},{"postalCode":"63810","state":"Nayarit","municipality":"San Pedro Lagunillas","setelement":"Tequilita"},{"postalCode":"63820","state":"Nayarit","municipality":"San Pedro Lagunillas","setelement":"Puerta del Río"},{"postalCode":"63820","state":"Nayarit","municipality":"San Pedro Lagunillas","setelement":"Las Guásimas"},{"postalCode":"63826","state":"Nayarit","municipality":"San Pedro Lagunillas","setelement":"Cerro Pelón"},{"postalCode":"63830","state":"Nayarit","municipality":"Santa María del Oro","setelement":"Buenavista"},{"postalCode":"63830","state":"Nayarit","municipality":"Santa María del Oro","setelement":"Santa María del Oro"},{"postalCode":"63830","state":"Nayarit","municipality":"Santa María del Oro","setelement":"Del Bosque"},{"postalCode":"63833","state":"Nayarit","municipality":"Santa María del Oro","setelement":"Zapotanito"},{"postalCode":"63834","state":"Nayarit","municipality":"Santa María del Oro","setelement":"El Limón"},{"postalCode":"63834","state":"Nayarit","municipality":"Santa María del Oro","setelement":"Cerro Blanco"},{"postalCode":"63835","state":"Nayarit","municipality":"Santa María del Oro","setelement":"San Leonel"},{"postalCode":"63835","state":"Nayarit","municipality":"Santa María del Oro","setelement":"La Labor"},{"postalCode":"63836","state":"Nayarit","municipality":"Santa María del Oro","setelement":"El Ermitaño"},{"postalCode":"63837","state":"Nayarit","municipality":"Santa María del Oro","setelement":"La Galinda"},{"postalCode":"63837","state":"Nayarit","municipality":"Santa María del Oro","setelement":"El Mirador"},{"postalCode":"63840","state":"Nayarit","municipality":"Santa María del Oro","setelement":"San José de Mojarras"},{"postalCode":"63843","state":"Nayarit","municipality":"Santa María del Oro","setelement":"Moderna"},{"postalCode":"63843","state":"Nayarit","municipality":"Santa María del Oro","setelement":"Miguel Hidalgo"},{"postalCode":"63844","state":"Nayarit","municipality":"Santa María del Oro","setelement":"Buckingham"},{"postalCode":"63844","state":"Nayarit","municipality":"Santa María del Oro","setelement":"Las Cuevas"},{"postalCode":"63845","state":"Nayarit","municipality":"Santa María del Oro","setelement":"El Guanacaste"},{"postalCode":"63850","state":"Nayarit","municipality":"Santa María del Oro","setelement":"Los Horcones"},{"postalCode":"63850","state":"Nayarit","municipality":"Santa María del Oro","setelement":"Tequepexpan"},{"postalCode":"63853","state":"Nayarit","municipality":"Santa María del Oro","setelement":"La Estanzuela"},{"postalCode":"63854","state":"Nayarit","municipality":"Santa María del Oro","setelement":"El Caracol"},{"postalCode":"63854","state":"Nayarit","municipality":"Santa María del Oro","setelement":"Los Guajes"},{"postalCode":"63856","state":"Nayarit","municipality":"Santa María del Oro","setelement":"Real de Acuitapilco (Esteban Baca Calderón)"},{"postalCode":"63865","state":"Nayarit","municipality":"Santa María del Oro","setelement":"La Laguna"},{"postalCode":"63866","state":"Nayarit","municipality":"Santa María del Oro","setelement":"Rincón de Calimayo"},{"postalCode":"63867","state":"Nayarit","municipality":"Santa María del Oro","setelement":"El Buruato"},{"postalCode":"63870","state":"Nayarit","municipality":"Santa María del Oro","setelement":"El Ahualamo"},{"postalCode":"63870","state":"Nayarit","municipality":"Santa María del Oro","setelement":"Chapalilla"},{"postalCode":"63870","state":"Nayarit","municipality":"Santa María del Oro","setelement":"Las Mesitas"},{"postalCode":"63870","state":"Nayarit","municipality":"Santa María del Oro","setelement":"El Torreón"},{"postalCode":"63874","state":"Nayarit","municipality":"Santa María del Oro","setelement":"El Ocotillo"},{"postalCode":"63880","state":"Nayarit","municipality":"Jala","setelement":"San Juan de Dios"},{"postalCode":"63880","state":"Nayarit","municipality":"Jala","setelement":"San Pedro"},{"postalCode":"63880","state":"Nayarit","municipality":"Jala","setelement":"San Andrés"},{"postalCode":"63880","state":"Nayarit","municipality":"Jala","setelement":"Jomulco"},{"postalCode":"63880","state":"Nayarit","municipality":"Jala","setelement":"El Naranjo"},{"postalCode":"63880","state":"Nayarit","municipality":"Jala","setelement":"Severiano López"},{"postalCode":"63880","state":"Nayarit","municipality":"Jala","setelement":"Morelos"},{"postalCode":"63883","state":"Nayarit","municipality":"Jala","setelement":"Los Pinos"},{"postalCode":"63883","state":"Nayarit","municipality":"Jala","setelement":"Emiliano Zapata"},{"postalCode":"63883","state":"Nayarit","municipality":"Jala","setelement":"Jardines del Llano"},{"postalCode":"63885","state":"Nayarit","municipality":"Jala","setelement":"Los Ramírez"},{"postalCode":"63885","state":"Nayarit","municipality":"Jala","setelement":"San Miguel de Buenavista"},{"postalCode":"63885","state":"Nayarit","municipality":"Jala","setelement":"Los Aguajes"},{"postalCode":"63885","state":"Nayarit","municipality":"Jala","setelement":"Rosa Blanca"},{"postalCode":"63885","state":"Nayarit","municipality":"Jala","setelement":"Pueblo Nuevo"},{"postalCode":"63886","state":"Nayarit","municipality":"Jala","setelement":"Cofradía de Juanacatlán"},{"postalCode":"63886","state":"Nayarit","municipality":"Jala","setelement":"Francisco I. Madero (La Bolsa)"},{"postalCode":"63887","state":"Nayarit","municipality":"Jala","setelement":"Jalpa Grande"},{"postalCode":"63890","state":"Nayarit","municipality":"Jala","setelement":"San Francisco"},{"postalCode":"63890","state":"Nayarit","municipality":"Jala","setelement":"Ricardo Flores Magón"},{"postalCode":"63890","state":"Nayarit","municipality":"Jala","setelement":"Jala Centro"},{"postalCode":"63890","state":"Nayarit","municipality":"Jala","setelement":"Juan Escutia"},{"postalCode":"63890","state":"Nayarit","municipality":"Jala","setelement":"San Juan"},{"postalCode":"63893","state":"Nayarit","municipality":"Jala","setelement":"Jardines del Valle"},{"postalCode":"63893","state":"Nayarit","municipality":"Jala","setelement":"Epifanio Gómez Magañez"},{"postalCode":"63893","state":"Nayarit","municipality":"Jala","setelement":"Independencia"},{"postalCode":"63894","state":"Nayarit","municipality":"Jala","setelement":"Lucio Cabañas"},{"postalCode":"63894","state":"Nayarit","municipality":"Jala","setelement":"La Cruz"},{"postalCode":"63894","state":"Nayarit","municipality":"Jala","setelement":"Merced Ibarra"},{"postalCode":"63895","state":"Nayarit","municipality":"Jala","setelement":"La Natividad"},{"postalCode":"63895","state":"Nayarit","municipality":"Jala","setelement":"La Quinta"},{"postalCode":"63895","state":"Nayarit","municipality":"Jala","setelement":"El Tucán"},{"postalCode":"63897","state":"Nayarit","municipality":"Jala","setelement":"Coapan"},{"postalCode":"63899","state":"Nayarit","municipality":"Jala","setelement":"Santa Fe"},{"postalCode":"63900","state":"Nayarit","municipality":"Ahuacatlán","setelement":"Amequita"},{"postalCode":"63900","state":"Nayarit","municipality":"Ahuacatlán","setelement":"La Ciénega"},{"postalCode":"63900","state":"Nayarit","municipality":"Ahuacatlán","setelement":"Zoatlán (San Francisco de Zoatlán)"},{"postalCode":"63904","state":"Nayarit","municipality":"Ahuacatlán","setelement":"La Campana"},{"postalCode":"63905","state":"Nayarit","municipality":"Ahuacatlán","setelement":"Copales"},{"postalCode":"63905","state":"Nayarit","municipality":"Ahuacatlán","setelement":"Crucero Heriberto Jara"},{"postalCode":"63905","state":"Nayarit","municipality":"Ahuacatlán","setelement":"Heriberto Jara (La Haciendita)"},{"postalCode":"63910","state":"Nayarit","municipality":"Ahuacatlán","setelement":"Tetitlán"},{"postalCode":"63910","state":"Nayarit","municipality":"Ahuacatlán","setelement":"Emiliano Zapata"},{"postalCode":"63911","state":"Nayarit","municipality":"Ahuacatlán","setelement":"Estación Valle Verde"},{"postalCode":"63913","state":"Nayarit","municipality":"Ahuacatlán","setelement":"Crucero de Marquezado"},{"postalCode":"63913","state":"Nayarit","municipality":"Ahuacatlán","setelement":"Marquezado"},{"postalCode":"63914","state":"Nayarit","municipality":"Ahuacatlán","setelement":"Uzeta"},{"postalCode":"63915","state":"Nayarit","municipality":"Ahuacatlán","setelement":"Santa Isabel"},{"postalCode":"63920","state":"Nayarit","municipality":"Ahuacatlán","setelement":"Ahuacatlán Centro"},{"postalCode":"63923","state":"Nayarit","municipality":"Ahuacatlán","setelement":"La Otra Banda"},{"postalCode":"63923","state":"Nayarit","municipality":"Ahuacatlán","setelement":"Benito Juárez"},{"postalCode":"63925","state":"Nayarit","municipality":"Ahuacatlán","setelement":"La Presa"},{"postalCode":"63925","state":"Nayarit","municipality":"Ahuacatlán","setelement":"El Cerrito"},{"postalCode":"63925","state":"Nayarit","municipality":"Ahuacatlán","setelement":"Las Huertas"},{"postalCode":"63927","state":"Nayarit","municipality":"Ahuacatlán","setelement":"El Salto"},{"postalCode":"63927","state":"Nayarit","municipality":"Ahuacatlán","setelement":"El Chiquiliqui"},{"postalCode":"63927","state":"Nayarit","municipality":"Ahuacatlán","setelement":"Villas del Carmen"},{"postalCode":"63927","state":"Nayarit","municipality":"Ahuacatlán","setelement":"Prisciliano Sanchez"},{"postalCode":"63927","state":"Nayarit","municipality":"Ahuacatlán","setelement":"Demetrio Vallejo"},{"postalCode":"63928","state":"Nayarit","municipality":"Ahuacatlán","setelement":"Emilio M. González"},{"postalCode":"63928","state":"Nayarit","municipality":"Ahuacatlán","setelement":"8 de Mayo"},{"postalCode":"63928","state":"Nayarit","municipality":"Ahuacatlán","setelement":"El Llano"},{"postalCode":"63930","state":"Nayarit","municipality":"Ahuacatlán","setelement":"Santa Cruz de Camotlán"},{"postalCode":"63935","state":"Nayarit","municipality":"Ahuacatlán","setelement":"Las Guásimas"},{"postalCode":"63938","state":"Nayarit","municipality":"Ahuacatlán","setelement":"Las Palmas"},{"postalCode":"63940","state":"Nayarit","municipality":"Ixtlán del Río","setelement":"Mexpan"},{"postalCode":"63944","state":"Nayarit","municipality":"Ixtlán del Río","setelement":"La Cuata"},{"postalCode":"63944","state":"Nayarit","municipality":"Ixtlán del Río","setelement":"El Terrero"},{"postalCode":"63944","state":"Nayarit","municipality":"Ixtlán del Río","setelement":"La Sidra"},{"postalCode":"63944","state":"Nayarit","municipality":"Ixtlán del Río","setelement":"San José de Gracia (El Pueblito)"},{"postalCode":"63944","state":"Nayarit","municipality":"Ixtlán del Río","setelement":"San Miguel"},{"postalCode":"63944","state":"Nayarit","municipality":"Ixtlán del Río","setelement":"San Clemente (Rancho Nuevo)"},{"postalCode":"63944","state":"Nayarit","municipality":"Ixtlán del Río","setelement":"Crucero Ranchos de Arriba"},{"postalCode":"63945","state":"Nayarit","municipality":"Ixtlán del Río","setelement":"Milpillas"},{"postalCode":"63946","state":"Nayarit","municipality":"Ixtlán del Río","setelement":"La Haciendita"},{"postalCode":"63947","state":"Nayarit","municipality":"Ixtlán del Río","setelement":"El Aguacate"},{"postalCode":"63947","state":"Nayarit","municipality":"Ixtlán del Río","setelement":"El Zapote"},{"postalCode":"63947","state":"Nayarit","municipality":"Ixtlán del Río","setelement":"Los Sauces"},{"postalCode":"63947","state":"Nayarit","municipality":"Ixtlán del Río","setelement":"Cacalután"},{"postalCode":"63947","state":"Nayarit","municipality":"Ixtlán del Río","setelement":"La Higuerita"},{"postalCode":"63947","state":"Nayarit","municipality":"Ixtlán del Río","setelement":"Los Mezquites"},{"postalCode":"63950","state":"Nayarit","municipality":"Ixtlán del Río","setelement":"Ixtlán del Río Centro"},{"postalCode":"63953","state":"Nayarit","municipality":"Ixtlán del Río","setelement":"La Huerta"},{"postalCode":"63953","state":"Nayarit","municipality":"Ixtlán del Río","setelement":"Las Arboledas"},{"postalCode":"63954","state":"Nayarit","municipality":"Ixtlán del Río","setelement":"Los Toriles"},{"postalCode":"63954","state":"Nayarit","municipality":"Ixtlán del Río","setelement":"Esteban Baca Calderón"},{"postalCode":"63954","state":"Nayarit","municipality":"Ixtlán del Río","setelement":"Juárez"},{"postalCode":"63954","state":"Nayarit","municipality":"Ixtlán del Río","setelement":"Juan Zamora"},{"postalCode":"63954","state":"Nayarit","municipality":"Ixtlán del Río","setelement":"De Los Indios"},{"postalCode":"63954","state":"Nayarit","municipality":"Ixtlán del Río","setelement":"10 de Mayo"},{"postalCode":"63954","state":"Nayarit","municipality":"Ixtlán del Río","setelement":"López Portillo"},{"postalCode":"63954","state":"Nayarit","municipality":"Ixtlán del Río","setelement":"Emiliano Zapata"},{"postalCode":"63954","state":"Nayarit","municipality":"Ixtlán del Río","setelement":"Cristo Rey"},{"postalCode":"63955","state":"Nayarit","municipality":"Ixtlán del Río","setelement":"Emilio M. González"},{"postalCode":"63955","state":"Nayarit","municipality":"Ixtlán del Río","setelement":"Carmen Romano"},{"postalCode":"63956","state":"Nayarit","municipality":"Ixtlán del Río","setelement":"Las 7 Esquinas"},{"postalCode":"63956","state":"Nayarit","municipality":"Ixtlán del Río","setelement":"Barrio Nuevo"},{"postalCode":"63956","state":"Nayarit","municipality":"Ixtlán del Río","setelement":"Los Leones"},{"postalCode":"63957","state":"Nayarit","municipality":"Ixtlán del Río","setelement":"Las Flores"},{"postalCode":"63957","state":"Nayarit","municipality":"Ixtlán del Río","setelement":"Amado Nervo"},{"postalCode":"63958","state":"Nayarit","municipality":"Ixtlán del Río","setelement":"Moderna"},{"postalCode":"63958","state":"Nayarit","municipality":"Ixtlán del Río","setelement":"El Pinar"},{"postalCode":"63958","state":"Nayarit","municipality":"Ixtlán del Río","setelement":"Revolución"},{"postalCode":"63958","state":"Nayarit","municipality":"Ixtlán del Río","setelement":"Fátima"},{"postalCode":"63959","state":"Nayarit","municipality":"Ixtlán del Río","setelement":"Everardo Peña Navarro"},{"postalCode":"63959","state":"Nayarit","municipality":"Ixtlán del Río","setelement":"Morelos"},{"postalCode":"63959","state":"Nayarit","municipality":"Ixtlán del Río","setelement":"Independencia"},{"postalCode":"63959","state":"Nayarit","municipality":"Ixtlán del Río","setelement":"Santo Santiago"},{"postalCode":"63959","state":"Nayarit","municipality":"Ixtlán del Río","setelement":"Eulogio Parra"},{"postalCode":"63959","state":"Nayarit","municipality":"Ixtlán del Río","setelement":"Ernesto Che Guevara"},{"postalCode":"63959","state":"Nayarit","municipality":"Ixtlán del Río","setelement":"Juan Escutia"},{"postalCode":"63959","state":"Nayarit","municipality":"Ixtlán del Río","setelement":"Los Arcos"},{"postalCode":"63959","state":"Nayarit","municipality":"Ixtlán del Río","setelement":"Adoberas"},{"postalCode":"63960","state":"Nayarit","municipality":"Amatlán de Cañas","setelement":"Pueblo Nuevo"},{"postalCode":"63960","state":"Nayarit","municipality":"Amatlán de Cañas","setelement":"Ruben Martín Atalay"},{"postalCode":"63960","state":"Nayarit","municipality":"Amatlán de Cañas","setelement":"Loma Linda"},{"postalCode":"63960","state":"Nayarit","municipality":"Amatlán de Cañas","setelement":"Amatlán de Cañas"},{"postalCode":"63963","state":"Nayarit","municipality":"Amatlán de Cañas","setelement":"La Otra Banda"},{"postalCode":"63963","state":"Nayarit","municipality":"Amatlán de Cañas","setelement":"Colinas del Nayar"},{"postalCode":"63967","state":"Nayarit","municipality":"Amatlán de Cañas","setelement":"Las Hembrillas"},{"postalCode":"63967","state":"Nayarit","municipality":"Amatlán de Cañas","setelement":"La Máquina"},{"postalCode":"63967","state":"Nayarit","municipality":"Amatlán de Cañas","setelement":"El Copalillo"},{"postalCode":"63967","state":"Nayarit","municipality":"Amatlán de Cañas","setelement":"Pie de la Cuesta"},{"postalCode":"63967","state":"Nayarit","municipality":"Amatlán de Cañas","setelement":"La Yerbabuena"},{"postalCode":"63967","state":"Nayarit","municipality":"Amatlán de Cañas","setelement":"La Escondida (Agua Escondida)"},{"postalCode":"63968","state":"Nayarit","municipality":"Amatlán de Cañas","setelement":"El Naranjo"},{"postalCode":"63968","state":"Nayarit","municipality":"Amatlán de Cañas","setelement":"San Blasito"},{"postalCode":"63968","state":"Nayarit","municipality":"Amatlán de Cañas","setelement":"El Farito"},{"postalCode":"63969","state":"Nayarit","municipality":"Amatlán de Cañas","setelement":"La Lima"},{"postalCode":"63969","state":"Nayarit","municipality":"Amatlán de Cañas","setelement":"El Platanar"},{"postalCode":"63969","state":"Nayarit","municipality":"Amatlán de Cañas","setelement":"Jesús María"},{"postalCode":"63970","state":"Nayarit","municipality":"Amatlán de Cañas","setelement":"Barranca del Oro"},{"postalCode":"63973","state":"Nayarit","municipality":"Amatlán de Cañas","setelement":"Las Anonas"},{"postalCode":"63973","state":"Nayarit","municipality":"Amatlán de Cañas","setelement":"El Ombligo"},{"postalCode":"63973","state":"Nayarit","municipality":"Amatlán de Cañas","setelement":"El Pilón"},{"postalCode":"63974","state":"Nayarit","municipality":"Amatlán de Cañas","setelement":"Nuevo México"},{"postalCode":"63974","state":"Nayarit","municipality":"Amatlán de Cañas","setelement":"Potrerillos"},{"postalCode":"63974","state":"Nayarit","municipality":"Amatlán de Cañas","setelement":"Los Cerritos"},{"postalCode":"63974","state":"Nayarit","municipality":"Amatlán de Cañas","setelement":"San Valentín"},{"postalCode":"63975","state":"Nayarit","municipality":"Amatlán de Cañas","setelement":"El Portezuelo"},{"postalCode":"63975","state":"Nayarit","municipality":"Amatlán de Cañas","setelement":"Los Agrios"},{"postalCode":"63975","state":"Nayarit","municipality":"Amatlán de Cañas","setelement":"Mezquites"},{"postalCode":"63980","state":"Nayarit","municipality":"Amatlán de Cañas","setelement":"El Rosario"},{"postalCode":"63985","state":"Nayarit","municipality":"Amatlán de Cañas","setelement":"Tepuzhuacán"},{"postalCode":"63990","state":"Nayarit","municipality":"Amatlán de Cañas","setelement":"Estancia de los López"},{"postalCode":"63996","state":"Nayarit","municipality":"Amatlán de Cañas","setelement":"El Zopilote"},{"postalCode":"63996","state":"Nayarit","municipality":"Amatlán de Cañas","setelement":"El Carrizo"}]