[{"postalCode":"77000","state":"Quintana Roo","municipality":"Othón P. Blanco","setelement":"Chetumal Centro"},{"postalCode":"77010","state":"Quintana Roo","municipality":"Othón P. Blanco","setelement":"Adolfo López Mateos"},{"postalCode":"77010","state":"Quintana Roo","municipality":"Othón P. Blanco","setelement":"Francisco J Mújica INFONAVIT"},{"postalCode":"77010","state":"Quintana Roo","municipality":"Othón P. Blanco","setelement":"Naval"},{"postalCode":"77010","state":"Quintana Roo","municipality":"Othón P. Blanco","setelement":"Bugambilias"},{"postalCode":"77010","state":"Quintana Roo","municipality":"Othón P. Blanco","setelement":"Del Mar"},{"postalCode":"77010","state":"Quintana Roo","municipality":"Othón P. Blanco","setelement":"Isabel Tenorio"},{"postalCode":"77012","state":"Quintana Roo","municipality":"Othón P. Blanco","setelement":"Venustiano Carranza (Casitas)"},{"postalCode":"77013","state":"Quintana Roo","municipality":"Othón P. Blanco","setelement":"David G Gutiérrez Ruiz"},{"postalCode":"77014","state":"Quintana Roo","municipality":"Othón P. Blanco","setelement":"Pacto Obrero Campesino"},{"postalCode":"77014","state":"Quintana Roo","municipality":"Othón P. Blanco","setelement":"Infonavit Santa María"},{"postalCode":"77014","state":"Quintana Roo","municipality":"Othón P. Blanco","setelement":"Centenario"},{"postalCode":"77014","state":"Quintana Roo","municipality":"Othón P. Blanco","setelement":"Flamingos"},{"postalCode":"77014","state":"Quintana Roo","municipality":"Othón P. Blanco","setelement":"Villas Kinichna"},{"postalCode":"77014","state":"Quintana Roo","municipality":"Othón P. Blanco","setelement":"Unidad Antorchista"},{"postalCode":"77014","state":"Quintana Roo","municipality":"Othón P. Blanco","setelement":"Oxtankah"},{"postalCode":"77014","state":"Quintana Roo","municipality":"Othón P. Blanco","setelement":"Andara"},{"postalCode":"77014","state":"Quintana Roo","municipality":"Othón P. Blanco","setelement":"Los Arcos"},{"postalCode":"77015","state":"Quintana Roo","municipality":"Othón P. Blanco","setelement":"Constituyentes"},{"postalCode":"77015","state":"Quintana Roo","municipality":"Othón P. Blanco","setelement":"Industrial"},{"postalCode":"77016","state":"Quintana Roo","municipality":"Othón P. Blanco","setelement":"Leona Vicario"},{"postalCode":"77016","state":"Quintana Roo","municipality":"Othón P. Blanco","setelement":"Martínez Ross"},{"postalCode":"77017","state":"Quintana Roo","municipality":"Othón P. Blanco","setelement":"Ley Federal de Agua"},{"postalCode":"77017","state":"Quintana Roo","municipality":"Othón P. Blanco","setelement":"SAHOP"},{"postalCode":"77018","state":"Quintana Roo","municipality":"Othón P. Blanco","setelement":"5 de Abril"},{"postalCode":"77018","state":"Quintana Roo","municipality":"Othón P. Blanco","setelement":"Reforma"},{"postalCode":"77018","state":"Quintana Roo","municipality":"Othón P. Blanco","setelement":"Avancemos Juntos"},{"postalCode":"77019","state":"Quintana Roo","municipality":"Othón P. Blanco","setelement":"Del Bosque"},{"postalCode":"77020","state":"Quintana Roo","municipality":"Othón P. Blanco","setelement":"Gonzalo Guerrero"},{"postalCode":"77020","state":"Quintana Roo","municipality":"Othón P. Blanco","setelement":"Rafael E Melgar FOVISSSTE"},{"postalCode":"77023","state":"Quintana Roo","municipality":"Othón P. Blanco","setelement":"Infonavit Enrique Ramírez y Ramírez"},{"postalCode":"77023","state":"Quintana Roo","municipality":"Othón P. Blanco","setelement":"Miraflores II"},{"postalCode":"77024","state":"Quintana Roo","municipality":"Othón P. Blanco","setelement":"Cedros"},{"postalCode":"77024","state":"Quintana Roo","municipality":"Othón P. Blanco","setelement":"Fovissste (II Etapa)"},{"postalCode":"77025","state":"Quintana Roo","municipality":"Othón P. Blanco","setelement":"Forjadores de Quintana Roo"},{"postalCode":"77025","state":"Quintana Roo","municipality":"Othón P. Blanco","setelement":"Guadalupe Victoria"},{"postalCode":"77025","state":"Quintana Roo","municipality":"Othón P. Blanco","setelement":"Residencial Marsella"},{"postalCode":"77025","state":"Quintana Roo","municipality":"Othón P. Blanco","setelement":"Los Almendros"},{"postalCode":"77025","state":"Quintana Roo","municipality":"Othón P. Blanco","setelement":"Sutage INFONAVIT"},{"postalCode":"77025","state":"Quintana Roo","municipality":"Othón P. Blanco","setelement":"Milenio"},{"postalCode":"77026","state":"Quintana Roo","municipality":"Othón P. Blanco","setelement":"Jardines"},{"postalCode":"77026","state":"Quintana Roo","municipality":"Othón P. Blanco","setelement":"Tumben Cuxtal"},{"postalCode":"77026","state":"Quintana Roo","municipality":"Othón P. Blanco","setelement":"Fovissste  IV Etapa"},{"postalCode":"77026","state":"Quintana Roo","municipality":"Othón P. Blanco","setelement":"El Sol"},{"postalCode":"77027","state":"Quintana Roo","municipality":"Othón P. Blanco","setelement":"Miraflores"},{"postalCode":"77028","state":"Quintana Roo","municipality":"Othón P. Blanco","setelement":"8 de Octubre"},{"postalCode":"77028","state":"Quintana Roo","municipality":"Othón P. Blanco","setelement":"Plutarco Elías Calles"},{"postalCode":"77029","state":"Quintana Roo","municipality":"Othón P. Blanco","setelement":"Lagunitas"},{"postalCode":"77029","state":"Quintana Roo","municipality":"Othón P. Blanco","setelement":"Los Monos"},{"postalCode":"77029","state":"Quintana Roo","municipality":"Othón P. Blanco","setelement":"Bosques del Lago"},{"postalCode":"77030","state":"Quintana Roo","municipality":"Othón P. Blanco","setelement":"Campestre"},{"postalCode":"77034","state":"Quintana Roo","municipality":"Othón P. Blanco","setelement":"Framboyanes"},{"postalCode":"77035","state":"Quintana Roo","municipality":"Othón P. Blanco","setelement":"Italia"},{"postalCode":"77036","state":"Quintana Roo","municipality":"Othón P. Blanco","setelement":"Josefa Ortiz de Domínguez"},{"postalCode":"77037","state":"Quintana Roo","municipality":"Othón P. Blanco","setelement":"Aserradero"},{"postalCode":"77037","state":"Quintana Roo","municipality":"Othón P. Blanco","setelement":"Benito Juárez"},{"postalCode":"77037","state":"Quintana Roo","municipality":"Othón P. Blanco","setelement":"Taxistas"},{"postalCode":"77038","state":"Quintana Roo","municipality":"Othón P. Blanco","setelement":"20 de Noviembre"},{"postalCode":"77039","state":"Quintana Roo","municipality":"Othón P. Blanco","setelement":"Magisterial"},{"postalCode":"77039","state":"Quintana Roo","municipality":"Othón P. Blanco","setelement":"Residencial Mediterráneo"},{"postalCode":"77039","state":"Quintana Roo","municipality":"Othón P. Blanco","setelement":"17 de Octubre"},{"postalCode":"77040","state":"Quintana Roo","municipality":"Othón P. Blanco","setelement":"Santa Isabel"},{"postalCode":"77041","state":"Quintana Roo","municipality":"Othón P. Blanco","setelement":"CERESO Chetumal"},{"postalCode":"77048","state":"Quintana Roo","municipality":"Othón P. Blanco","setelement":"Chetumal (Internacional de Chetumal)"},{"postalCode":"77049","state":"Quintana Roo","municipality":"Othón P. Blanco","setelement":"Estatuto Jurídico (FOVISSSTE 5a Etapa)"},{"postalCode":"77050","state":"Quintana Roo","municipality":"Othón P. Blanco","setelement":"Aeropuerto"},{"postalCode":"77050","state":"Quintana Roo","municipality":"Othón P. Blanco","setelement":"Infonavit Álvaro Obregón"},{"postalCode":"77050","state":"Quintana Roo","municipality":"Othón P. Blanco","setelement":"Infonavit Hermanos Flores Magón"},{"postalCode":"77050","state":"Quintana Roo","municipality":"Othón P. Blanco","setelement":"Fovissste (I Etapa)"},{"postalCode":"77050","state":"Quintana Roo","municipality":"Othón P. Blanco","setelement":"Cascadas II"},{"postalCode":"77050","state":"Quintana Roo","municipality":"Othón P. Blanco","setelement":"Cascada I"},{"postalCode":"77050","state":"Quintana Roo","municipality":"Othón P. Blanco","setelement":"Residencial La Herradura"},{"postalCode":"77053","state":"Quintana Roo","municipality":"Othón P. Blanco","setelement":"Lomas del Caribe"},{"postalCode":"77059","state":"Quintana Roo","municipality":"Othón P. Blanco","setelement":"Infonavit Villas Chetumal"},{"postalCode":"77060","state":"Quintana Roo","municipality":"Othón P. Blanco","setelement":"Militar"},{"postalCode":"77070","state":"Quintana Roo","municipality":"Othón P. Blanco","setelement":"Infonavit Aarón Merino Fernández"},{"postalCode":"77079","state":"Quintana Roo","municipality":"Othón P. Blanco","setelement":"Bahía"},{"postalCode":"77079","state":"Quintana Roo","municipality":"Othón P. Blanco","setelement":"Fovissste VI Etapa (Tampico)"},{"postalCode":"77079","state":"Quintana Roo","municipality":"Othón P. Blanco","setelement":"Zona de Granjas"},{"postalCode":"77079","state":"Quintana Roo","municipality":"Othón P. Blanco","setelement":"Las Brisas"},{"postalCode":"77079","state":"Quintana Roo","municipality":"Othón P. Blanco","setelement":"Residencial Caribe"},{"postalCode":"77080","state":"Quintana Roo","municipality":"Othón P. Blanco","setelement":"Infonavit Fidel Velázquez"},{"postalCode":"77082","state":"Quintana Roo","municipality":"Othón P. Blanco","setelement":"Jardines de Payo Obispo"},{"postalCode":"77082","state":"Quintana Roo","municipality":"Othón P. Blanco","setelement":"Kilómetro 5"},{"postalCode":"77083","state":"Quintana Roo","municipality":"Othón P. Blanco","setelement":"Nuevo Progreso"},{"postalCode":"77083","state":"Quintana Roo","municipality":"Othón P. Blanco","setelement":"Tamalcab"},{"postalCode":"77083","state":"Quintana Roo","municipality":"Othón P. Blanco","setelement":"Payo Obispo"},{"postalCode":"77084","state":"Quintana Roo","municipality":"Othón P. Blanco","setelement":"Infonavit Emancipación"},{"postalCode":"77084","state":"Quintana Roo","municipality":"Othón P. Blanco","setelement":"Payo Obispo"},{"postalCode":"77084","state":"Quintana Roo","municipality":"Othón P. Blanco","setelement":"Maya Real"},{"postalCode":"77085","state":"Quintana Roo","municipality":"Othón P. Blanco","setelement":"Hacienda Chetumal"},{"postalCode":"77086","state":"Quintana Roo","municipality":"Othón P. Blanco","setelement":"Proterritorio"},{"postalCode":"77086","state":"Quintana Roo","municipality":"Othón P. Blanco","setelement":"El Encanto"},{"postalCode":"77086","state":"Quintana Roo","municipality":"Othón P. Blanco","setelement":"Andrés Quintana Roo"},{"postalCode":"77086","state":"Quintana Roo","municipality":"Othón P. Blanco","setelement":"Solidaridad"},{"postalCode":"77086","state":"Quintana Roo","municipality":"Othón P. Blanco","setelement":"La Esperanza"},{"postalCode":"77086","state":"Quintana Roo","municipality":"Othón P. Blanco","setelement":"Residencial del Sol"},{"postalCode":"77086","state":"Quintana Roo","municipality":"Othón P. Blanco","setelement":"Félix Gonzalez Canto"},{"postalCode":"77086","state":"Quintana Roo","municipality":"Othón P. Blanco","setelement":"Sian Kaan II"},{"postalCode":"77086","state":"Quintana Roo","municipality":"Othón P. Blanco","setelement":"Residencial Constituyentes"},{"postalCode":"77086","state":"Quintana Roo","municipality":"Othón P. Blanco","setelement":"Espíritu Santo"},{"postalCode":"77086","state":"Quintana Roo","municipality":"Othón P. Blanco","setelement":"Residencial Bosque Real"},{"postalCode":"77086","state":"Quintana Roo","municipality":"Othón P. Blanco","setelement":"Los Encinos"},{"postalCode":"77086","state":"Quintana Roo","municipality":"Othón P. Blanco","setelement":"El Edén"},{"postalCode":"77086","state":"Quintana Roo","municipality":"Othón P. Blanco","setelement":"Las Arboledas"},{"postalCode":"77086","state":"Quintana Roo","municipality":"Othón P. Blanco","setelement":"Residencial Chetumal"},{"postalCode":"77086","state":"Quintana Roo","municipality":"Othón P. Blanco","setelement":"Caribe"},{"postalCode":"77086","state":"Quintana Roo","municipality":"Othón P. Blanco","setelement":"Territorio Federal de Quintana Roo"},{"postalCode":"77086","state":"Quintana Roo","municipality":"Othón P. Blanco","setelement":"INFONAVIT 17 de Octubre"},{"postalCode":"77086","state":"Quintana Roo","municipality":"Othón P. Blanco","setelement":"Lázaro Cárdenas"},{"postalCode":"77086","state":"Quintana Roo","municipality":"Othón P. Blanco","setelement":"Nueva Generación"},{"postalCode":"77086","state":"Quintana Roo","municipality":"Othón P. Blanco","setelement":"Las Américas"},{"postalCode":"77086","state":"Quintana Roo","municipality":"Othón P. Blanco","setelement":"Residencial Arboledas"},{"postalCode":"77086","state":"Quintana Roo","municipality":"Othón P. Blanco","setelement":"Sian Kaan"},{"postalCode":"77086","state":"Quintana Roo","municipality":"Othón P. Blanco","setelement":"Bicentenario"},{"postalCode":"77090","state":"Quintana Roo","municipality":"Othón P. Blanco","setelement":"Plutarco Elías Calles"},{"postalCode":"77098","state":"Quintana Roo","municipality":"Othón P. Blanco","setelement":"Barrio Bravo"},{"postalCode":"77099","state":"Quintana Roo","municipality":"Othón P. Blanco","setelement":"Primera Legislatura"},{"postalCode":"77100","state":"Quintana Roo","municipality":"Felipe Carrillo Puerto","setelement":"Laguna Kaná"},{"postalCode":"77104","state":"Quintana Roo","municipality":"Felipe Carrillo Puerto","setelement":"Chan Santa Cruz"},{"postalCode":"77104","state":"Quintana Roo","municipality":"Felipe Carrillo Puerto","setelement":"Mixtequilla"},{"postalCode":"77104","state":"Quintana Roo","municipality":"Felipe Carrillo Puerto","setelement":"Santa María Poniente"},{"postalCode":"77104","state":"Quintana Roo","municipality":"Felipe Carrillo Puerto","setelement":"Noh-Cah"},{"postalCode":"77105","state":"Quintana Roo","municipality":"Felipe Carrillo Puerto","setelement":"San Andrés"},{"postalCode":"77106","state":"Quintana Roo","municipality":"Felipe Carrillo Puerto","setelement":"X-Konha"},{"postalCode":"77106","state":"Quintana Roo","municipality":"Felipe Carrillo Puerto","setelement":"X-Hazil Sur"},{"postalCode":"77107","state":"Quintana Roo","municipality":"Felipe Carrillo Puerto","setelement":"Betania"},{"postalCode":"77108","state":"Quintana Roo","municipality":"Felipe Carrillo Puerto","setelement":"Chunhuás"},{"postalCode":"77110","state":"Quintana Roo","municipality":"Felipe Carrillo Puerto","setelement":"Tuzik"},{"postalCode":"77114","state":"Quintana Roo","municipality":"Felipe Carrillo Puerto","setelement":"San José Segundo"},{"postalCode":"77115","state":"Quintana Roo","municipality":"Felipe Carrillo Puerto","setelement":"San Felipe Berriozábal"},{"postalCode":"77115","state":"Quintana Roo","municipality":"Felipe Carrillo Puerto","setelement":"Trapich"},{"postalCode":"77116","state":"Quintana Roo","municipality":"Felipe Carrillo Puerto","setelement":"Francisco I. Madero"},{"postalCode":"77116","state":"Quintana Roo","municipality":"Felipe Carrillo Puerto","setelement":"Yodzonot Chico"},{"postalCode":"77117","state":"Quintana Roo","municipality":"Felipe Carrillo Puerto","setelement":"Francisco May"},{"postalCode":"77118","state":"Quintana Roo","municipality":"Felipe Carrillo Puerto","setelement":"Yalchén"},{"postalCode":"77118","state":"Quintana Roo","municipality":"Felipe Carrillo Puerto","setelement":"San Ramón"},{"postalCode":"77120","state":"Quintana Roo","municipality":"Felipe Carrillo Puerto","setelement":"Tepich"},{"postalCode":"77121","state":"Quintana Roo","municipality":"Felipe Carrillo Puerto","setelement":"Tihosuco"},{"postalCode":"77123","state":"Quintana Roo","municipality":"Felipe Carrillo Puerto","setelement":"Dzoyola"},{"postalCode":"77125","state":"Quintana Roo","municipality":"Felipe Carrillo Puerto","setelement":"San Francisco Aké"},{"postalCode":"77130","state":"Quintana Roo","municipality":"Felipe Carrillo Puerto","setelement":"Chun On"},{"postalCode":"77130","state":"Quintana Roo","municipality":"Felipe Carrillo Puerto","setelement":"Chumpón"},{"postalCode":"77135","state":"Quintana Roo","municipality":"Felipe Carrillo Puerto","setelement":"Chun-Yah"},{"postalCode":"77140","state":"Quintana Roo","municipality":"Felipe Carrillo Puerto","setelement":"Santa Rosa Segundo"},{"postalCode":"77140","state":"Quintana Roo","municipality":"Felipe Carrillo Puerto","setelement":"X-Pichil"},{"postalCode":"77144","state":"Quintana Roo","municipality":"Felipe Carrillo Puerto","setelement":"Tabi"},{"postalCode":"77145","state":"Quintana Roo","municipality":"Felipe Carrillo Puerto","setelement":"Yaxley"},{"postalCode":"77146","state":"Quintana Roo","municipality":"Felipe Carrillo Puerto","setelement":"Tixcacal Guardia"},{"postalCode":"77147","state":"Quintana Roo","municipality":"Felipe Carrillo Puerto","setelement":"Kampokolché"},{"postalCode":"77148","state":"Quintana Roo","municipality":"Felipe Carrillo Puerto","setelement":"Filomeno Mata"},{"postalCode":"77148","state":"Quintana Roo","municipality":"Felipe Carrillo Puerto","setelement":"Hobompich"},{"postalCode":"77150","state":"Quintana Roo","municipality":"Felipe Carrillo Puerto","setelement":"Señor"},{"postalCode":"77156","state":"Quintana Roo","municipality":"Felipe Carrillo Puerto","setelement":"José María Pino Suárez"},{"postalCode":"77156","state":"Quintana Roo","municipality":"Felipe Carrillo Puerto","setelement":"Santa Amalia"},{"postalCode":"77158","state":"Quintana Roo","municipality":"Felipe Carrillo Puerto","setelement":"Kancabchén"},{"postalCode":"77160","state":"Quintana Roo","municipality":"Felipe Carrillo Puerto","setelement":"Chunhuhub"},{"postalCode":"77160","state":"Quintana Roo","municipality":"Felipe Carrillo Puerto","setelement":"Dzulá"},{"postalCode":"77160","state":"Quintana Roo","municipality":"Felipe Carrillo Puerto","setelement":"X-Yatil"},{"postalCode":"77163","state":"Quintana Roo","municipality":"Felipe Carrillo Puerto","setelement":"Yoactún"},{"postalCode":"77169","state":"Quintana Roo","municipality":"Felipe Carrillo Puerto","setelement":"Polyuc"},{"postalCode":"77170","state":"Quintana Roo","municipality":"Felipe Carrillo Puerto","setelement":"Presidente Juárez"},{"postalCode":"77174","state":"Quintana Roo","municipality":"Felipe Carrillo Puerto","setelement":"Ignacio Manuel Altamirano"},{"postalCode":"77175","state":"Quintana Roo","municipality":"Felipe Carrillo Puerto","setelement":"Emiliano Zapata"},{"postalCode":"77175","state":"Quintana Roo","municipality":"Felipe Carrillo Puerto","setelement":"Nuevo Israel"},{"postalCode":"77176","state":"Quintana Roo","municipality":"Felipe Carrillo Puerto","setelement":"Nueva Loría"},{"postalCode":"77177","state":"Quintana Roo","municipality":"Felipe Carrillo Puerto","setelement":"Naranjal Poniente"},{"postalCode":"77178","state":"Quintana Roo","municipality":"Felipe Carrillo Puerto","setelement":"Ramonal"},{"postalCode":"77180","state":"Quintana Roo","municipality":"Felipe Carrillo Puerto","setelement":"Uh May"},{"postalCode":"77185","state":"Quintana Roo","municipality":"Felipe Carrillo Puerto","setelement":"Andrés Quintana Roo"},{"postalCode":"77188","state":"Quintana Roo","municipality":"Felipe Carrillo Puerto","setelement":"Chancah Veracruz"},{"postalCode":"77189","state":"Quintana Roo","municipality":"Felipe Carrillo Puerto","setelement":"Chancah Derrepente"},{"postalCode":"77190","state":"Quintana Roo","municipality":"Felipe Carrillo Puerto","setelement":"Noh-Bec"},{"postalCode":"77196","state":"Quintana Roo","municipality":"Felipe Carrillo Puerto","setelement":"Petcacab"},{"postalCode":"77197","state":"Quintana Roo","municipality":"Felipe Carrillo Puerto","setelement":"Reforma Agraria"},{"postalCode":"77198","state":"Quintana Roo","municipality":"Felipe Carrillo Puerto","setelement":"Kopchen"},{"postalCode":"77200","state":"Quintana Roo","municipality":"Felipe Carrillo Puerto","setelement":"Felipe Carrillo Puerto Centro"},{"postalCode":"77210","state":"Quintana Roo","municipality":"Felipe Carrillo Puerto","setelement":"Leona Vicario"},{"postalCode":"77214","state":"Quintana Roo","municipality":"Felipe Carrillo Puerto","setelement":"Plan de Ayala"},{"postalCode":"77215","state":"Quintana Roo","municipality":"Felipe Carrillo Puerto","setelement":"Plan de Ayutla"},{"postalCode":"77216","state":"Quintana Roo","municipality":"Felipe Carrillo Puerto","setelement":"Plan de Guadalupe"},{"postalCode":"77217","state":"Quintana Roo","municipality":"Felipe Carrillo Puerto","setelement":"Plan de La Noria"},{"postalCode":"77220","state":"Quintana Roo","municipality":"Felipe Carrillo Puerto","setelement":"Jesús Martínez Ross"},{"postalCode":"77229","state":"Quintana Roo","municipality":"Felipe Carrillo Puerto","setelement":"Emiliano Zapata"},{"postalCode":"77230","state":"Quintana Roo","municipality":"Felipe Carrillo Puerto","setelement":"Cecilio Chi"},{"postalCode":"77238","state":"Quintana Roo","municipality":"Felipe Carrillo Puerto","setelement":"Rafael E Melgar"},{"postalCode":"77239","state":"Quintana Roo","municipality":"Felipe Carrillo Puerto","setelement":"Lázaro Cárdenas"},{"postalCode":"77240","state":"Quintana Roo","municipality":"Felipe Carrillo Puerto","setelement":"Francisco May"},{"postalCode":"77249","state":"Quintana Roo","municipality":"Felipe Carrillo Puerto","setelement":"Constituyentes"},{"postalCode":"77249","state":"Quintana Roo","municipality":"Felipe Carrillo Puerto","setelement":"María Villanueva Madrid"},{"postalCode":"77250","state":"Quintana Roo","municipality":"Felipe Carrillo Puerto","setelement":"Juan Bautista Vega"},{"postalCode":"77259","state":"Quintana Roo","municipality":"Felipe Carrillo Puerto","setelement":"Javier Rojo Gómez"},{"postalCode":"77300","state":"Quintana Roo","municipality":"Lázaro Cárdenas","setelement":"Kantunilkin Centro"},{"postalCode":"77302","state":"Quintana Roo","municipality":"Lázaro Cárdenas","setelement":"Xaman - Kah"},{"postalCode":"77303","state":"Quintana Roo","municipality":"Lázaro Cárdenas","setelement":"Borge Martín"},{"postalCode":"77304","state":"Quintana Roo","municipality":"Lázaro Cárdenas","setelement":"Unidad Deportiva"},{"postalCode":"77305","state":"Quintana Roo","municipality":"Lázaro Cárdenas","setelement":"Capa"},{"postalCode":"77306","state":"Quintana Roo","municipality":"Lázaro Cárdenas","setelement":"Terencio Tah"},{"postalCode":"77307","state":"Quintana Roo","municipality":"Lázaro Cárdenas","setelement":"Expo"},{"postalCode":"77310","state":"Quintana Roo","municipality":"Lázaro Cárdenas","setelement":"Isla de Holbox"},{"postalCode":"77320","state":"Quintana Roo","municipality":"Lázaro Cárdenas","setelement":"Chiquila"},{"postalCode":"77330","state":"Quintana Roo","municipality":"Lázaro Cárdenas","setelement":"Solferino"},{"postalCode":"77333","state":"Quintana Roo","municipality":"Lázaro Cárdenas","setelement":"San Ángel"},{"postalCode":"77350","state":"Quintana Roo","municipality":"Lázaro Cárdenas","setelement":"Valladolid Nuevo"},{"postalCode":"77355","state":"Quintana Roo","municipality":"Lázaro Cárdenas","setelement":"Esperanza"},{"postalCode":"77360","state":"Quintana Roo","municipality":"Lázaro Cárdenas","setelement":"Ignacio Zaragoza"},{"postalCode":"77366","state":"Quintana Roo","municipality":"Lázaro Cárdenas","setelement":"San Román"},{"postalCode":"77366","state":"Quintana Roo","municipality":"Lázaro Cárdenas","setelement":"El Tintal"},{"postalCode":"77367","state":"Quintana Roo","municipality":"Lázaro Cárdenas","setelement":"El Pocito"},{"postalCode":"77368","state":"Quintana Roo","municipality":"Lázaro Cárdenas","setelement":"El Ideal"},{"postalCode":"77369","state":"Quintana Roo","municipality":"Lázaro Cárdenas","setelement":"El Cedral"},{"postalCode":"77369","state":"Quintana Roo","municipality":"Lázaro Cárdenas","setelement":"San Pedro"},{"postalCode":"77369","state":"Quintana Roo","municipality":"Lázaro Cárdenas","setelement":"Vicente Guerrero"},{"postalCode":"77370","state":"Quintana Roo","municipality":"Lázaro Cárdenas","setelement":"Agua Azul"},{"postalCode":"77370","state":"Quintana Roo","municipality":"Lázaro Cárdenas","setelement":"Benito Juárez"},{"postalCode":"77376","state":"Quintana Roo","municipality":"Lázaro Cárdenas","setelement":"San Martiniano"},{"postalCode":"77376","state":"Quintana Roo","municipality":"Lázaro Cárdenas","setelement":"San Lorenzo"},{"postalCode":"77376","state":"Quintana Roo","municipality":"Lázaro Cárdenas","setelement":"Tres Marias"},{"postalCode":"77376","state":"Quintana Roo","municipality":"Lázaro Cárdenas","setelement":"Delirios"},{"postalCode":"77377","state":"Quintana Roo","municipality":"Lázaro Cárdenas","setelement":"Héroe de Nacozari"},{"postalCode":"77378","state":"Quintana Roo","municipality":"Lázaro Cárdenas","setelement":"Los Cedros"},{"postalCode":"77378","state":"Quintana Roo","municipality":"Lázaro Cárdenas","setelement":"La Ceiba"},{"postalCode":"77378","state":"Quintana Roo","municipality":"Lázaro Cárdenas","setelement":"Antorchista"},{"postalCode":"77378","state":"Quintana Roo","municipality":"Lázaro Cárdenas","setelement":"Nuevo Quintana Roo"},{"postalCode":"77378","state":"Quintana Roo","municipality":"Lázaro Cárdenas","setelement":"Los Almendros"},{"postalCode":"77380","state":"Quintana Roo","municipality":"Lázaro Cárdenas","setelement":"Nuevo Xcan"},{"postalCode":"77384","state":"Quintana Roo","municipality":"Lázaro Cárdenas","setelement":"Tres Reyes"},{"postalCode":"77385","state":"Quintana Roo","municipality":"Lázaro Cárdenas","setelement":"San Antonio"},{"postalCode":"77385","state":"Quintana Roo","municipality":"Lázaro Cárdenas","setelement":"El Naranjal"},{"postalCode":"77385","state":"Quintana Roo","municipality":"Lázaro Cárdenas","setelement":"San Francisco"},{"postalCode":"77385","state":"Quintana Roo","municipality":"Lázaro Cárdenas","setelement":"San Juan de Dios"},{"postalCode":"77386","state":"Quintana Roo","municipality":"Lázaro Cárdenas","setelement":"Constituyentes del Setenta y Cuatro"},{"postalCode":"77400","state":"Quintana Roo","municipality":"Isla Mujeres","setelement":"El Cañotal"},{"postalCode":"77400","state":"Quintana Roo","municipality":"Isla Mujeres","setelement":"Isla Mujeres Centro"},{"postalCode":"77400","state":"Quintana Roo","municipality":"Isla Mujeres","setelement":"La Gloria"},{"postalCode":"77400","state":"Quintana Roo","municipality":"Isla Mujeres","setelement":"Miraflores"},{"postalCode":"77400","state":"Quintana Roo","municipality":"Isla Mujeres","setelement":"Isla Blanca"},{"postalCode":"77400","state":"Quintana Roo","municipality":"Isla Mujeres","setelement":"Metereológico"},{"postalCode":"77400","state":"Quintana Roo","municipality":"Isla Mujeres","setelement":"Lolbe"},{"postalCode":"77400","state":"Quintana Roo","municipality":"Isla Mujeres","setelement":"Santa Rosa"},{"postalCode":"77400","state":"Quintana Roo","municipality":"Isla Mujeres","setelement":"Salina Grande"},{"postalCode":"77400","state":"Quintana Roo","municipality":"Isla Mujeres","setelement":"Caridad del Cobre"},{"postalCode":"77400","state":"Quintana Roo","municipality":"Isla Mujeres","setelement":"Salina Chica"},{"postalCode":"77400","state":"Quintana Roo","municipality":"Isla Mujeres","setelement":"Ampliación la Gloria"},{"postalCode":"77400","state":"Quintana Roo","municipality":"Isla Mujeres","setelement":"Punta Gaviota"},{"postalCode":"77400","state":"Quintana Roo","municipality":"Isla Mujeres","setelement":"23 de Noviembre"},{"postalCode":"77400","state":"Quintana Roo","municipality":"Isla Mujeres","setelement":"Isla Mujeres"},{"postalCode":"77402","state":"Quintana Roo","municipality":"Isla Mujeres","setelement":"Mar Caribe"},{"postalCode":"77402","state":"Quintana Roo","municipality":"Isla Mujeres","setelement":"Mar Caribe"},{"postalCode":"77402","state":"Quintana Roo","municipality":"Isla Mujeres","setelement":"Vista Alegre"},{"postalCode":"77403","state":"Quintana Roo","municipality":"Isla Mujeres","setelement":"Del Sureste"},{"postalCode":"77404","state":"Quintana Roo","municipality":"Isla Mujeres","setelement":"Lagunamar"},{"postalCode":"77406","state":"Quintana Roo","municipality":"Isla Mujeres","setelement":"Islote de Carbonera"},{"postalCode":"77407","state":"Quintana Roo","municipality":"Isla Mujeres","setelement":"Puerto de Abrigo"},{"postalCode":"77407","state":"Quintana Roo","municipality":"Isla Mujeres","setelement":"Electricistas"},{"postalCode":"77407","state":"Quintana Roo","municipality":"Isla Mujeres","setelement":"Caribeña"},{"postalCode":"77408","state":"Quintana Roo","municipality":"Isla Mujeres","setelement":"Islote El Yunque"},{"postalCode":"77409","state":"Quintana Roo","municipality":"Isla Mujeres","setelement":"Prolongación Aeropuerto"},{"postalCode":"77409","state":"Quintana Roo","municipality":"Isla Mujeres","setelement":"Bahía"},{"postalCode":"77410","state":"Quintana Roo","municipality":"Isla Mujeres","setelement":"La Guadalupana"},{"postalCode":"77410","state":"Quintana Roo","municipality":"Isla Mujeres","setelement":"Monte Olivo"},{"postalCode":"77410","state":"Quintana Roo","municipality":"Isla Mujeres","setelement":"Las Américas"},{"postalCode":"77410","state":"Quintana Roo","municipality":"Isla Mujeres","setelement":"Supermanzana 1"},{"postalCode":"77410","state":"Quintana Roo","municipality":"Isla Mujeres","setelement":"El Nazareno"},{"postalCode":"77410","state":"Quintana Roo","municipality":"Isla Mujeres","setelement":"Del Bosque"},{"postalCode":"77420","state":"Quintana Roo","municipality":"Isla Mujeres","setelement":"Punta Sam"},{"postalCode":"77500","state":"Quintana Roo","municipality":"Benito Juárez","setelement":"Villas Tropicales"},{"postalCode":"77500","state":"Quintana Roo","municipality":"Benito Juárez","setelement":"Cancún Centro"},{"postalCode":"77500","state":"Quintana Roo","municipality":"Benito Juárez","setelement":"Supermanzana 20 Centro"},{"postalCode":"77500","state":"Quintana Roo","municipality":"Benito Juárez","setelement":"Supermanzana 1 Centro"},{"postalCode":"77500","state":"Quintana Roo","municipality":"Benito Juárez","setelement":"Supermanzana 2 Centro"},{"postalCode":"77500","state":"Quintana Roo","municipality":"Benito Juárez","setelement":"Supermanzana 2a Centro"},{"postalCode":"77500","state":"Quintana Roo","municipality":"Benito Juárez","setelement":"Supermanzana 3 Centro"},{"postalCode":"77500","state":"Quintana Roo","municipality":"Benito Juárez","setelement":"Supermanzana 4 Centro"},{"postalCode":"77500","state":"Quintana Roo","municipality":"Benito Juárez","setelement":"Supermanzana 5 Centro"},{"postalCode":"77500","state":"Quintana Roo","municipality":"Benito Juárez","setelement":"Supermanzana 22 Centro"},{"postalCode":"77500","state":"Quintana Roo","municipality":"Benito Juárez","setelement":"Supermanzana 23 Centro"},{"postalCode":"77500","state":"Quintana Roo","municipality":"Benito Juárez","setelement":"Zona Hotelera"},{"postalCode":"77500","state":"Quintana Roo","municipality":"Benito Juárez","setelement":"Residencial La Cascada"},{"postalCode":"77500","state":"Quintana Roo","municipality":"Benito Juárez","setelement":"Supermanzana 52"},{"postalCode":"77500","state":"Quintana Roo","municipality":"Benito Juárez","setelement":"Supermanzana 4 A"},{"postalCode":"77500","state":"Quintana Roo","municipality":"Benito Juárez","setelement":"Juárez"},{"postalCode":"77503","state":"Quintana Roo","municipality":"Benito Juárez","setelement":"Supermanzana 6a"},{"postalCode":"77503","state":"Quintana Roo","municipality":"Benito Juárez","setelement":"Supermanzana 7"},{"postalCode":"77503","state":"Quintana Roo","municipality":"Benito Juárez","setelement":"Supermanzana 9"},{"postalCode":"77503","state":"Quintana Roo","municipality":"Benito Juárez","setelement":"Supermanzana 6b"},{"postalCode":"77503","state":"Quintana Roo","municipality":"Benito Juárez","setelement":"Supermanzana 6c"},{"postalCode":"77503","state":"Quintana Roo","municipality":"Benito Juárez","setelement":"Supermanzana 6d"},{"postalCode":"77503","state":"Quintana Roo","municipality":"Benito Juárez","setelement":"Supermanzana 6e"},{"postalCode":"77503","state":"Quintana Roo","municipality":"Benito Juárez","setelement":"Supermanzana 6f"},{"postalCode":"77503","state":"Quintana Roo","municipality":"Benito Juárez","setelement":"Supermanzana 10"},{"postalCode":"77504","state":"Quintana Roo","municipality":"Benito Juárez","setelement":"Supermanzana 8"},{"postalCode":"77504","state":"Quintana Roo","municipality":"Benito Juárez","setelement":"Supermanzana 11"},{"postalCode":"77504","state":"Quintana Roo","municipality":"Benito Juárez","setelement":"Supermanzana 12"},{"postalCode":"77504","state":"Quintana Roo","municipality":"Benito Juárez","setelement":"Supermanzana 13"},{"postalCode":"77504","state":"Quintana Roo","municipality":"Benito Juárez","setelement":"Supermanzana 14"},{"postalCode":"77505","state":"Quintana Roo","municipality":"Benito Juárez","setelement":"Supermanzana 15"},{"postalCode":"77505","state":"Quintana Roo","municipality":"Benito Juárez","setelement":"Supermanzana 15a"},{"postalCode":"77505","state":"Quintana Roo","municipality":"Benito Juárez","setelement":"Supermanzana 16"},{"postalCode":"77505","state":"Quintana Roo","municipality":"Benito Juárez","setelement":"Supermanzana 17"},{"postalCode":"77505","state":"Quintana Roo","municipality":"Benito Juárez","setelement":"Supermanzana 18"},{"postalCode":"77505","state":"Quintana Roo","municipality":"Benito Juárez","setelement":"Supermanzana 19"},{"postalCode":"77505","state":"Quintana Roo","municipality":"Benito Juárez","setelement":"Supermanzana 35"},{"postalCode":"77505","state":"Quintana Roo","municipality":"Benito Juárez","setelement":"Supermanzana 36"},{"postalCode":"77505","state":"Quintana Roo","municipality":"Benito Juárez","setelement":"Supermanzana 21"},{"postalCode":"77506","state":"Quintana Roo","municipality":"Benito Juárez","setelement":"Supermanzana 48"},{"postalCode":"77506","state":"Quintana Roo","municipality":"Benito Juárez","setelement":"Supermanzana 43"},{"postalCode":"77506","state":"Quintana Roo","municipality":"Benito Juárez","setelement":"Supermanzana 44"},{"postalCode":"77506","state":"Quintana Roo","municipality":"Benito Juárez","setelement":"Supermanzana 45"},{"postalCode":"77506","state":"Quintana Roo","municipality":"Benito Juárez","setelement":"Supermanzana 46"},{"postalCode":"77506","state":"Quintana Roo","municipality":"Benito Juárez","setelement":"Supermanzana 47"},{"postalCode":"77506","state":"Quintana Roo","municipality":"Benito Juárez","setelement":"Supermanzana 53"},{"postalCode":"77506","state":"Quintana Roo","municipality":"Benito Juárez","setelement":"La Herradura"},{"postalCode":"77507","state":"Quintana Roo","municipality":"Benito Juárez","setelement":"Supermanzana 37"},{"postalCode":"77507","state":"Quintana Roo","municipality":"Benito Juárez","setelement":"Supermanzana 38"},{"postalCode":"77507","state":"Quintana Roo","municipality":"Benito Juárez","setelement":"Supermanzana 39"},{"postalCode":"77507","state":"Quintana Roo","municipality":"Benito Juárez","setelement":"Supermanzana 40"},{"postalCode":"77507","state":"Quintana Roo","municipality":"Benito Juárez","setelement":"Supermanzana 41"},{"postalCode":"77507","state":"Quintana Roo","municipality":"Benito Juárez","setelement":"Supermanzana 42"},{"postalCode":"77507","state":"Quintana Roo","municipality":"Benito Juárez","setelement":"Arboledas"},{"postalCode":"77508","state":"Quintana Roo","municipality":"Benito Juárez","setelement":"Supermanzana 29"},{"postalCode":"77508","state":"Quintana Roo","municipality":"Benito Juárez","setelement":"Supermanzana 31"},{"postalCode":"77508","state":"Quintana Roo","municipality":"Benito Juárez","setelement":"Supermanzana 32"},{"postalCode":"77508","state":"Quintana Roo","municipality":"Benito Juárez","setelement":"Supermanzana 34"},{"postalCode":"77508","state":"Quintana Roo","municipality":"Benito Juárez","setelement":"Supermanzana 33"},{"postalCode":"77509","state":"Quintana Roo","municipality":"Benito Juárez","setelement":"Supermanzana 26"},{"postalCode":"77509","state":"Quintana Roo","municipality":"Benito Juárez","setelement":"Supermanzana 24"},{"postalCode":"77509","state":"Quintana Roo","municipality":"Benito Juárez","setelement":"Supermanzana 25"},{"postalCode":"77509","state":"Quintana Roo","municipality":"Benito Juárez","setelement":"Supermanzana 27"},{"postalCode":"77509","state":"Quintana Roo","municipality":"Benito Juárez","setelement":"Supermanzana 30"},{"postalCode":"77509","state":"Quintana Roo","municipality":"Benito Juárez","setelement":"Supermanzana 28"},{"postalCode":"77510","state":"Quintana Roo","municipality":"Benito Juárez","setelement":"Supermanzana 66"},{"postalCode":"77510","state":"Quintana Roo","municipality":"Benito Juárez","setelement":"Supermanzana 231"},{"postalCode":"77510","state":"Quintana Roo","municipality":"Benito Juárez","setelement":"Supermanzana 232"},{"postalCode":"77510","state":"Quintana Roo","municipality":"Benito Juárez","setelement":"Supermanzana 233"},{"postalCode":"77510","state":"Quintana Roo","municipality":"Benito Juárez","setelement":"Supermanzana 67"},{"postalCode":"77510","state":"Quintana Roo","municipality":"Benito Juárez","setelement":"Supermanzana 69"},{"postalCode":"77510","state":"Quintana Roo","municipality":"Benito Juárez","setelement":"Supermanzana 70"},{"postalCode":"77510","state":"Quintana Roo","municipality":"Benito Juárez","setelement":"Supermanzana 71"},{"postalCode":"77510","state":"Quintana Roo","municipality":"Benito Juárez","setelement":"Supermanzana 72"},{"postalCode":"77510","state":"Quintana Roo","municipality":"Benito Juárez","setelement":"Supermanzana 240"},{"postalCode":"77510","state":"Quintana Roo","municipality":"Benito Juárez","setelement":"Supermanzana 73"},{"postalCode":"77510","state":"Quintana Roo","municipality":"Benito Juárez","setelement":"Supermanzana 234"},{"postalCode":"77510","state":"Quintana Roo","municipality":"Benito Juárez","setelement":"Supermanzana 235"},{"postalCode":"77510","state":"Quintana Roo","municipality":"Benito Juárez","setelement":"Supermanzana 90"},{"postalCode":"77513","state":"Quintana Roo","municipality":"Benito Juárez","setelement":"Supermanzana 63"},{"postalCode":"77513","state":"Quintana Roo","municipality":"Benito Juárez","setelement":"Supermanzana 62"},{"postalCode":"77514","state":"Quintana Roo","municipality":"Benito Juárez","setelement":"Supermanzana 60"},{"postalCode":"77514","state":"Quintana Roo","municipality":"Benito Juárez","setelement":"Supermanzana 61"},{"postalCode":"77515","state":"Quintana Roo","municipality":"Benito Juárez","setelement":"Supermanzana 58"},{"postalCode":"77515","state":"Quintana Roo","municipality":"Benito Juárez","setelement":"Supermanzana 59"},{"postalCode":"77516","state":"Quintana Roo","municipality":"Benito Juárez","setelement":"Supermanzana 245"},{"postalCode":"77516","state":"Quintana Roo","municipality":"Benito Juárez","setelement":"In House"},{"postalCode":"77516","state":"Quintana Roo","municipality":"Benito Juárez","setelement":"Rinconadas del Mar"},{"postalCode":"77516","state":"Quintana Roo","municipality":"Benito Juárez","setelement":"Azul Bonampak"},{"postalCode":"77516","state":"Quintana Roo","municipality":"Benito Juárez","setelement":"Los García"},{"postalCode":"77516","state":"Quintana Roo","municipality":"Benito Juárez","setelement":"Tierra y Libertad"},{"postalCode":"77516","state":"Quintana Roo","municipality":"Benito Juárez","setelement":"Sac-Be"},{"postalCode":"77516","state":"Quintana Roo","municipality":"Benito Juárez","setelement":"Supermanzana 91"},{"postalCode":"77516","state":"Quintana Roo","municipality":"Benito Juárez","setelement":"Supermanzana 92"},{"postalCode":"77516","state":"Quintana Roo","municipality":"Benito Juárez","setelement":"Supermanzana 228"},{"postalCode":"77516","state":"Quintana Roo","municipality":"Benito Juárez","setelement":"Supermanzana 229"},{"postalCode":"77516","state":"Quintana Roo","municipality":"Benito Juárez","setelement":"Supermanzana 230"},{"postalCode":"77516","state":"Quintana Roo","municipality":"Benito Juárez","setelement":"Supermanzana 227"},{"postalCode":"77516","state":"Quintana Roo","municipality":"Benito Juárez","setelement":"Hacienda Del Rey"},{"postalCode":"77516","state":"Quintana Roo","municipality":"Benito Juárez","setelement":"Supermanzana 225"},{"postalCode":"77516","state":"Quintana Roo","municipality":"Benito Juárez","setelement":"Supermanzana 226"},{"postalCode":"77516","state":"Quintana Roo","municipality":"Benito Juárez","setelement":"Villas Otoch"},{"postalCode":"77516","state":"Quintana Roo","municipality":"Benito Juárez","setelement":"Paseo de Las Palmas"},{"postalCode":"77516","state":"Quintana Roo","municipality":"Benito Juárez","setelement":"Guerrero"},{"postalCode":"77516","state":"Quintana Roo","municipality":"Benito Juárez","setelement":"Bahía Real"},{"postalCode":"77517","state":"Quintana Roo","municipality":"Benito Juárez","setelement":"Villas del Mar \"Plus\""},{"postalCode":"77517","state":"Quintana Roo","municipality":"Benito Juárez","setelement":"Residencial Turquesa"},{"postalCode":"77517","state":"Quintana Roo","municipality":"Benito Juárez","setelement":"Villas del Mar"},{"postalCode":"77517","state":"Quintana Roo","municipality":"Benito Juárez","setelement":"Supermanzana 93"},{"postalCode":"77517","state":"Quintana Roo","municipality":"Benito Juárez","setelement":"Supermanzana 94"},{"postalCode":"77517","state":"Quintana Roo","municipality":"Benito Juárez","setelement":"Supermanzana 219"},{"postalCode":"77517","state":"Quintana Roo","municipality":"Benito Juárez","setelement":"Supermanzana 220"},{"postalCode":"77517","state":"Quintana Roo","municipality":"Benito Juárez","setelement":"Supermanzana 221"},{"postalCode":"77517","state":"Quintana Roo","municipality":"Benito Juárez","setelement":"Ixchel"},{"postalCode":"77517","state":"Quintana Roo","municipality":"Benito Juárez","setelement":"Supermanzana 222"},{"postalCode":"77517","state":"Quintana Roo","municipality":"Benito Juárez","setelement":"Supermanzana 223"},{"postalCode":"77517","state":"Quintana Roo","municipality":"Benito Juárez","setelement":"Residencial San Antonio"},{"postalCode":"77517","state":"Quintana Roo","municipality":"Benito Juárez","setelement":"Casas del Mar"},{"postalCode":"77518","state":"Quintana Roo","municipality":"Benito Juárez","setelement":"Los Santos"},{"postalCode":"77518","state":"Quintana Roo","municipality":"Benito Juárez","setelement":"Privadas Sacbe"},{"postalCode":"77518","state":"Quintana Roo","municipality":"Benito Juárez","setelement":"Paseos Chac Mool"},{"postalCode":"77518","state":"Quintana Roo","municipality":"Benito Juárez","setelement":"Paseos Kabah"},{"postalCode":"77518","state":"Quintana Roo","municipality":"Benito Juárez","setelement":"Paseo San Ángel"},{"postalCode":"77518","state":"Quintana Roo","municipality":"Benito Juárez","setelement":"Supermanzana 215"},{"postalCode":"77518","state":"Quintana Roo","municipality":"Benito Juárez","setelement":"Residencial Vista Alegre"},{"postalCode":"77518","state":"Quintana Roo","municipality":"Benito Juárez","setelement":"Marina Turquesa"},{"postalCode":"77518","state":"Quintana Roo","municipality":"Benito Juárez","setelement":"Supermanzana 100"},{"postalCode":"77518","state":"Quintana Roo","municipality":"Benito Juárez","setelement":"La Guadalupana"},{"postalCode":"77518","state":"Quintana Roo","municipality":"Benito Juárez","setelement":"Supermanzana 218"},{"postalCode":"77518","state":"Quintana Roo","municipality":"Benito Juárez","setelement":"Los Héroes"},{"postalCode":"77518","state":"Quintana Roo","municipality":"Benito Juárez","setelement":"Supermanzana 216"},{"postalCode":"77518","state":"Quintana Roo","municipality":"Benito Juárez","setelement":"Supermanzana 217"},{"postalCode":"77518","state":"Quintana Roo","municipality":"Benito Juárez","setelement":"Supermanzana 253"},{"postalCode":"77518","state":"Quintana Roo","municipality":"Benito Juárez","setelement":"Galaxia del Sol"},{"postalCode":"77518","state":"Quintana Roo","municipality":"Benito Juárez","setelement":"Galaxia las Torres"},{"postalCode":"77518","state":"Quintana Roo","municipality":"Benito Juárez","setelement":"Vista Real"},{"postalCode":"77519","state":"Quintana Roo","municipality":"Benito Juárez","setelement":"Paseos del Sol (Supermanzana 205)"},{"postalCode":"77519","state":"Quintana Roo","municipality":"Benito Juárez","setelement":"Paseos del Mar"},{"postalCode":"77519","state":"Quintana Roo","municipality":"Benito Juárez","setelement":"Monte Real"},{"postalCode":"77519","state":"Quintana Roo","municipality":"Benito Juárez","setelement":"Paseo Nikté"},{"postalCode":"77519","state":"Quintana Roo","municipality":"Benito Juárez","setelement":"Residencial Alejandría"},{"postalCode":"77519","state":"Quintana Roo","municipality":"Benito Juárez","setelement":"Villas del Sol"},{"postalCode":"77519","state":"Quintana Roo","municipality":"Benito Juárez","setelement":"Paraíso"},{"postalCode":"77519","state":"Quintana Roo","municipality":"Benito Juárez","setelement":"Esmeralda"},{"postalCode":"77519","state":"Quintana Roo","municipality":"Benito Juárez","setelement":"Supermanzana 206"},{"postalCode":"77519","state":"Quintana Roo","municipality":"Benito Juárez","setelement":"Supermanzana 208"},{"postalCode":"77519","state":"Quintana Roo","municipality":"Benito Juárez","setelement":"Supermanzana 213"},{"postalCode":"77519","state":"Quintana Roo","municipality":"Benito Juárez","setelement":"Supermanzana 214"},{"postalCode":"77519","state":"Quintana Roo","municipality":"Benito Juárez","setelement":"Tierra Nuestra Cancún"},{"postalCode":"77519","state":"Quintana Roo","municipality":"Benito Juárez","setelement":"Supermanzana 101"},{"postalCode":"77519","state":"Quintana Roo","municipality":"Benito Juárez","setelement":"Supermanzana 210"},{"postalCode":"77519","state":"Quintana Roo","municipality":"Benito Juárez","setelement":"Supermanzana 211"},{"postalCode":"77519","state":"Quintana Roo","municipality":"Benito Juárez","setelement":"Petén"},{"postalCode":"77519","state":"Quintana Roo","municipality":"Benito Juárez","setelement":"Las Lajas"},{"postalCode":"77519","state":"Quintana Roo","municipality":"Benito Juárez","setelement":"Supermanzana 212"},{"postalCode":"77519","state":"Quintana Roo","municipality":"Benito Juárez","setelement":"Rinconada Santa María"},{"postalCode":"77519","state":"Quintana Roo","municipality":"Benito Juárez","setelement":"Supermanzana 209"},{"postalCode":"77519","state":"Quintana Roo","municipality":"Benito Juárez","setelement":"La Joya (Supermanzana 254)"},{"postalCode":"77519","state":"Quintana Roo","municipality":"Benito Juárez","setelement":"Villas del Sol II (Supermanzana 207)"},{"postalCode":"77519","state":"Quintana Roo","municipality":"Benito Juárez","setelement":"Lagos"},{"postalCode":"77520","state":"Quintana Roo","municipality":"Benito Juárez","setelement":"Supermanzana 86"},{"postalCode":"77520","state":"Quintana Roo","municipality":"Benito Juárez","setelement":"Punta Sam"},{"postalCode":"77520","state":"Quintana Roo","municipality":"Benito Juárez","setelement":"Supermanzana 85"},{"postalCode":"77524","state":"Quintana Roo","municipality":"Benito Juárez","setelement":"Supermanzana 64"},{"postalCode":"77524","state":"Quintana Roo","municipality":"Benito Juárez","setelement":"Supermanzana 65"},{"postalCode":"77524","state":"Quintana Roo","municipality":"Benito Juárez","setelement":"Supermanzana 68"},{"postalCode":"77524","state":"Quintana Roo","municipality":"Benito Juárez","setelement":"Donceles"},{"postalCode":"77525","state":"Quintana Roo","municipality":"Benito Juárez","setelement":"Supermanzana 84"},{"postalCode":"77526","state":"Quintana Roo","municipality":"Benito Juárez","setelement":"Supermanzana 74"},{"postalCode":"77526","state":"Quintana Roo","municipality":"Benito Juárez","setelement":"Lombardo Toledano"},{"postalCode":"77527","state":"Quintana Roo","municipality":"Benito Juárez","setelement":"Los Cedros"},{"postalCode":"77527","state":"Quintana Roo","municipality":"Benito Juárez","setelement":"San Martín Caballero"},{"postalCode":"77527","state":"Quintana Roo","municipality":"Benito Juárez","setelement":"Nuevo Amanecer"},{"postalCode":"77527","state":"Quintana Roo","municipality":"Benito Juárez","setelement":"Nuevo Pedregal"},{"postalCode":"77527","state":"Quintana Roo","municipality":"Benito Juárez","setelement":"San Alfredo"},{"postalCode":"77527","state":"Quintana Roo","municipality":"Benito Juárez","setelement":"Los Tucanes (Supermanzana 242)"},{"postalCode":"77527","state":"Quintana Roo","municipality":"Benito Juárez","setelement":"Supermanzana 243"},{"postalCode":"77527","state":"Quintana Roo","municipality":"Benito Juárez","setelement":"Supermanzana 244"},{"postalCode":"77527","state":"Quintana Roo","municipality":"Benito Juárez","setelement":"Supermanzana 75"},{"postalCode":"77527","state":"Quintana Roo","municipality":"Benito Juárez","setelement":"Supermanzana 76"},{"postalCode":"77527","state":"Quintana Roo","municipality":"Benito Juárez","setelement":"Supermanzana 236"},{"postalCode":"77527","state":"Quintana Roo","municipality":"Benito Juárez","setelement":"Supermanzana 238"},{"postalCode":"77527","state":"Quintana Roo","municipality":"Benito Juárez","setelement":"Supermanzana 237"},{"postalCode":"77527","state":"Quintana Roo","municipality":"Benito Juárez","setelement":"Supermanzana 239"},{"postalCode":"77527","state":"Quintana Roo","municipality":"Benito Juárez","setelement":"Supermanzana 89"},{"postalCode":"77527","state":"Quintana Roo","municipality":"Benito Juárez","setelement":"Francisco Villa"},{"postalCode":"77527","state":"Quintana Roo","municipality":"Benito Juárez","setelement":"Supermanzana 241"},{"postalCode":"77527","state":"Quintana Roo","municipality":"Benito Juárez","setelement":"La Morena"},{"postalCode":"77527","state":"Quintana Roo","municipality":"Benito Juárez","setelement":"3 Hermanos"},{"postalCode":"77528","state":"Quintana Roo","municipality":"Benito Juárez","setelement":"Supermanzana 77"},{"postalCode":"77528","state":"Quintana Roo","municipality":"Benito Juárez","setelement":"Supermanzana 78"},{"postalCode":"77528","state":"Quintana Roo","municipality":"Benito Juárez","setelement":"Jardines de Banampak"},{"postalCode":"77530","state":"Quintana Roo","municipality":"Benito Juárez","setelement":"Supermanzana 97"},{"postalCode":"77533","state":"Quintana Roo","municipality":"Benito Juárez","setelement":"Residencial Caracol"},{"postalCode":"77533","state":"Quintana Roo","municipality":"Benito Juárez","setelement":"Supermanzana 313"},{"postalCode":"77533","state":"Quintana Roo","municipality":"Benito Juárez","setelement":"Privada Altus"},{"postalCode":"77533","state":"Quintana Roo","municipality":"Benito Juárez","setelement":"Supermanzana 54"},{"postalCode":"77533","state":"Quintana Roo","municipality":"Benito Juárez","setelement":"Residencial Isla Azul"},{"postalCode":"77533","state":"Quintana Roo","municipality":"Benito Juárez","setelement":"Supermanzana 49"},{"postalCode":"77533","state":"Quintana Roo","municipality":"Benito Juárez","setelement":"Supermanzana 50"},{"postalCode":"77533","state":"Quintana Roo","municipality":"Benito Juárez","setelement":"Supermanzana 51"},{"postalCode":"77533","state":"Quintana Roo","municipality":"Benito Juárez","setelement":"Supermanzana 502"},{"postalCode":"77533","state":"Quintana Roo","municipality":"Benito Juárez","setelement":"Supermanzana 503"},{"postalCode":"77533","state":"Quintana Roo","municipality":"Benito Juárez","setelement":"Supermanzana 504"},{"postalCode":"77533","state":"Quintana Roo","municipality":"Benito Juárez","setelement":"Supermanzana 505"},{"postalCode":"77533","state":"Quintana Roo","municipality":"Benito Juárez","setelement":"Supermanzana 506"},{"postalCode":"77533","state":"Quintana Roo","municipality":"Benito Juárez","setelement":"Supermanzana 507"},{"postalCode":"77533","state":"Quintana Roo","municipality":"Benito Juárez","setelement":"Supermanzana 508"},{"postalCode":"77533","state":"Quintana Roo","municipality":"Benito Juárez","setelement":"Supermanzana 509"},{"postalCode":"77533","state":"Quintana Roo","municipality":"Benito Juárez","setelement":"Supermanzana 501"},{"postalCode":"77533","state":"Quintana Roo","municipality":"Benito Juárez","setelement":"Supermanzana 500"},{"postalCode":"77533","state":"Quintana Roo","municipality":"Benito Juárez","setelement":"Costa del Mar"},{"postalCode":"77533","state":"Quintana Roo","municipality":"Benito Juárez","setelement":"Álamos I"},{"postalCode":"77533","state":"Quintana Roo","municipality":"Benito Juárez","setelement":"Chamuyil"},{"postalCode":"77533","state":"Quintana Roo","municipality":"Benito Juárez","setelement":"Malibú"},{"postalCode":"77533","state":"Quintana Roo","municipality":"Benito Juárez","setelement":"Porto Alegre"},{"postalCode":"77533","state":"Quintana Roo","municipality":"Benito Juárez","setelement":"Quetzales (Supermanzana 523)"},{"postalCode":"77533","state":"Quintana Roo","municipality":"Benito Juárez","setelement":"Supermanzana 57"},{"postalCode":"77533","state":"Quintana Roo","municipality":"Benito Juárez","setelement":"Framboyanes"},{"postalCode":"77533","state":"Quintana Roo","municipality":"Benito Juárez","setelement":"Residencial Sol del Mayab"},{"postalCode":"77533","state":"Quintana Roo","municipality":"Benito Juárez","setelement":"Paraíso Villas"},{"postalCode":"77533","state":"Quintana Roo","municipality":"Benito Juárez","setelement":"Supermanzana 55"},{"postalCode":"77533","state":"Quintana Roo","municipality":"Benito Juárez","setelement":"San José Bonampack"},{"postalCode":"77533","state":"Quintana Roo","municipality":"Benito Juárez","setelement":"Las Torres"},{"postalCode":"77533","state":"Quintana Roo","municipality":"Benito Juárez","setelement":"Supermanzana 312"},{"postalCode":"77534","state":"Quintana Roo","municipality":"Benito Juárez","setelement":"Supermanzana 95"},{"postalCode":"77534","state":"Quintana Roo","municipality":"Benito Juárez","setelement":"Supermanzana 510"},{"postalCode":"77534","state":"Quintana Roo","municipality":"Benito Juárez","setelement":"Supermanzana 511"},{"postalCode":"77534","state":"Quintana Roo","municipality":"Benito Juárez","setelement":"Supermanzana 512"},{"postalCode":"77534","state":"Quintana Roo","municipality":"Benito Juárez","setelement":"Santa Fe Plus"},{"postalCode":"77534","state":"Quintana Roo","municipality":"Benito Juárez","setelement":"Santa Fe (Supermanzana 524)"},{"postalCode":"77534","state":"Quintana Roo","municipality":"Benito Juárez","setelement":"Supermanzana 525"},{"postalCode":"77535","state":"Quintana Roo","municipality":"Benito Juárez","setelement":"Supermanzana 327"},{"postalCode":"77535","state":"Quintana Roo","municipality":"Benito Juárez","setelement":"Vitalá"},{"postalCode":"77535","state":"Quintana Roo","municipality":"Benito Juárez","setelement":"Residencial Cuyagua"},{"postalCode":"77535","state":"Quintana Roo","municipality":"Benito Juárez","setelement":"Supermanzana 322"},{"postalCode":"77535","state":"Quintana Roo","municipality":"Benito Juárez","setelement":"Supermanzana 323"},{"postalCode":"77535","state":"Quintana Roo","municipality":"Benito Juárez","setelement":"Punta Estrella"},{"postalCode":"77535","state":"Quintana Roo","municipality":"Benito Juárez","setelement":"Dream Lagoons"},{"postalCode":"77535","state":"Quintana Roo","municipality":"Benito Juárez","setelement":"Supermanzana 96"},{"postalCode":"77535","state":"Quintana Roo","municipality":"Benito Juárez","setelement":"Supermanzana 514"},{"postalCode":"77535","state":"Quintana Roo","municipality":"Benito Juárez","setelement":"Supermanzana 515"},{"postalCode":"77535","state":"Quintana Roo","municipality":"Benito Juárez","setelement":"Supermanzana 516"},{"postalCode":"77535","state":"Quintana Roo","municipality":"Benito Juárez","setelement":"Bosques San Miguel"},{"postalCode":"77535","state":"Quintana Roo","municipality":"Benito Juárez","setelement":"Supermanzana 526"},{"postalCode":"77535","state":"Quintana Roo","municipality":"Benito Juárez","setelement":"Supermanzana 527"},{"postalCode":"77535","state":"Quintana Roo","municipality":"Benito Juárez","setelement":"Villamarino"},{"postalCode":"77535","state":"Quintana Roo","municipality":"Benito Juárez","setelement":"Gran Santa Fe 2"},{"postalCode":"77535","state":"Quintana Roo","municipality":"Benito Juárez","setelement":"Villas del Arte"},{"postalCode":"77535","state":"Quintana Roo","municipality":"Benito Juárez","setelement":"Supermanzana 528"},{"postalCode":"77535","state":"Quintana Roo","municipality":"Benito Juárez","setelement":"Gran Santa Fe"},{"postalCode":"77535","state":"Quintana Roo","municipality":"Benito Juárez","setelement":"Mallorca"},{"postalCode":"77536","state":"Quintana Roo","municipality":"Benito Juárez","setelement":"Supermanzana 534"},{"postalCode":"77536","state":"Quintana Roo","municipality":"Benito Juárez","setelement":"Santa Cecilia"},{"postalCode":"77536","state":"Quintana Roo","municipality":"Benito Juárez","setelement":"Maderos Residencial"},{"postalCode":"77536","state":"Quintana Roo","municipality":"Benito Juárez","setelement":"Catania Residencial"},{"postalCode":"77536","state":"Quintana Roo","municipality":"Benito Juárez","setelement":"Supermanzana 530"},{"postalCode":"77536","state":"Quintana Roo","municipality":"Benito Juárez","setelement":"Nuevo Milenio"},{"postalCode":"77536","state":"Quintana Roo","municipality":"Benito Juárez","setelement":"El Milagro"},{"postalCode":"77536","state":"Quintana Roo","municipality":"Benito Juárez","setelement":"La Libertad"},{"postalCode":"77536","state":"Quintana Roo","municipality":"Benito Juárez","setelement":"Residencial Monte Verde"},{"postalCode":"77536","state":"Quintana Roo","municipality":"Benito Juárez","setelement":"Residencial Mayorca"},{"postalCode":"77536","state":"Quintana Roo","municipality":"Benito Juárez","setelement":"Jade Residencial Club"},{"postalCode":"77536","state":"Quintana Roo","municipality":"Benito Juárez","setelement":"Villa Maya Residencial Cancún"},{"postalCode":"77536","state":"Quintana Roo","municipality":"Benito Juárez","setelement":"Izamal Residencial"},{"postalCode":"77536","state":"Quintana Roo","municipality":"Benito Juárez","setelement":"Delicias del Sur"},{"postalCode":"77536","state":"Quintana Roo","municipality":"Benito Juárez","setelement":"Supermanzana 99"},{"postalCode":"77536","state":"Quintana Roo","municipality":"Benito Juárez","setelement":"Supermanzana 517"},{"postalCode":"77536","state":"Quintana Roo","municipality":"Benito Juárez","setelement":"Supermanzana 518"},{"postalCode":"77536","state":"Quintana Roo","municipality":"Benito Juárez","setelement":"Supermanzana 519"},{"postalCode":"77536","state":"Quintana Roo","municipality":"Benito Juárez","setelement":"Supermanzana 520"},{"postalCode":"77536","state":"Quintana Roo","municipality":"Benito Juárez","setelement":"Villas Quintana Roo"},{"postalCode":"77536","state":"Quintana Roo","municipality":"Benito Juárez","setelement":"Supermanzana 522"},{"postalCode":"77536","state":"Quintana Roo","municipality":"Benito Juárez","setelement":"Villas de Alba"},{"postalCode":"77536","state":"Quintana Roo","municipality":"Benito Juárez","setelement":"Supermanzana 529"},{"postalCode":"77536","state":"Quintana Roo","municipality":"Benito Juárez","setelement":"Supermanzana 550"},{"postalCode":"77536","state":"Quintana Roo","municipality":"Benito Juárez","setelement":"Supermanzana 531"},{"postalCode":"77536","state":"Quintana Roo","municipality":"Benito Juárez","setelement":"Paraíso Cancún"},{"postalCode":"77536","state":"Quintana Roo","municipality":"Benito Juárez","setelement":"Bahía Dorada"},{"postalCode":"77536","state":"Quintana Roo","municipality":"Benito Juárez","setelement":"Jardines del Sur"},{"postalCode":"77536","state":"Quintana Roo","municipality":"Benito Juárez","setelement":"Supermanzana 318"},{"postalCode":"77536","state":"Quintana Roo","municipality":"Benito Juárez","setelement":"Supermanzana 320"},{"postalCode":"77536","state":"Quintana Roo","municipality":"Benito Juárez","setelement":"Supermanzana 326"},{"postalCode":"77536","state":"Quintana Roo","municipality":"Benito Juárez","setelement":"Supermanzana 319"},{"postalCode":"77536","state":"Quintana Roo","municipality":"Benito Juárez","setelement":"Quintas Kavanayen"},{"postalCode":"77536","state":"Quintana Roo","municipality":"Benito Juárez","setelement":"La Amistad"},{"postalCode":"77536","state":"Quintana Roo","municipality":"Benito Juárez","setelement":"Generación 2000"},{"postalCode":"77536","state":"Quintana Roo","municipality":"Benito Juárez","setelement":"Fraccionamiento Galaxia Altamar"},{"postalCode":"77536","state":"Quintana Roo","municipality":"Benito Juárez","setelement":"Privanza Stellaris"},{"postalCode":"77537","state":"Quintana Roo","municipality":"Benito Juárez","setelement":"Supermanzana 98"},{"postalCode":"77537","state":"Quintana Roo","municipality":"Benito Juárez","setelement":"Puerta Del Sol"},{"postalCode":"77537","state":"Quintana Roo","municipality":"Benito Juárez","setelement":"Jardines Cancún"},{"postalCode":"77538","state":"Quintana Roo","municipality":"Benito Juárez","setelement":"Supermanzana 102"},{"postalCode":"77539","state":"Quintana Roo","municipality":"Benito Juárez","setelement":"Supermanzana 107"},{"postalCode":"77539","state":"Quintana Roo","municipality":"Benito Juárez","setelement":"Paraíso Maya"},{"postalCode":"77539","state":"Quintana Roo","municipality":"Benito Juárez","setelement":"Urbi Villas del rey"},{"postalCode":"77539","state":"Quintana Roo","municipality":"Benito Juárez","setelement":"Supermanzana 260"},{"postalCode":"77539","state":"Quintana Roo","municipality":"Benito Juárez","setelement":"Real Las Quintas (Supermanzana 202)"},{"postalCode":"77539","state":"Quintana Roo","municipality":"Benito Juárez","setelement":"Real Valencia"},{"postalCode":"77539","state":"Quintana Roo","municipality":"Benito Juárez","setelement":"Cuna Maya (Supermanzana 203)"},{"postalCode":"77539","state":"Quintana Roo","municipality":"Benito Juárez","setelement":"Arcos Paraíso"},{"postalCode":"77539","state":"Quintana Roo","municipality":"Benito Juárez","setelement":"Paseo Kusamil"},{"postalCode":"77539","state":"Quintana Roo","municipality":"Benito Juárez","setelement":"Punta Ikal"},{"postalCode":"77539","state":"Quintana Roo","municipality":"Benito Juárez","setelement":"Paseo de Las Palmas"},{"postalCode":"77539","state":"Quintana Roo","municipality":"Benito Juárez","setelement":"Prado Norte (Supermanzana 256)"},{"postalCode":"77539","state":"Quintana Roo","municipality":"Benito Juárez","setelement":"Villas Lakin"},{"postalCode":"77539","state":"Quintana Roo","municipality":"Benito Juárez","setelement":"Supermanzana 103"},{"postalCode":"77539","state":"Quintana Roo","municipality":"Benito Juárez","setelement":"Hacienda Real del Caribe"},{"postalCode":"77539","state":"Quintana Roo","municipality":"Benito Juárez","setelement":"Tierra Maya"},{"postalCode":"77539","state":"Quintana Roo","municipality":"Benito Juárez","setelement":"Central de Abasto"},{"postalCode":"77539","state":"Quintana Roo","municipality":"Benito Juárez","setelement":"Supermanzana 104"},{"postalCode":"77539","state":"Quintana Roo","municipality":"Benito Juárez","setelement":"Supermanzana 105"},{"postalCode":"77539","state":"Quintana Roo","municipality":"Benito Juárez","setelement":"Supermanzana 106"},{"postalCode":"77539","state":"Quintana Roo","municipality":"Benito Juárez","setelement":"Supermanzana 200"},{"postalCode":"77539","state":"Quintana Roo","municipality":"Benito Juárez","setelement":"México"},{"postalCode":"77539","state":"Quintana Roo","municipality":"Benito Juárez","setelement":"ABC"},{"postalCode":"77539","state":"Quintana Roo","municipality":"Benito Juárez","setelement":"Villas Otoch Paraíso"},{"postalCode":"77560","state":"Quintana Roo","municipality":"Benito Juárez","setelement":"Residencial Cumbres"},{"postalCode":"77560","state":"Quintana Roo","municipality":"Benito Juárez","setelement":"Arbolada"},{"postalCode":"77560","state":"Quintana Roo","municipality":"Benito Juárez","setelement":"Doctores"},{"postalCode":"77560","state":"Quintana Roo","municipality":"Benito Juárez","setelement":"Supermanzana 295"},{"postalCode":"77560","state":"Quintana Roo","municipality":"Benito Juárez","setelement":"Supermanzana 296"},{"postalCode":"77560","state":"Quintana Roo","municipality":"Benito Juárez","setelement":"Supermanzana 297"},{"postalCode":"77560","state":"Quintana Roo","municipality":"Benito Juárez","setelement":"Universidad Anáhuac de Cancún"},{"postalCode":"77560","state":"Quintana Roo","municipality":"Benito Juárez","setelement":"Vía Cumbres Residencial"},{"postalCode":"77560","state":"Quintana Roo","municipality":"Benito Juárez","setelement":"Aqua Residencial"},{"postalCode":"77560","state":"Quintana Roo","municipality":"Benito Juárez","setelement":"Long Island"},{"postalCode":"77560","state":"Quintana Roo","municipality":"Benito Juárez","setelement":"Residencial Río"},{"postalCode":"77560","state":"Quintana Roo","municipality":"Benito Juárez","setelement":"Astoria"},{"postalCode":"77560","state":"Quintana Roo","municipality":"Benito Juárez","setelement":"Residencial Zivalam"},{"postalCode":"77560","state":"Quintana Roo","municipality":"Benito Juárez","setelement":"Alfredo V Bonfil"},{"postalCode":"77560","state":"Quintana Roo","municipality":"Benito Juárez","setelement":"Residencial Campestre"},{"postalCode":"77560","state":"Quintana Roo","municipality":"Benito Juárez","setelement":"Supermanzana 299"},{"postalCode":"77560","state":"Quintana Roo","municipality":"Benito Juárez","setelement":"Colegios"},{"postalCode":"77560","state":"Quintana Roo","municipality":"Benito Juárez","setelement":"Los Naranjos"},{"postalCode":"77567","state":"Quintana Roo","municipality":"Benito Juárez","setelement":"Santa Anna (Supermanzana 301)"},{"postalCode":"77567","state":"Quintana Roo","municipality":"Benito Juárez","setelement":"Central de Abastos"},{"postalCode":"77567","state":"Quintana Roo","municipality":"Benito Juárez","setelement":"Santa Fe"},{"postalCode":"77567","state":"Quintana Roo","municipality":"Benito Juárez","setelement":"Lagos del Sol"},{"postalCode":"77569","state":"Quintana Roo","municipality":"Benito Juárez","setelement":"Cancún (Internacional de Cancún)"},{"postalCode":"77580","state":"Quintana Roo","municipality":"Puerto Morelos","setelement":"Puerto Morelos"},{"postalCode":"77580","state":"Quintana Roo","municipality":"Puerto Morelos","setelement":"Villas Morelos I"},{"postalCode":"77580","state":"Quintana Roo","municipality":"Puerto Morelos","setelement":"Joaquín Zetina Gasca"},{"postalCode":"77586","state":"Quintana Roo","municipality":"Puerto Morelos","setelement":"Residencial Regatta"},{"postalCode":"77586","state":"Quintana Roo","municipality":"Puerto Morelos","setelement":"Residencial Civitas"},{"postalCode":"77586","state":"Quintana Roo","municipality":"Puerto Morelos","setelement":"Villas La Playa"},{"postalCode":"77586","state":"Quintana Roo","municipality":"Puerto Morelos","setelement":"Residencial Alborada"},{"postalCode":"77586","state":"Quintana Roo","municipality":"Puerto Morelos","setelement":"Aldea Civitas"},{"postalCode":"77586","state":"Quintana Roo","municipality":"Puerto Morelos","setelement":"Selva Escondida"},{"postalCode":"77590","state":"Quintana Roo","municipality":"Puerto Morelos","setelement":"Leona Vicario"},{"postalCode":"77600","state":"Quintana Roo","municipality":"Cozumel","setelement":"Cozumel Centro"},{"postalCode":"77609","state":"Quintana Roo","municipality":"Cozumel","setelement":"Cozumel (Internacional de Cozumel)"},{"postalCode":"77610","state":"Quintana Roo","municipality":"Cozumel","setelement":"Militar"},{"postalCode":"77613","state":"Quintana Roo","municipality":"Cozumel","setelement":"Zona Hotelera Norte"},{"postalCode":"77620","state":"Quintana Roo","municipality":"Cozumel","setelement":"Las Fincas"},{"postalCode":"77620","state":"Quintana Roo","municipality":"Cozumel","setelement":"Emiliano Zapata"},{"postalCode":"77620","state":"Quintana Roo","municipality":"Cozumel","setelement":"Flamboyanes"},{"postalCode":"77620","state":"Quintana Roo","municipality":"Cozumel","setelement":"Félix González Canto"},{"postalCode":"77622","state":"Quintana Roo","municipality":"Cozumel","setelement":"10 de Abril"},{"postalCode":"77645","state":"Quintana Roo","municipality":"Cozumel","setelement":"Chen-tuk"},{"postalCode":"77645","state":"Quintana Roo","municipality":"Cozumel","setelement":"Juan Bautista de La Vega"},{"postalCode":"77645","state":"Quintana Roo","municipality":"Cozumel","setelement":"Miraflores"},{"postalCode":"77645","state":"Quintana Roo","municipality":"Cozumel","setelement":"Nueva Generación"},{"postalCode":"77645","state":"Quintana Roo","municipality":"Cozumel","setelement":"Altamar"},{"postalCode":"77660","state":"Quintana Roo","municipality":"Cozumel","setelement":"El Encanto"},{"postalCode":"77660","state":"Quintana Roo","municipality":"Cozumel","setelement":"Flamingos II"},{"postalCode":"77660","state":"Quintana Roo","municipality":"Cozumel","setelement":"FOVISSSTE"},{"postalCode":"77660","state":"Quintana Roo","municipality":"Cozumel","setelement":"Flamingos I"},{"postalCode":"77660","state":"Quintana Roo","municipality":"Cozumel","setelement":"Maravilla"},{"postalCode":"77660","state":"Quintana Roo","municipality":"Cozumel","setelement":"Magisterio"},{"postalCode":"77660","state":"Quintana Roo","municipality":"Cozumel","setelement":"Caribe"},{"postalCode":"77664","state":"Quintana Roo","municipality":"Cozumel","setelement":"Independencia"},{"postalCode":"77664","state":"Quintana Roo","municipality":"Cozumel","setelement":"Andrés Q. Roo"},{"postalCode":"77664","state":"Quintana Roo","municipality":"Cozumel","setelement":"Colonos Cuzamil"},{"postalCode":"77665","state":"Quintana Roo","municipality":"Cozumel","setelement":"San Miguel 1"},{"postalCode":"77666","state":"Quintana Roo","municipality":"Cozumel","setelement":"San Miguel 2"},{"postalCode":"77666","state":"Quintana Roo","municipality":"Cozumel","setelement":"San Miguel 3"},{"postalCode":"77666","state":"Quintana Roo","municipality":"Cozumel","setelement":"Flores Magón 3"},{"postalCode":"77667","state":"Quintana Roo","municipality":"Cozumel","setelement":"Cuzamil"},{"postalCode":"77667","state":"Quintana Roo","municipality":"Cozumel","setelement":"San Gervasio"},{"postalCode":"77667","state":"Quintana Roo","municipality":"Cozumel","setelement":"Flores Magón 1 y 2"},{"postalCode":"77667","state":"Quintana Roo","municipality":"Cozumel","setelement":"Repobladores de 1848"},{"postalCode":"77667","state":"Quintana Roo","municipality":"Cozumel","setelement":"Adolfo L. Mateos"},{"postalCode":"77670","state":"Quintana Roo","municipality":"Cozumel","setelement":"Las Golondrinas"},{"postalCode":"77670","state":"Quintana Roo","municipality":"Cozumel","setelement":"Taxistas"},{"postalCode":"77670","state":"Quintana Roo","municipality":"Cozumel","setelement":"Zona Industrial"},{"postalCode":"77670","state":"Quintana Roo","municipality":"Cozumel","setelement":"C T M"},{"postalCode":"77670","state":"Quintana Roo","municipality":"Cozumel","setelement":"Naval"},{"postalCode":"77670","state":"Quintana Roo","municipality":"Cozumel","setelement":"Cozumel Turístico"},{"postalCode":"77673","state":"Quintana Roo","municipality":"Cozumel","setelement":"Huerto Familiar"},{"postalCode":"77675","state":"Quintana Roo","municipality":"Cozumel","setelement":"Zona Hotelera Sur"},{"postalCode":"77676","state":"Quintana Roo","municipality":"Cozumel","setelement":"Ix-chel"},{"postalCode":"77689","state":"Quintana Roo","municipality":"Cozumel","setelement":"CALICA"},{"postalCode":"77710","state":"Quintana Roo","municipality":"Solidaridad","setelement":"Playa del Carmen Centro"},{"postalCode":"77710","state":"Quintana Roo","municipality":"Solidaridad","setelement":"Calica"},{"postalCode":"77710","state":"Quintana Roo","municipality":"Solidaridad","setelement":"Playa del Carmen"},{"postalCode":"77712","state":"Quintana Roo","municipality":"Solidaridad","setelement":"Ejidal"},{"postalCode":"77712","state":"Quintana Roo","municipality":"Solidaridad","setelement":"Bellavista"},{"postalCode":"77712","state":"Quintana Roo","municipality":"Solidaridad","setelement":"Fundadores"},{"postalCode":"77712","state":"Quintana Roo","municipality":"Solidaridad","setelement":"El Pedregal"},{"postalCode":"77712","state":"Quintana Roo","municipality":"Solidaridad","setelement":"Santa Fe del Carmen"},{"postalCode":"77713","state":"Quintana Roo","municipality":"Solidaridad","setelement":"Playa Car Fase I"},{"postalCode":"77713","state":"Quintana Roo","municipality":"Solidaridad","setelement":"Aviación"},{"postalCode":"77714","state":"Quintana Roo","municipality":"Solidaridad","setelement":"Natura Playa del Carmen"},{"postalCode":"77714","state":"Quintana Roo","municipality":"Solidaridad","setelement":"Real Bilbao"},{"postalCode":"77714","state":"Quintana Roo","municipality":"Solidaridad","setelement":"Palmas II"},{"postalCode":"77714","state":"Quintana Roo","municipality":"Solidaridad","setelement":"Real Amalfi"},{"postalCode":"77714","state":"Quintana Roo","municipality":"Solidaridad","setelement":"Privada Riviera"},{"postalCode":"77714","state":"Quintana Roo","municipality":"Solidaridad","setelement":"28 de Julio"},{"postalCode":"77714","state":"Quintana Roo","municipality":"Solidaridad","setelement":"Misión del Carmen"},{"postalCode":"77714","state":"Quintana Roo","municipality":"Solidaridad","setelement":"Bosque Real"},{"postalCode":"77714","state":"Quintana Roo","municipality":"Solidaridad","setelement":"Mundo Habitat"},{"postalCode":"77714","state":"Quintana Roo","municipality":"Solidaridad","setelement":"Los Olivos"},{"postalCode":"77716","state":"Quintana Roo","municipality":"Solidaridad","setelement":"Residencial Bambú"},{"postalCode":"77716","state":"Quintana Roo","municipality":"Solidaridad","setelement":"Residencial La Escondida"},{"postalCode":"77716","state":"Quintana Roo","municipality":"Solidaridad","setelement":"Forjadores"},{"postalCode":"77716","state":"Quintana Roo","municipality":"Solidaridad","setelement":"La Joya Xamanha"},{"postalCode":"77716","state":"Quintana Roo","municipality":"Solidaridad","setelement":"La Joya"},{"postalCode":"77716","state":"Quintana Roo","municipality":"Solidaridad","setelement":"El Bambú"},{"postalCode":"77717","state":"Quintana Roo","municipality":"Solidaridad","setelement":"Playa Car Fase II"},{"postalCode":"77717","state":"Quintana Roo","municipality":"Solidaridad","setelement":"Campestre"},{"postalCode":"77717","state":"Quintana Roo","municipality":"Solidaridad","setelement":"El Tigrillo"},{"postalCode":"77717","state":"Quintana Roo","municipality":"Solidaridad","setelement":"Las Flores"},{"postalCode":"77718","state":"Quintana Roo","municipality":"Solidaridad","setelement":"Bali"},{"postalCode":"77720","state":"Quintana Roo","municipality":"Solidaridad","setelement":"Gonzalo Guerrero"},{"postalCode":"77720","state":"Quintana Roo","municipality":"Solidaridad","setelement":"Quintas del Carmen"},{"postalCode":"77720","state":"Quintana Roo","municipality":"Solidaridad","setelement":"Sacpacal"},{"postalCode":"77720","state":"Quintana Roo","municipality":"Solidaridad","setelement":"Tohoku"},{"postalCode":"77720","state":"Quintana Roo","municipality":"Solidaridad","setelement":"Zazil Ha"},{"postalCode":"77720","state":"Quintana Roo","municipality":"Solidaridad","setelement":"Miramar"},{"postalCode":"77720","state":"Quintana Roo","municipality":"Solidaridad","setelement":"INFONAVIT Colosio"},{"postalCode":"77720","state":"Quintana Roo","municipality":"Solidaridad","setelement":"INFONAVIT Gaviotas"},{"postalCode":"77720","state":"Quintana Roo","municipality":"Solidaridad","setelement":"Xamanha"},{"postalCode":"77720","state":"Quintana Roo","municipality":"Solidaridad","setelement":"Brisas"},{"postalCode":"77720","state":"Quintana Roo","municipality":"Solidaridad","setelement":"Paraíso del Carmen"},{"postalCode":"77723","state":"Quintana Roo","municipality":"Solidaridad","setelement":"Villas del Carmen"},{"postalCode":"77723","state":"Quintana Roo","municipality":"Solidaridad","setelement":"Villas del Carmen Plus"},{"postalCode":"77723","state":"Quintana Roo","municipality":"Solidaridad","setelement":"Pescadores Plus"},{"postalCode":"77723","state":"Quintana Roo","municipality":"Solidaridad","setelement":"Palmanova"},{"postalCode":"77723","state":"Quintana Roo","municipality":"Solidaridad","setelement":"Paseos Xcacel"},{"postalCode":"77723","state":"Quintana Roo","municipality":"Solidaridad","setelement":"Real Lucerna"},{"postalCode":"77723","state":"Quintana Roo","municipality":"Solidaridad","setelement":"Villas las Perlas"},{"postalCode":"77723","state":"Quintana Roo","municipality":"Solidaridad","setelement":"Galaxia del Carmen I"},{"postalCode":"77723","state":"Quintana Roo","municipality":"Solidaridad","setelement":"Galaxia del Carmen II"},{"postalCode":"77723","state":"Quintana Roo","municipality":"Solidaridad","setelement":"Las Palmas"},{"postalCode":"77723","state":"Quintana Roo","municipality":"Solidaridad","setelement":"Misión Las Flores"},{"postalCode":"77723","state":"Quintana Roo","municipality":"Solidaridad","setelement":"Nuevo Centro Urbano"},{"postalCode":"77723","state":"Quintana Roo","municipality":"Solidaridad","setelement":"Real Ibiza"},{"postalCode":"77723","state":"Quintana Roo","municipality":"Solidaridad","setelement":"Villas del Sol \"Plus\""},{"postalCode":"77723","state":"Quintana Roo","municipality":"Solidaridad","setelement":"In House"},{"postalCode":"77723","state":"Quintana Roo","municipality":"Solidaridad","setelement":"Punta Estrella"},{"postalCode":"77723","state":"Quintana Roo","municipality":"Solidaridad","setelement":"Cruz de Servicios"},{"postalCode":"77724","state":"Quintana Roo","municipality":"Solidaridad","setelement":"Ciudad Mayakoba"},{"postalCode":"77724","state":"Quintana Roo","municipality":"Solidaridad","setelement":"Nuevo Noh-Bec"},{"postalCode":"77724","state":"Quintana Roo","municipality":"Solidaridad","setelement":"El Petén"},{"postalCode":"77724","state":"Quintana Roo","municipality":"Solidaridad","setelement":"La Guadalupana"},{"postalCode":"77724","state":"Quintana Roo","municipality":"Solidaridad","setelement":"Villas Riviera"},{"postalCode":"77724","state":"Quintana Roo","municipality":"Solidaridad","setelement":"Playa Azul"},{"postalCode":"77724","state":"Quintana Roo","municipality":"Solidaridad","setelement":"Bosque de Cristo Rey"},{"postalCode":"77725","state":"Quintana Roo","municipality":"Solidaridad","setelement":"Residencial Real del Sol"},{"postalCode":"77725","state":"Quintana Roo","municipality":"Solidaridad","setelement":"Tumben Chilam"},{"postalCode":"77725","state":"Quintana Roo","municipality":"Solidaridad","setelement":"Marsella"},{"postalCode":"77725","state":"Quintana Roo","municipality":"Solidaridad","setelement":"Porto Alto"},{"postalCode":"77725","state":"Quintana Roo","municipality":"Solidaridad","setelement":"Residencial Caribe"},{"postalCode":"77725","state":"Quintana Roo","municipality":"Solidaridad","setelement":"Cataluña II"},{"postalCode":"77725","state":"Quintana Roo","municipality":"Solidaridad","setelement":"Zendala Residencial"},{"postalCode":"77725","state":"Quintana Roo","municipality":"Solidaridad","setelement":"Misión Villamar I"},{"postalCode":"77725","state":"Quintana Roo","municipality":"Solidaridad","setelement":"La Toscana"},{"postalCode":"77725","state":"Quintana Roo","municipality":"Solidaridad","setelement":"Misión Villamar II"},{"postalCode":"77725","state":"Quintana Roo","municipality":"Solidaridad","setelement":"Los Arrecifes"},{"postalCode":"77725","state":"Quintana Roo","municipality":"Solidaridad","setelement":"Dunas"},{"postalCode":"77725","state":"Quintana Roo","municipality":"Solidaridad","setelement":"Corales"},{"postalCode":"77725","state":"Quintana Roo","municipality":"Solidaridad","setelement":"Vela Mar"},{"postalCode":"77725","state":"Quintana Roo","municipality":"Solidaridad","setelement":"Villas Maya"},{"postalCode":"77725","state":"Quintana Roo","municipality":"Solidaridad","setelement":"Cataluña"},{"postalCode":"77725","state":"Quintana Roo","municipality":"Solidaridad","setelement":"Parque Residencial"},{"postalCode":"77726","state":"Quintana Roo","municipality":"Solidaridad","setelement":"Encuentro"},{"postalCode":"77726","state":"Quintana Roo","municipality":"Solidaridad","setelement":"Playa Magna"},{"postalCode":"77726","state":"Quintana Roo","municipality":"Solidaridad","setelement":"Playa del Sol"},{"postalCode":"77726","state":"Quintana Roo","municipality":"Solidaridad","setelement":"El Cantil"},{"postalCode":"77727","state":"Quintana Roo","municipality":"Solidaridad","setelement":"Lunamar"},{"postalCode":"77727","state":"Quintana Roo","municipality":"Solidaridad","setelement":"Nicte-ha"},{"postalCode":"77727","state":"Quintana Roo","municipality":"Solidaridad","setelement":"Industrial"},{"postalCode":"77727","state":"Quintana Roo","municipality":"Solidaridad","setelement":"Balamtun"},{"postalCode":"77727","state":"Quintana Roo","municipality":"Solidaridad","setelement":"Loltun"},{"postalCode":"77727","state":"Quintana Roo","municipality":"Solidaridad","setelement":"Lolkaatun"},{"postalCode":"77727","state":"Quintana Roo","municipality":"Solidaridad","setelement":"Privanza del Mar"},{"postalCode":"77727","state":"Quintana Roo","municipality":"Solidaridad","setelement":"Selvamar"},{"postalCode":"77727","state":"Quintana Roo","municipality":"Solidaridad","setelement":"El Cielo"},{"postalCode":"77728","state":"Quintana Roo","municipality":"Solidaridad","setelement":"Luis Donaldo Colosio"},{"postalCode":"77730","state":"Quintana Roo","municipality":"Solidaridad","setelement":"Xcaret"},{"postalCode":"77733","state":"Quintana Roo","municipality":"Solidaridad","setelement":"Solidaridad"},{"postalCode":"77733","state":"Quintana Roo","municipality":"Solidaridad","setelement":"Puerto Aventuras"},{"postalCode":"77733","state":"Quintana Roo","municipality":"Solidaridad","setelement":"Puerto Maya"},{"postalCode":"77733","state":"Quintana Roo","municipality":"Solidaridad","setelement":"Nueva Generación"},{"postalCode":"77734","state":"Quintana Roo","municipality":"Solidaridad","setelement":"Xpu Ha"},{"postalCode":"77734","state":"Quintana Roo","municipality":"Solidaridad","setelement":"Barceló Maya"},{"postalCode":"77734","state":"Quintana Roo","municipality":"Solidaridad","setelement":"Grand Sirenis"},{"postalCode":"77735","state":"Quintana Roo","municipality":"Solidaridad","setelement":"Paa Mul"},{"postalCode":"77740","state":"Quintana Roo","municipality":"Solidaridad","setelement":"Residencial Playa Paraíso"},{"postalCode":"77740","state":"Quintana Roo","municipality":"Solidaridad","setelement":"Playa del Secreto"},{"postalCode":"77760","state":"Quintana Roo","municipality":"Tulum","setelement":"Guerra de Castas"},{"postalCode":"77760","state":"Quintana Roo","municipality":"Tulum","setelement":"La Veleta"},{"postalCode":"77760","state":"Quintana Roo","municipality":"Tulum","setelement":"Maya Pax"},{"postalCode":"77760","state":"Quintana Roo","municipality":"Tulum","setelement":"Aldea Zama"},{"postalCode":"77760","state":"Quintana Roo","municipality":"Tulum","setelement":"Lúum Zama"},{"postalCode":"77760","state":"Quintana Roo","municipality":"Tulum","setelement":"Tulum Centro"},{"postalCode":"77760","state":"Quintana Roo","municipality":"Tulum","setelement":"Ejidal"},{"postalCode":"77760","state":"Quintana Roo","municipality":"Tulum","setelement":"Tumben Kaa"},{"postalCode":"77760","state":"Quintana Roo","municipality":"Tulum","setelement":"Villas Huracanes"},{"postalCode":"77762","state":"Quintana Roo","municipality":"Tulum","setelement":"Xul Kaa"},{"postalCode":"77762","state":"Quintana Roo","municipality":"Tulum","setelement":"Las Palmas"},{"postalCode":"77762","state":"Quintana Roo","municipality":"Tulum","setelement":"Ya Ax Tulum"},{"postalCode":"77763","state":"Quintana Roo","municipality":"Tulum","setelement":"Aldea Tulum"},{"postalCode":"77764","state":"Quintana Roo","municipality":"Tulum","setelement":"Villas Tulum"},{"postalCode":"77766","state":"Quintana Roo","municipality":"Tulum","setelement":"Boca Paila"},{"postalCode":"77768","state":"Quintana Roo","municipality":"Tulum","setelement":"Javier Rojo Gómez (Punta Allen)"},{"postalCode":"77772","state":"Quintana Roo","municipality":"Tulum","setelement":"Bahías de Punta Solimán"},{"postalCode":"77772","state":"Quintana Roo","municipality":"Tulum","setelement":"Tankah Cuatro"},{"postalCode":"77774","state":"Quintana Roo","municipality":"Tulum","setelement":"Ciudad Chemuyil"},{"postalCode":"77776","state":"Quintana Roo","municipality":"Tulum","setelement":"Akumal"},{"postalCode":"77785","state":"Quintana Roo","municipality":"Tulum","setelement":"Chanchén Palmar"},{"postalCode":"77786","state":"Quintana Roo","municipality":"Tulum","setelement":"Chanchen Primero"},{"postalCode":"77786","state":"Quintana Roo","municipality":"Tulum","setelement":"Hondzonot"},{"postalCode":"77786","state":"Quintana Roo","municipality":"Tulum","setelement":"Yaxché"},{"postalCode":"77793","state":"Quintana Roo","municipality":"Tulum","setelement":"Cobá"},{"postalCode":"77794","state":"Quintana Roo","municipality":"Tulum","setelement":"San Juan"},{"postalCode":"77795","state":"Quintana Roo","municipality":"Tulum","setelement":"Manuel Antonio Ay"},{"postalCode":"77796","state":"Quintana Roo","municipality":"Tulum","setelement":"Francisco Uh May"},{"postalCode":"77796","state":"Quintana Roo","municipality":"Tulum","setelement":"Macario Gómez"},{"postalCode":"77800","state":"Quintana Roo","municipality":"José María Morelos","setelement":"Dziuche"},{"postalCode":"77800","state":"Quintana Roo","municipality":"José María Morelos","setelement":"Huay Max"},{"postalCode":"77800","state":"Quintana Roo","municipality":"José María Morelos","setelement":"Sabán"},{"postalCode":"77800","state":"Quintana Roo","municipality":"José María Morelos","setelement":"Sacalaca"},{"postalCode":"77800","state":"Quintana Roo","municipality":"José María Morelos","setelement":"San Diego"},{"postalCode":"77800","state":"Quintana Roo","municipality":"José María Morelos","setelement":"X-Cabil"},{"postalCode":"77800","state":"Quintana Roo","municipality":"José María Morelos","setelement":"Pocito"},{"postalCode":"77800","state":"Quintana Roo","municipality":"José María Morelos","setelement":"México"},{"postalCode":"77800","state":"Quintana Roo","municipality":"José María Morelos","setelement":"Guadalupana"},{"postalCode":"77805","state":"Quintana Roo","municipality":"José María Morelos","setelement":"Bulukax"},{"postalCode":"77805","state":"Quintana Roo","municipality":"José María Morelos","setelement":"X-Querol"},{"postalCode":"77806","state":"Quintana Roo","municipality":"José María Morelos","setelement":"San Antonio Tuk"},{"postalCode":"77807","state":"Quintana Roo","municipality":"José María Morelos","setelement":"La Esperanza"},{"postalCode":"77807","state":"Quintana Roo","municipality":"José María Morelos","setelement":"Javier Rojo Gómez"},{"postalCode":"77808","state":"Quintana Roo","municipality":"José María Morelos","setelement":"Tabasco"},{"postalCode":"77809","state":"Quintana Roo","municipality":"José María Morelos","setelement":"San Felipe Oriente"},{"postalCode":"77850","state":"Quintana Roo","municipality":"José María Morelos","setelement":"Sabana San Francisco"},{"postalCode":"77858","state":"Quintana Roo","municipality":"José María Morelos","setelement":"Saczuquil"},{"postalCode":"77859","state":"Quintana Roo","municipality":"José María Morelos","setelement":"San Felipe Segundo"},{"postalCode":"77870","state":"Quintana Roo","municipality":"José María Morelos","setelement":"La Presumida"},{"postalCode":"77870","state":"Quintana Roo","municipality":"José María Morelos","setelement":"Santa Gertrudis"},{"postalCode":"77874","state":"Quintana Roo","municipality":"José María Morelos","setelement":"Kancabchén"},{"postalCode":"77874","state":"Quintana Roo","municipality":"José María Morelos","setelement":"El Martirio"},{"postalCode":"77874","state":"Quintana Roo","municipality":"José María Morelos","setelement":"El Naranjal"},{"postalCode":"77875","state":"Quintana Roo","municipality":"José María Morelos","setelement":"Nuevo San Marcos"},{"postalCode":"77875","state":"Quintana Roo","municipality":"José María Morelos","setelement":"San Felipe Primero"},{"postalCode":"77876","state":"Quintana Roo","municipality":"José María Morelos","setelement":"Benito Juárez"},{"postalCode":"77876","state":"Quintana Roo","municipality":"José María Morelos","setelement":"Cafetalito"},{"postalCode":"77878","state":"Quintana Roo","municipality":"José María Morelos","setelement":"San Isidro Poniente"},{"postalCode":"77880","state":"Quintana Roo","municipality":"José María Morelos","setelement":"Kantemó"},{"postalCode":"77882","state":"Quintana Roo","municipality":"José María Morelos","setelement":"Venustiano Carranza"},{"postalCode":"77883","state":"Quintana Roo","municipality":"José María Morelos","setelement":"San Juan Oriente"},{"postalCode":"77889","state":"Quintana Roo","municipality":"José María Morelos","setelement":"Puerto Arturo"},{"postalCode":"77890","state":"Quintana Roo","municipality":"José María Morelos","setelement":"Centro José María Morelos"},{"postalCode":"77890","state":"Quintana Roo","municipality":"José María Morelos","setelement":"Javier Rojo Gómez"},{"postalCode":"77890","state":"Quintana Roo","municipality":"José María Morelos","setelement":"Miraflores"},{"postalCode":"77890","state":"Quintana Roo","municipality":"José María Morelos","setelement":"José María Morelos"},{"postalCode":"77890","state":"Quintana Roo","municipality":"José María Morelos","setelement":"Santa Lucia"},{"postalCode":"77890","state":"Quintana Roo","municipality":"José María Morelos","setelement":"San Juan"},{"postalCode":"77890","state":"Quintana Roo","municipality":"José María Morelos","setelement":"Mayab"},{"postalCode":"77890","state":"Quintana Roo","municipality":"José María Morelos","setelement":"Guadalupe"},{"postalCode":"77890","state":"Quintana Roo","municipality":"José María Morelos","setelement":"Vicente Guerrero"},{"postalCode":"77890","state":"Quintana Roo","municipality":"José María Morelos","setelement":"Dolores"},{"postalCode":"77890","state":"Quintana Roo","municipality":"José María Morelos","setelement":"Primavera"},{"postalCode":"77893","state":"Quintana Roo","municipality":"José María Morelos","setelement":"Plan de la Noria Poniente"},{"postalCode":"77893","state":"Quintana Roo","municipality":"José María Morelos","setelement":"Adolfo de la Huerta"},{"postalCode":"77893","state":"Quintana Roo","municipality":"José María Morelos","setelement":"Nuevo Cunduacán"},{"postalCode":"77894","state":"Quintana Roo","municipality":"José María Morelos","setelement":"Piedras Negras"},{"postalCode":"77895","state":"Quintana Roo","municipality":"José María Morelos","setelement":"Adolfo López Mateos"},{"postalCode":"77895","state":"Quintana Roo","municipality":"José María Morelos","setelement":"El Triunfo"},{"postalCode":"77895","state":"Quintana Roo","municipality":"José María Morelos","setelement":"Lázaro Cárdenas"},{"postalCode":"77895","state":"Quintana Roo","municipality":"José María Morelos","setelement":"Pozo Pirata"},{"postalCode":"77895","state":"Quintana Roo","municipality":"José María Morelos","setelement":"Mariano Matamoros"},{"postalCode":"77895","state":"Quintana Roo","municipality":"José María Morelos","setelement":"Insurgentes"},{"postalCode":"77896","state":"Quintana Roo","municipality":"José María Morelos","setelement":"Gavilanes"},{"postalCode":"77896","state":"Quintana Roo","municipality":"José María Morelos","setelement":"Zafarrancho"},{"postalCode":"77898","state":"Quintana Roo","municipality":"José María Morelos","setelement":"San Carlos"},{"postalCode":"77898","state":"Quintana Roo","municipality":"José María Morelos","setelement":"Candelaria"},{"postalCode":"77898","state":"Quintana Roo","municipality":"José María Morelos","setelement":"Othón P. Blanco"},{"postalCode":"77899","state":"Quintana Roo","municipality":"José María Morelos","setelement":"Nueva Reforma"},{"postalCode":"77900","state":"Quintana Roo","municipality":"Bacalar","setelement":"Reforma"},{"postalCode":"77900","state":"Quintana Roo","municipality":"Bacalar","setelement":"Año Nuevo"},{"postalCode":"77900","state":"Quintana Roo","municipality":"Bacalar","setelement":"Ahisamac"},{"postalCode":"77900","state":"Quintana Roo","municipality":"Bacalar","setelement":"El Pedregal"},{"postalCode":"77900","state":"Quintana Roo","municipality":"Bacalar","setelement":"El Sufrido"},{"postalCode":"77900","state":"Quintana Roo","municipality":"Bacalar","setelement":"El Suspiro"},{"postalCode":"77900","state":"Quintana Roo","municipality":"Bacalar","setelement":"Javier Sandoval"},{"postalCode":"77900","state":"Quintana Roo","municipality":"Bacalar","setelement":"La Chata"},{"postalCode":"77900","state":"Quintana Roo","municipality":"Bacalar","setelement":"La Primavera"},{"postalCode":"77900","state":"Quintana Roo","municipality":"Bacalar","setelement":"Las Isabelas"},{"postalCode":"77900","state":"Quintana Roo","municipality":"Bacalar","setelement":"Laureles"},{"postalCode":"77900","state":"Quintana Roo","municipality":"Bacalar","setelement":"Los Socios"},{"postalCode":"77900","state":"Quintana Roo","municipality":"Bacalar","setelement":"Santa Julia"},{"postalCode":"77904","state":"Quintana Roo","municipality":"Bacalar","setelement":"San Román"},{"postalCode":"77904","state":"Quintana Roo","municipality":"Bacalar","setelement":"Río Escondido"},{"postalCode":"77904","state":"Quintana Roo","municipality":"Bacalar","setelement":"David Gustavo Gutiérrez Ruiz"},{"postalCode":"77904","state":"Quintana Roo","municipality":"Bacalar","setelement":"División del Sur"},{"postalCode":"77904","state":"Quintana Roo","municipality":"Bacalar","setelement":"El Remolino"},{"postalCode":"77904","state":"Quintana Roo","municipality":"Bacalar","setelement":"La Zarza"},{"postalCode":"77904","state":"Quintana Roo","municipality":"Bacalar","setelement":"Las Dos Eses"},{"postalCode":"77904","state":"Quintana Roo","municipality":"Bacalar","setelement":"Las Maravillas"},{"postalCode":"77904","state":"Quintana Roo","municipality":"Bacalar","setelement":"Las Orquídeas"},{"postalCode":"77904","state":"Quintana Roo","municipality":"Bacalar","setelement":"Los Laureles"},{"postalCode":"77904","state":"Quintana Roo","municipality":"Bacalar","setelement":"San Antonio"},{"postalCode":"77904","state":"Quintana Roo","municipality":"Bacalar","setelement":"San Víctor"},{"postalCode":"77904","state":"Quintana Roo","municipality":"Bacalar","setelement":"Santa Rita"},{"postalCode":"77905","state":"Quintana Roo","municipality":"Bacalar","setelement":"El Gallito"},{"postalCode":"77905","state":"Quintana Roo","municipality":"Bacalar","setelement":"El Higuero"},{"postalCode":"77905","state":"Quintana Roo","municipality":"Bacalar","setelement":"El Ramonal"},{"postalCode":"77905","state":"Quintana Roo","municipality":"Bacalar","setelement":"Isidro Fabela"},{"postalCode":"77906","state":"Quintana Roo","municipality":"Bacalar","setelement":"Huatusco"},{"postalCode":"77906","state":"Quintana Roo","municipality":"Bacalar","setelement":"Payo Obispo"},{"postalCode":"77907","state":"Quintana Roo","municipality":"Bacalar","setelement":"Miguel Alemán"},{"postalCode":"77907","state":"Quintana Roo","municipality":"Bacalar","setelement":"Río Verde"},{"postalCode":"77907","state":"Quintana Roo","municipality":"Bacalar","setelement":"Cuatro Hermanos"},{"postalCode":"77907","state":"Quintana Roo","municipality":"Bacalar","setelement":"El Kiwi"},{"postalCode":"77907","state":"Quintana Roo","municipality":"Bacalar","setelement":"José Méndez"},{"postalCode":"77907","state":"Quintana Roo","municipality":"Bacalar","setelement":"La Esperanza"},{"postalCode":"77907","state":"Quintana Roo","municipality":"Bacalar","setelement":"La Herradura"},{"postalCode":"77907","state":"Quintana Roo","municipality":"Bacalar","setelement":"Las Ilusiones"},{"postalCode":"77907","state":"Quintana Roo","municipality":"Bacalar","setelement":"Rosa de Saarón"},{"postalCode":"77910","state":"Quintana Roo","municipality":"Bacalar","setelement":"Tierra Negra"},{"postalCode":"77910","state":"Quintana Roo","municipality":"Bacalar","setelement":"Altos de Sevilla"},{"postalCode":"77910","state":"Quintana Roo","municipality":"Bacalar","setelement":"El Cedralito"},{"postalCode":"77910","state":"Quintana Roo","municipality":"Bacalar","setelement":"El Paraíso"},{"postalCode":"77910","state":"Quintana Roo","municipality":"Bacalar","setelement":"Lázaro Cárdenas del Río Tercero"},{"postalCode":"77910","state":"Quintana Roo","municipality":"Bacalar","setelement":"Rafael Witzil Hau"},{"postalCode":"77910","state":"Quintana Roo","municipality":"Bacalar","setelement":"Rancho Grande"},{"postalCode":"77913","state":"Quintana Roo","municipality":"Bacalar","setelement":"El Progreso"},{"postalCode":"77913","state":"Quintana Roo","municipality":"Bacalar","setelement":"Nuevo Hoctún"},{"postalCode":"77913","state":"Quintana Roo","municipality":"Bacalar","setelement":"Dieciocho de Marzo"},{"postalCode":"77913","state":"Quintana Roo","municipality":"Bacalar","setelement":"El Coco"},{"postalCode":"77913","state":"Quintana Roo","municipality":"Bacalar","setelement":"Francisco J. Mújica"},{"postalCode":"77913","state":"Quintana Roo","municipality":"Bacalar","setelement":"Gabino Vázquez"},{"postalCode":"77913","state":"Quintana Roo","municipality":"Bacalar","setelement":"Jesús Martínez Ross"},{"postalCode":"77913","state":"Quintana Roo","municipality":"Bacalar","setelement":"Zamora"},{"postalCode":"77914","state":"Quintana Roo","municipality":"Bacalar","setelement":"Iturbide"},{"postalCode":"77914","state":"Quintana Roo","municipality":"Bacalar","setelement":"Nuevo Jerusalén"},{"postalCode":"77914","state":"Quintana Roo","municipality":"Bacalar","setelement":"San Fernando"},{"postalCode":"77914","state":"Quintana Roo","municipality":"Bacalar","setelement":"Margarita Maza de Juárez"},{"postalCode":"77914","state":"Quintana Roo","municipality":"Bacalar","setelement":"Guadalupe Victoria"},{"postalCode":"77914","state":"Quintana Roo","municipality":"Bacalar","setelement":"Gustavo Antonio"},{"postalCode":"77914","state":"Quintana Roo","municipality":"Bacalar","setelement":"La Bendición de Dios"},{"postalCode":"77914","state":"Quintana Roo","municipality":"Bacalar","setelement":"San José los Lirios"},{"postalCode":"77914","state":"Quintana Roo","municipality":"Bacalar","setelement":"San Judas Tadeo"},{"postalCode":"77915","state":"Quintana Roo","municipality":"Bacalar","setelement":"Cuatro Banderas"},{"postalCode":"77915","state":"Quintana Roo","municipality":"Bacalar","setelement":"Monte Olivo"},{"postalCode":"77916","state":"Quintana Roo","municipality":"Bacalar","setelement":"Melchor Ocampo"},{"postalCode":"77916","state":"Quintana Roo","municipality":"Bacalar","setelement":"Francisco Villa"},{"postalCode":"77916","state":"Quintana Roo","municipality":"Bacalar","setelement":"Caanán"},{"postalCode":"77916","state":"Quintana Roo","municipality":"Bacalar","setelement":"Los Cardenales"},{"postalCode":"77916","state":"Quintana Roo","municipality":"Bacalar","setelement":"Otilio Montaño"},{"postalCode":"77916","state":"Quintana Roo","municipality":"Bacalar","setelement":"Valentín Gómez Farías"},{"postalCode":"77917","state":"Quintana Roo","municipality":"Bacalar","setelement":"Nuevo Tabasco"},{"postalCode":"77917","state":"Quintana Roo","municipality":"Bacalar","setelement":"Santa Rosa"},{"postalCode":"77920","state":"Quintana Roo","municipality":"Bacalar","setelement":"Limones"},{"postalCode":"77923","state":"Quintana Roo","municipality":"Bacalar","setelement":"Pedro Antonio Santos"},{"postalCode":"77923","state":"Quintana Roo","municipality":"Bacalar","setelement":"Anastacio Valdez Huchin"},{"postalCode":"77923","state":"Quintana Roo","municipality":"Bacalar","setelement":"Buenavista"},{"postalCode":"77923","state":"Quintana Roo","municipality":"Bacalar","setelement":"Chula Vista"},{"postalCode":"77923","state":"Quintana Roo","municipality":"Bacalar","setelement":"El Cafetal"},{"postalCode":"77923","state":"Quintana Roo","municipality":"Bacalar","setelement":"El Naranjal"},{"postalCode":"77923","state":"Quintana Roo","municipality":"Bacalar","setelement":"El Pedregal"},{"postalCode":"77923","state":"Quintana Roo","municipality":"Bacalar","setelement":"El Sinaí"},{"postalCode":"77923","state":"Quintana Roo","municipality":"Bacalar","setelement":"Iván Díaz"},{"postalCode":"77923","state":"Quintana Roo","municipality":"Bacalar","setelement":"La Pasadita"},{"postalCode":"77923","state":"Quintana Roo","municipality":"Bacalar","setelement":"La Piedra"},{"postalCode":"77923","state":"Quintana Roo","municipality":"Bacalar","setelement":"Los Compadres"},{"postalCode":"77923","state":"Quintana Roo","municipality":"Bacalar","setelement":"Sabanitas Dos"},{"postalCode":"77923","state":"Quintana Roo","municipality":"Bacalar","setelement":"San José"},{"postalCode":"77923","state":"Quintana Roo","municipality":"Bacalar","setelement":"San Martín"},{"postalCode":"77923","state":"Quintana Roo","municipality":"Bacalar","setelement":"San Pedro"},{"postalCode":"77923","state":"Quintana Roo","municipality":"Bacalar","setelement":"Santa Cruz Chico"},{"postalCode":"77923","state":"Quintana Roo","municipality":"Bacalar","setelement":"Zak-Chakán"},{"postalCode":"77924","state":"Quintana Roo","municipality":"Bacalar","setelement":"Gabriel García"},{"postalCode":"77924","state":"Quintana Roo","municipality":"Bacalar","setelement":"La Casona"},{"postalCode":"77924","state":"Quintana Roo","municipality":"Bacalar","setelement":"Los Cinco Hermanos"},{"postalCode":"77924","state":"Quintana Roo","municipality":"Bacalar","setelement":"Marlboro"},{"postalCode":"77924","state":"Quintana Roo","municipality":"Bacalar","setelement":"PROFEPA [Caseta de Vigilancia]"},{"postalCode":"77924","state":"Quintana Roo","municipality":"Bacalar","setelement":"San Gabriel"},{"postalCode":"77925","state":"Quintana Roo","municipality":"Bacalar","setelement":"Las Palmas"},{"postalCode":"77925","state":"Quintana Roo","municipality":"Bacalar","setelement":"Los Alacranes"},{"postalCode":"77925","state":"Quintana Roo","municipality":"Bacalar","setelement":"Punta Pulticub"},{"postalCode":"77925","state":"Quintana Roo","municipality":"Bacalar","setelement":"Rancho Mayob"},{"postalCode":"77925","state":"Quintana Roo","municipality":"Bacalar","setelement":"Rancho Tranquila"},{"postalCode":"77926","state":"Quintana Roo","municipality":"Bacalar","setelement":"La Esperanza"},{"postalCode":"77926","state":"Quintana Roo","municipality":"Bacalar","setelement":"Chacchoben"},{"postalCode":"77926","state":"Quintana Roo","municipality":"Bacalar","setelement":"De Guadalupe"},{"postalCode":"77926","state":"Quintana Roo","municipality":"Bacalar","setelement":"El Cerro de la Campana"},{"postalCode":"77926","state":"Quintana Roo","municipality":"Bacalar","setelement":"El Esfuerzo"},{"postalCode":"77926","state":"Quintana Roo","municipality":"Bacalar","setelement":"El Zapote"},{"postalCode":"77926","state":"Quintana Roo","municipality":"Bacalar","setelement":"La Loma"},{"postalCode":"77926","state":"Quintana Roo","municipality":"Bacalar","setelement":"La Retranca"},{"postalCode":"77926","state":"Quintana Roo","municipality":"Bacalar","setelement":"Los Laureles"},{"postalCode":"77926","state":"Quintana Roo","municipality":"Bacalar","setelement":"Los Siete Hermanos"},{"postalCode":"77926","state":"Quintana Roo","municipality":"Bacalar","setelement":"Corredor Frutícola"},{"postalCode":"77926","state":"Quintana Roo","municipality":"Bacalar","setelement":"Noh-Bec"},{"postalCode":"77926","state":"Quintana Roo","municipality":"Bacalar","setelement":"San Bernardo"},{"postalCode":"77926","state":"Quintana Roo","municipality":"Bacalar","setelement":"San Felipe"},{"postalCode":"77926","state":"Quintana Roo","municipality":"Bacalar","setelement":"San Juan"},{"postalCode":"77926","state":"Quintana Roo","municipality":"Bacalar","setelement":"San Manuel"},{"postalCode":"77927","state":"Quintana Roo","municipality":"Bacalar","setelement":"Lázaro Cárdenas"},{"postalCode":"77927","state":"Quintana Roo","municipality":"Bacalar","setelement":"Serviliano Cohuó Medina"},{"postalCode":"77927","state":"Quintana Roo","municipality":"Bacalar","setelement":"CECUSE"},{"postalCode":"77927","state":"Quintana Roo","municipality":"Bacalar","setelement":"Francisco Hurtado Ibarra"},{"postalCode":"77927","state":"Quintana Roo","municipality":"Bacalar","setelement":"La Herradura"},{"postalCode":"77927","state":"Quintana Roo","municipality":"Bacalar","setelement":"La Prosperidad (El Aserradero)"},{"postalCode":"77930","state":"Quintana Roo","municipality":"Bacalar","setelement":"Bacalar Centro"},{"postalCode":"77933","state":"Quintana Roo","municipality":"Bacalar","setelement":"Sor Juana Inés de La Cruz"},{"postalCode":"77933","state":"Quintana Roo","municipality":"Bacalar","setelement":"Diego Rojas"},{"postalCode":"77933","state":"Quintana Roo","municipality":"Bacalar","setelement":"Magisterial"},{"postalCode":"77934","state":"Quintana Roo","municipality":"Bacalar","setelement":"Serapio Flota Mass"},{"postalCode":"77934","state":"Quintana Roo","municipality":"Bacalar","setelement":"Gonzalo Guerrero"},{"postalCode":"77934","state":"Quintana Roo","municipality":"Bacalar","setelement":"Salinas de Gortari"},{"postalCode":"77934","state":"Quintana Roo","municipality":"Bacalar","setelement":"Benito Juárez"},{"postalCode":"77935","state":"Quintana Roo","municipality":"Bacalar","setelement":"Mario Villanueva"},{"postalCode":"77935","state":"Quintana Roo","municipality":"Bacalar","setelement":"5 de Mayo"},{"postalCode":"77935","state":"Quintana Roo","municipality":"Bacalar","setelement":"Luis Donaldo Colosio"},{"postalCode":"77936","state":"Quintana Roo","municipality":"Bacalar","setelement":"Aarón Merino"},{"postalCode":"77936","state":"Quintana Roo","municipality":"Bacalar","setelement":"Aarón Merino"},{"postalCode":"77936","state":"Quintana Roo","municipality":"Bacalar","setelement":"Agua Real"},{"postalCode":"77936","state":"Quintana Roo","municipality":"Bacalar","setelement":"Cayuco Maya"},{"postalCode":"77936","state":"Quintana Roo","municipality":"Bacalar","setelement":"Centro de Conservación e Investigación de la Vida"},{"postalCode":"77936","state":"Quintana Roo","municipality":"Bacalar","setelement":"Cinco Hermanos"},{"postalCode":"77936","state":"Quintana Roo","municipality":"Bacalar","setelement":"Cruz del Sur"},{"postalCode":"77936","state":"Quintana Roo","municipality":"Bacalar","setelement":"Ecotucán"},{"postalCode":"77936","state":"Quintana Roo","municipality":"Bacalar","setelement":"Eduardo Puchiga"},{"postalCode":"77936","state":"Quintana Roo","municipality":"Bacalar","setelement":"El Buen Pastor"},{"postalCode":"77936","state":"Quintana Roo","municipality":"Bacalar","setelement":"El Milagro"},{"postalCode":"77936","state":"Quintana Roo","municipality":"Bacalar","setelement":"El Pedregal"},{"postalCode":"77936","state":"Quintana Roo","municipality":"Bacalar","setelement":"El Trébol"},{"postalCode":"77936","state":"Quintana Roo","municipality":"Bacalar","setelement":"Elsa Micaela Barquet"},{"postalCode":"77936","state":"Quintana Roo","municipality":"Bacalar","setelement":"Jorge Alonzo Canto"},{"postalCode":"77936","state":"Quintana Roo","municipality":"Bacalar","setelement":"Juan Herrera"},{"postalCode":"77936","state":"Quintana Roo","municipality":"Bacalar","setelement":"La Cochinera"},{"postalCode":"77936","state":"Quintana Roo","municipality":"Bacalar","setelement":"La Estancia"},{"postalCode":"77936","state":"Quintana Roo","municipality":"Bacalar","setelement":"Leyda Alpuche"},{"postalCode":"77936","state":"Quintana Roo","municipality":"Bacalar","setelement":"Los Humildes"},{"postalCode":"77936","state":"Quintana Roo","municipality":"Bacalar","setelement":"Narciso Alpuche Rivero"},{"postalCode":"77936","state":"Quintana Roo","municipality":"Bacalar","setelement":"Pehaltum"},{"postalCode":"77936","state":"Quintana Roo","municipality":"Bacalar","setelement":"Puerta del Cielo"},{"postalCode":"77936","state":"Quintana Roo","municipality":"Bacalar","setelement":"Rancho Encantado"},{"postalCode":"77936","state":"Quintana Roo","municipality":"Bacalar","setelement":"Rancho Juanita"},{"postalCode":"77936","state":"Quintana Roo","municipality":"Bacalar","setelement":"San Felipe Bacalar"},{"postalCode":"77936","state":"Quintana Roo","municipality":"Bacalar","setelement":"San Juan"},{"postalCode":"77936","state":"Quintana Roo","municipality":"Bacalar","setelement":"San Ramón"},{"postalCode":"77936","state":"Quintana Roo","municipality":"Bacalar","setelement":"Silvia Cerecero Loyola"},{"postalCode":"77936","state":"Quintana Roo","municipality":"Bacalar","setelement":"Villas del Sagrario"},{"postalCode":"77936","state":"Quintana Roo","municipality":"Bacalar","setelement":"Xtomoc"},{"postalCode":"77936","state":"Quintana Roo","municipality":"Bacalar","setelement":"Áak Abal"},{"postalCode":"77937","state":"Quintana Roo","municipality":"Bacalar","setelement":"Las Brisas"},{"postalCode":"77937","state":"Quintana Roo","municipality":"Bacalar","setelement":"Salamanca"},{"postalCode":"77937","state":"Quintana Roo","municipality":"Bacalar","setelement":"Ángelo Cortez"},{"postalCode":"77937","state":"Quintana Roo","municipality":"Bacalar","setelement":"Alfonso Álvarez Sánchez"},{"postalCode":"77937","state":"Quintana Roo","municipality":"Bacalar","setelement":"Bárbara Guerrero Pérez"},{"postalCode":"77937","state":"Quintana Roo","municipality":"Bacalar","setelement":"Colosio"},{"postalCode":"77937","state":"Quintana Roo","municipality":"Bacalar","setelement":"Cámara"},{"postalCode":"77937","state":"Quintana Roo","municipality":"Bacalar","setelement":"Cuatro Potrillos"},{"postalCode":"77937","state":"Quintana Roo","municipality":"Bacalar","setelement":"Emiliano Pantín Góngora"},{"postalCode":"77937","state":"Quintana Roo","municipality":"Bacalar","setelement":"Ernesto Chejín"},{"postalCode":"77937","state":"Quintana Roo","municipality":"Bacalar","setelement":"Frontera de los Julios"},{"postalCode":"77937","state":"Quintana Roo","municipality":"Bacalar","setelement":"Javier Palacios"},{"postalCode":"77937","state":"Quintana Roo","municipality":"Bacalar","setelement":"La Carmelita"},{"postalCode":"77937","state":"Quintana Roo","municipality":"Bacalar","setelement":"La Esmeralda"},{"postalCode":"77937","state":"Quintana Roo","municipality":"Bacalar","setelement":"La Nueva Esperanza"},{"postalCode":"77937","state":"Quintana Roo","municipality":"Bacalar","setelement":"Las Velas"},{"postalCode":"77937","state":"Quintana Roo","municipality":"Bacalar","setelement":"Los Ángeles"},{"postalCode":"77937","state":"Quintana Roo","municipality":"Bacalar","setelement":"Manatí"},{"postalCode":"77937","state":"Quintana Roo","municipality":"Bacalar","setelement":"Paraíso Segundo"},{"postalCode":"77937","state":"Quintana Roo","municipality":"Bacalar","setelement":"Rancho Cascabel"},{"postalCode":"77937","state":"Quintana Roo","municipality":"Bacalar","setelement":"Rancho Ramonal"},{"postalCode":"77937","state":"Quintana Roo","municipality":"Bacalar","setelement":"Reyna"},{"postalCode":"77937","state":"Quintana Roo","municipality":"Bacalar","setelement":"San Antonio"},{"postalCode":"77937","state":"Quintana Roo","municipality":"Bacalar","setelement":"Santiago Palacios Carrillo"},{"postalCode":"77937","state":"Quintana Roo","municipality":"Bacalar","setelement":"Sistema de Bombeo"},{"postalCode":"77937","state":"Quintana Roo","municipality":"Bacalar","setelement":"Tito Raúl García Aguilar"},{"postalCode":"77937","state":"Quintana Roo","municipality":"Bacalar","setelement":"Ubre Blanca"},{"postalCode":"77937","state":"Quintana Roo","municipality":"Bacalar","setelement":"Zapata"},{"postalCode":"77940","state":"Quintana Roo","municipality":"Bacalar","setelement":"Kuchumatán"},{"postalCode":"77940","state":"Quintana Roo","municipality":"Bacalar","setelement":"La Candelaria"},{"postalCode":"77940","state":"Quintana Roo","municipality":"Bacalar","setelement":"Las Tres Emes"},{"postalCode":"77940","state":"Quintana Roo","municipality":"Bacalar","setelement":"Los Cascabeles"},{"postalCode":"77940","state":"Quintana Roo","municipality":"Bacalar","setelement":"Maya Balam"},{"postalCode":"77940","state":"Quintana Roo","municipality":"Bacalar","setelement":"San Cosme"},{"postalCode":"77943","state":"Quintana Roo","municipality":"Bacalar","setelement":"El Cedral"},{"postalCode":"77943","state":"Quintana Roo","municipality":"Bacalar","setelement":"El Encanto"},{"postalCode":"77943","state":"Quintana Roo","municipality":"Bacalar","setelement":"Caan Lumil"},{"postalCode":"77943","state":"Quintana Roo","municipality":"Bacalar","setelement":"El Naranjal"},{"postalCode":"77943","state":"Quintana Roo","municipality":"Bacalar","setelement":"Miguel Hidalgo y Costilla"},{"postalCode":"77943","state":"Quintana Roo","municipality":"Bacalar","setelement":"Rancho Sur"},{"postalCode":"77943","state":"Quintana Roo","municipality":"Bacalar","setelement":"San Isidro la Laguna"},{"postalCode":"77943","state":"Quintana Roo","municipality":"Bacalar","setelement":"San Martín"},{"postalCode":"77943","state":"Quintana Roo","municipality":"Bacalar","setelement":"Santa Cruz"},{"postalCode":"77943","state":"Quintana Roo","municipality":"Bacalar","setelement":"Santa Rita"},{"postalCode":"77943","state":"Quintana Roo","municipality":"Bacalar","setelement":"Xtomoc Uno"},{"postalCode":"77944","state":"Quintana Roo","municipality":"Bacalar","setelement":"Andrés Quintana Roo"},{"postalCode":"77944","state":"Quintana Roo","municipality":"Bacalar","setelement":"Bacalar Uno"},{"postalCode":"77944","state":"Quintana Roo","municipality":"Bacalar","setelement":"El Encanto Segundo"},{"postalCode":"77944","state":"Quintana Roo","municipality":"Bacalar","setelement":"Jorge Cano"},{"postalCode":"77944","state":"Quintana Roo","municipality":"Bacalar","setelement":"La Ceiba"},{"postalCode":"77944","state":"Quintana Roo","municipality":"Bacalar","setelement":"Paraíso Escondido"},{"postalCode":"77944","state":"Quintana Roo","municipality":"Bacalar","setelement":"San Antonio"},{"postalCode":"77944","state":"Quintana Roo","municipality":"Bacalar","setelement":"Tito"},{"postalCode":"77945","state":"Quintana Roo","municipality":"Bacalar","setelement":"Buena Esperanza"},{"postalCode":"77945","state":"Quintana Roo","municipality":"Bacalar","setelement":"El Bajío"},{"postalCode":"77945","state":"Quintana Roo","municipality":"Bacalar","setelement":"La Central"},{"postalCode":"77945","state":"Quintana Roo","municipality":"Bacalar","setelement":"La Coruña"},{"postalCode":"77945","state":"Quintana Roo","municipality":"Bacalar","setelement":"Los Cuates"},{"postalCode":"77945","state":"Quintana Roo","municipality":"Bacalar","setelement":"San Rafael"},{"postalCode":"77946","state":"Quintana Roo","municipality":"Bacalar","setelement":"Blanca Flor"},{"postalCode":"77946","state":"Quintana Roo","municipality":"Bacalar","setelement":"El Calvario"},{"postalCode":"77946","state":"Quintana Roo","municipality":"Bacalar","setelement":"El Diamante"},{"postalCode":"77946","state":"Quintana Roo","municipality":"Bacalar","setelement":"El Edén"},{"postalCode":"77946","state":"Quintana Roo","municipality":"Bacalar","setelement":"El Paraíso"},{"postalCode":"77946","state":"Quintana Roo","municipality":"Bacalar","setelement":"El Roble"},{"postalCode":"77946","state":"Quintana Roo","municipality":"Bacalar","setelement":"El Rubí"},{"postalCode":"77946","state":"Quintana Roo","municipality":"Bacalar","setelement":"La Buena Fe"},{"postalCode":"77946","state":"Quintana Roo","municipality":"Bacalar","setelement":"Las Heliconias"},{"postalCode":"77946","state":"Quintana Roo","municipality":"Bacalar","setelement":"Los Divorciados"},{"postalCode":"77946","state":"Quintana Roo","municipality":"Bacalar","setelement":"Manuel Ávila Camacho"},{"postalCode":"77946","state":"Quintana Roo","municipality":"Bacalar","setelement":"Mil Millas al Sur"},{"postalCode":"77946","state":"Quintana Roo","municipality":"Bacalar","setelement":"San José (La Silvia)"},{"postalCode":"77947","state":"Quintana Roo","municipality":"Bacalar","setelement":"Vallehermoso"},{"postalCode":"77947","state":"Quintana Roo","municipality":"Bacalar","setelement":"El Mamey"},{"postalCode":"77947","state":"Quintana Roo","municipality":"Bacalar","setelement":"Gustavo Díaz Ordaz"},{"postalCode":"77947","state":"Quintana Roo","municipality":"Bacalar","setelement":"La Pantera"},{"postalCode":"77947","state":"Quintana Roo","municipality":"Bacalar","setelement":"Petén Tunich"},{"postalCode":"77947","state":"Quintana Roo","municipality":"Bacalar","setelement":"Yumpetén"},{"postalCode":"77950","state":"Quintana Roo","municipality":"Othón P. Blanco","setelement":"Sergio Butrón Casas"},{"postalCode":"77953","state":"Quintana Roo","municipality":"Othón P. Blanco","setelement":"Jesús González Ortega"},{"postalCode":"77953","state":"Quintana Roo","municipality":"Othón P. Blanco","setelement":"Morocoy"},{"postalCode":"77954","state":"Quintana Roo","municipality":"Othón P. Blanco","setelement":"Cedro"},{"postalCode":"77954","state":"Quintana Roo","municipality":"Othón P. Blanco","setelement":"10 de Septiembre"},{"postalCode":"77954","state":"Quintana Roo","municipality":"Othón P. Blanco","setelement":"20 de Noviembre"},{"postalCode":"77954","state":"Quintana Roo","municipality":"Othón P. Blanco","setelement":"16 de Septiembre"},{"postalCode":"77955","state":"Quintana Roo","municipality":"Othón P. Blanco","setelement":"El Cedral"},{"postalCode":"77955","state":"Quintana Roo","municipality":"Othón P. Blanco","setelement":"California"},{"postalCode":"77955","state":"Quintana Roo","municipality":"Othón P. Blanco","setelement":"Nuevo Caanán"},{"postalCode":"77955","state":"Quintana Roo","municipality":"Othón P. Blanco","setelement":"Nuevo Bécar"},{"postalCode":"77955","state":"Quintana Roo","municipality":"Othón P. Blanco","setelement":"Veracruz"},{"postalCode":"77955","state":"Quintana Roo","municipality":"Othón P. Blanco","setelement":"Cinco de Mayo"},{"postalCode":"77957","state":"Quintana Roo","municipality":"Othón P. Blanco","setelement":"Lázaro Cárdenas Segundo"},{"postalCode":"77957","state":"Quintana Roo","municipality":"Othón P. Blanco","setelement":"San Pedro Peralta"},{"postalCode":"77957","state":"Quintana Roo","municipality":"Othón P. Blanco","setelement":"La Libertad"},{"postalCode":"77957","state":"Quintana Roo","municipality":"Othón P. Blanco","setelement":"Limonar"},{"postalCode":"77959","state":"Quintana Roo","municipality":"Othón P. Blanco","setelement":"Emiliano Zapata"},{"postalCode":"77960","state":"Quintana Roo","municipality":"Othón P. Blanco","setelement":"La Conquista"},{"postalCode":"77960","state":"Quintana Roo","municipality":"Othón P. Blanco","setelement":"Centro Calderitas"},{"postalCode":"77960","state":"Quintana Roo","municipality":"Othón P. Blanco","setelement":"16 de Septiembre"},{"postalCode":"77960","state":"Quintana Roo","municipality":"Othón P. Blanco","setelement":"Veracruz"},{"postalCode":"77960","state":"Quintana Roo","municipality":"Othón P. Blanco","setelement":"Yucatán"},{"postalCode":"77960","state":"Quintana Roo","municipality":"Othón P. Blanco","setelement":"Lázaro Cárdenas"},{"postalCode":"77962","state":"Quintana Roo","municipality":"Othón P. Blanco","setelement":"Mártires Antorchistas"},{"postalCode":"77962","state":"Quintana Roo","municipality":"Othón P. Blanco","setelement":"Fraternidad Antorchista"},{"postalCode":"77963","state":"Quintana Roo","municipality":"Othón P. Blanco","setelement":"Xul-ha"},{"postalCode":"77965","state":"Quintana Roo","municipality":"Othón P. Blanco","setelement":"Subteniente López"},{"postalCode":"77965","state":"Quintana Roo","municipality":"Othón P. Blanco","setelement":"Huaypix"},{"postalCode":"77965","state":"Quintana Roo","municipality":"Othón P. Blanco","setelement":"Juan Sarabia"},{"postalCode":"77966","state":"Quintana Roo","municipality":"Othón P. Blanco","setelement":"Luis Echeverría Álvarez"},{"postalCode":"77966","state":"Quintana Roo","municipality":"Othón P. Blanco","setelement":"Laguna Guerrero"},{"postalCode":"77966","state":"Quintana Roo","municipality":"Othón P. Blanco","setelement":"Raudales"},{"postalCode":"77970","state":"Quintana Roo","municipality":"Othón P. Blanco","setelement":"Xcalak"},{"postalCode":"77976","state":"Quintana Roo","municipality":"Othón P. Blanco","setelement":"Mahahual"},{"postalCode":"77976","state":"Quintana Roo","municipality":"Othón P. Blanco","setelement":"Hermanos Flores Magón"},{"postalCode":"77976","state":"Quintana Roo","municipality":"Othón P. Blanco","setelement":"Mahahual"},{"postalCode":"77977","state":"Quintana Roo","municipality":"Othón P. Blanco","setelement":"Playa Uvero"},{"postalCode":"77980","state":"Quintana Roo","municipality":"Othón P. Blanco","setelement":"Javier Rojo Gómez"},{"postalCode":"77980","state":"Quintana Roo","municipality":"Othón P. Blanco","setelement":"Álvaro Obregón"},{"postalCode":"77983","state":"Quintana Roo","municipality":"Othón P. Blanco","setelement":"Francisco Villa"},{"postalCode":"77983","state":"Quintana Roo","municipality":"Othón P. Blanco","setelement":"Sabidos"},{"postalCode":"77983","state":"Quintana Roo","municipality":"Othón P. Blanco","setelement":"Álvaro Obregón Viejo"},{"postalCode":"77984","state":"Quintana Roo","municipality":"Othón P. Blanco","setelement":"Pedro Joaquín Coldwell"},{"postalCode":"77984","state":"Quintana Roo","municipality":"Othón P. Blanco","setelement":"Hidalgo"},{"postalCode":"77984","state":"Quintana Roo","municipality":"Othón P. Blanco","setelement":"Cacao"},{"postalCode":"77984","state":"Quintana Roo","municipality":"Othón P. Blanco","setelement":"Pucte"},{"postalCode":"77985","state":"Quintana Roo","municipality":"Othón P. Blanco","setelement":"Sacxán"},{"postalCode":"77985","state":"Quintana Roo","municipality":"Othón P. Blanco","setelement":"Carlos A Madrazo"},{"postalCode":"77985","state":"Quintana Roo","municipality":"Othón P. Blanco","setelement":"Ramonal"},{"postalCode":"77985","state":"Quintana Roo","municipality":"Othón P. Blanco","setelement":"Palmar"},{"postalCode":"77985","state":"Quintana Roo","municipality":"Othón P. Blanco","setelement":"Ucum"},{"postalCode":"77985","state":"Quintana Roo","municipality":"Othón P. Blanco","setelement":"Allende"},{"postalCode":"77985","state":"Quintana Roo","municipality":"Othón P. Blanco","setelement":"Nachi-cocom"},{"postalCode":"77986","state":"Quintana Roo","municipality":"Othón P. Blanco","setelement":"San José de la Montaña"},{"postalCode":"77987","state":"Quintana Roo","municipality":"Othón P. Blanco","setelement":"Caobas"},{"postalCode":"77990","state":"Quintana Roo","municipality":"Othón P. Blanco","setelement":"San Francisco Botes"},{"postalCode":"77990","state":"Quintana Roo","municipality":"Othón P. Blanco","setelement":"Cocoyol"},{"postalCode":"77990","state":"Quintana Roo","municipality":"Othón P. Blanco","setelement":"José Narciso Rovirosa"},{"postalCode":"77992","state":"Quintana Roo","municipality":"Othón P. Blanco","setelement":"Revolución"},{"postalCode":"77992","state":"Quintana Roo","municipality":"Othón P. Blanco","setelement":"Esteban Baca Calderón"},{"postalCode":"77992","state":"Quintana Roo","municipality":"Othón P. Blanco","setelement":"La Unión"},{"postalCode":"77994","state":"Quintana Roo","municipality":"Othón P. Blanco","setelement":"Tomás Garrido"},{"postalCode":"77995","state":"Quintana Roo","municipality":"Othón P. Blanco","setelement":"Santa Rosa"},{"postalCode":"77995","state":"Quintana Roo","municipality":"Othón P. Blanco","setelement":"Icaiché"},{"postalCode":"77995","state":"Quintana Roo","municipality":"Othón P. Blanco","setelement":"Dos Aguadas"},{"postalCode":"77997","state":"Quintana Roo","municipality":"Othón P. Blanco","setelement":"Tres Garantías"}]