[{"postalCode":"90000","state":"Tlaxcala","municipality":"Tlaxcala","setelement":"Tlaxcala Centro"},{"postalCode":"90005","state":"Tlaxcala","municipality":"Tlaxcala","setelement":"Huertas de San Francisco"},{"postalCode":"90006","state":"Tlaxcala","municipality":"Tlaxcala","setelement":"Universidad Autónoma de Tlaxcala"},{"postalCode":"90010","state":"Tlaxcala","municipality":"Tlaxcala","setelement":"San Buenaventura Atempan"},{"postalCode":"90013","state":"Tlaxcala","municipality":"Tlaxcala","setelement":"Xicohténcatl"},{"postalCode":"90014","state":"Tlaxcala","municipality":"Tlaxcala","setelement":"Vista Malintzi"},{"postalCode":"90014","state":"Tlaxcala","municipality":"Tlaxcala","setelement":"El Bosque"},{"postalCode":"90014","state":"Tlaxcala","municipality":"Tlaxcala","setelement":"Los Potrillos"},{"postalCode":"90014","state":"Tlaxcala","municipality":"Tlaxcala","setelement":"Vista Hermosa"},{"postalCode":"90014","state":"Tlaxcala","municipality":"Tlaxcala","setelement":"Los Causes"},{"postalCode":"90014","state":"Tlaxcala","municipality":"Tlaxcala","setelement":"Magisterial Vista Hermosa"},{"postalCode":"90014","state":"Tlaxcala","municipality":"Tlaxcala","setelement":"Cuarto Señorío"},{"postalCode":"90014","state":"Tlaxcala","municipality":"Tlaxcala","setelement":"Los Volcanes"},{"postalCode":"90019","state":"Tlaxcala","municipality":"Tlaxcala","setelement":"Los Pinos"},{"postalCode":"90020","state":"Tlaxcala","municipality":"Tlaxcala","setelement":"Pensionados Militares"},{"postalCode":"90030","state":"Tlaxcala","municipality":"Tlaxcala","setelement":"Felipe Santiago Xicoténcatl"},{"postalCode":"90030","state":"Tlaxcala","municipality":"Tlaxcala","setelement":"Los Volcanes"},{"postalCode":"90030","state":"Tlaxcala","municipality":"Tlaxcala","setelement":"Las Ánimas"},{"postalCode":"90030","state":"Tlaxcala","municipality":"Tlaxcala","setelement":"Paso de Cortes"},{"postalCode":"90030","state":"Tlaxcala","municipality":"Tlaxcala","setelement":"Cuarto Señoríos"},{"postalCode":"90030","state":"Tlaxcala","municipality":"Tlaxcala","setelement":"Real del Sol"},{"postalCode":"90030","state":"Tlaxcala","municipality":"Tlaxcala","setelement":"Lomas de Coyotepec"},{"postalCode":"90030","state":"Tlaxcala","municipality":"Tlaxcala","setelement":"Las Ánimas"},{"postalCode":"90030","state":"Tlaxcala","municipality":"Tlaxcala","setelement":"Ameyal"},{"postalCode":"90030","state":"Tlaxcala","municipality":"Tlaxcala","setelement":"Residencial Jardines de San Gabriel"},{"postalCode":"90030","state":"Tlaxcala","municipality":"Tlaxcala","setelement":"Villa de los Ángeles"},{"postalCode":"90030","state":"Tlaxcala","municipality":"Tlaxcala","setelement":"Los Girasoles"},{"postalCode":"90030","state":"Tlaxcala","municipality":"Tlaxcala","setelement":"Los Pinos"},{"postalCode":"90030","state":"Tlaxcala","municipality":"Tlaxcala","setelement":"El Real"},{"postalCode":"90040","state":"Tlaxcala","municipality":"Tlaxcala","setelement":"San Miguel Tlamahuco"},{"postalCode":"90040","state":"Tlaxcala","municipality":"Tlaxcala","setelement":"Adolfo López Mateos"},{"postalCode":"90050","state":"Tlaxcala","municipality":"Tlaxcala","setelement":"Ocotlán INFONAVIT"},{"postalCode":"90060","state":"Tlaxcala","municipality":"Tlaxcala","setelement":"San Isidro"},{"postalCode":"90062","state":"Tlaxcala","municipality":"Tlaxcala","setelement":"El Llanito"},{"postalCode":"90062","state":"Tlaxcala","municipality":"Tlaxcala","setelement":"Xicohténcatl"},{"postalCode":"90062","state":"Tlaxcala","municipality":"Tlaxcala","setelement":"Tlapala"},{"postalCode":"90080","state":"Tlaxcala","municipality":"Tlaxcala","setelement":"Del Maestro"},{"postalCode":"90090","state":"Tlaxcala","municipality":"Tlaxcala","setelement":"Loma Bonita"},{"postalCode":"90099","state":"Tlaxcala","municipality":"Tlaxcala","setelement":"Loma Linda"},{"postalCode":"90100","state":"Tlaxcala","municipality":"Tlaxcala","setelement":"El Mirador"},{"postalCode":"90100","state":"Tlaxcala","municipality":"Tlaxcala","setelement":"Ocotlán"},{"postalCode":"90100","state":"Tlaxcala","municipality":"Tlaxcala","setelement":"Rinconada de Ocotlán"},{"postalCode":"90100","state":"Tlaxcala","municipality":"Tlaxcala","setelement":"San Esteban Tizatlán"},{"postalCode":"90100","state":"Tlaxcala","municipality":"Tlaxcala","setelement":"3er Señorío"},{"postalCode":"90100","state":"Tlaxcala","municipality":"Tlaxcala","setelement":"Araucarias"},{"postalCode":"90100","state":"Tlaxcala","municipality":"Tlaxcala","setelement":"Las Rosas"},{"postalCode":"90100","state":"Tlaxcala","municipality":"Tlaxcala","setelement":"El Potrero"},{"postalCode":"90102","state":"Tlaxcala","municipality":"Tlaxcala","setelement":"El Sabinal"},{"postalCode":"90102","state":"Tlaxcala","municipality":"Tlaxcala","setelement":"La Cañada"},{"postalCode":"90102","state":"Tlaxcala","municipality":"Tlaxcala","setelement":"San Lucas"},{"postalCode":"90102","state":"Tlaxcala","municipality":"Tlaxcala","setelement":"Las Rosas"},{"postalCode":"90102","state":"Tlaxcala","municipality":"Tlaxcala","setelement":"Mirasol"},{"postalCode":"90105","state":"Tlaxcala","municipality":"Tlaxcala","setelement":"San Lazaro"},{"postalCode":"90105","state":"Tlaxcala","municipality":"Tlaxcala","setelement":"Santa María Ixtulco"},{"postalCode":"90105","state":"Tlaxcala","municipality":"Tlaxcala","setelement":"Tepetlapa"},{"postalCode":"90110","state":"Tlaxcala","municipality":"Tlaxcala","setelement":"Tlayecac"},{"postalCode":"90110","state":"Tlaxcala","municipality":"Tlaxcala","setelement":"San Diego Metepec"},{"postalCode":"90110","state":"Tlaxcala","municipality":"Tlaxcala","setelement":"San Lucas Cuauhtelulpan"},{"postalCode":"90110","state":"Tlaxcala","municipality":"Tlaxcala","setelement":"Santa María Acuitlapilco"},{"postalCode":"90110","state":"Tlaxcala","municipality":"Tlaxcala","setelement":"Balcón de las Ánimas"},{"postalCode":"90110","state":"Tlaxcala","municipality":"Tlaxcala","setelement":"Insurgentes"},{"postalCode":"90110","state":"Tlaxcala","municipality":"Tlaxcala","setelement":"San Diego"},{"postalCode":"90110","state":"Tlaxcala","municipality":"Tlaxcala","setelement":"Geo Villas San Diego"},{"postalCode":"90110","state":"Tlaxcala","municipality":"Tlaxcala","setelement":"Xilotzingo"},{"postalCode":"90110","state":"Tlaxcala","municipality":"Tlaxcala","setelement":"Guadalupe"},{"postalCode":"90110","state":"Tlaxcala","municipality":"Tlaxcala","setelement":"Grande"},{"postalCode":"90110","state":"Tlaxcala","municipality":"Tlaxcala","setelement":"El Alto"},{"postalCode":"90110","state":"Tlaxcala","municipality":"Tlaxcala","setelement":"Zapotla"},{"postalCode":"90110","state":"Tlaxcala","municipality":"Tlaxcala","setelement":"Los Pirules"},{"postalCode":"90111","state":"Tlaxcala","municipality":"Tlaxcala","setelement":"San Sebastián Atlahapa"},{"postalCode":"90112","state":"Tlaxcala","municipality":"Tlaxcala","setelement":"San Hipolito Chimalpa"},{"postalCode":"90114","state":"Tlaxcala","municipality":"Tlaxcala","setelement":"La Joya"},{"postalCode":"90114","state":"Tlaxcala","municipality":"Tlaxcala","setelement":"Lomas de Guadalupe"},{"postalCode":"90114","state":"Tlaxcala","municipality":"Tlaxcala","setelement":"Amapotla"},{"postalCode":"90114","state":"Tlaxcala","municipality":"Tlaxcala","setelement":"El Tejocote"},{"postalCode":"90114","state":"Tlaxcala","municipality":"Tlaxcala","setelement":"UAT"},{"postalCode":"90114","state":"Tlaxcala","municipality":"Tlaxcala","setelement":"La Laguna"},{"postalCode":"90114","state":"Tlaxcala","municipality":"Tlaxcala","setelement":"El Rincón o Los Rosales"},{"postalCode":"90114","state":"Tlaxcala","municipality":"Tlaxcala","setelement":"Miraflores"},{"postalCode":"90114","state":"Tlaxcala","municipality":"Tlaxcala","setelement":"Tlacomulco"},{"postalCode":"90114","state":"Tlaxcala","municipality":"Tlaxcala","setelement":"Santa Agueda"},{"postalCode":"90114","state":"Tlaxcala","municipality":"Tlaxcala","setelement":"La Vista"},{"postalCode":"90114","state":"Tlaxcala","municipality":"Tlaxcala","setelement":"La Herradura"},{"postalCode":"90114","state":"Tlaxcala","municipality":"Tlaxcala","setelement":"El Cortijo"},{"postalCode":"90114","state":"Tlaxcala","municipality":"Tlaxcala","setelement":"El Fresno"},{"postalCode":"90114","state":"Tlaxcala","municipality":"Tlaxcala","setelement":"El Rocío"},{"postalCode":"90115","state":"Tlaxcala","municipality":"Tlaxcala","setelement":"La Trinidad Tepehitec"},{"postalCode":"90115","state":"Tlaxcala","municipality":"Tlaxcala","setelement":"San Fernando"},{"postalCode":"90115","state":"Tlaxcala","municipality":"Tlaxcala","setelement":"Esmeralda"},{"postalCode":"90115","state":"Tlaxcala","municipality":"Tlaxcala","setelement":"3 Volcanes"},{"postalCode":"90115","state":"Tlaxcala","municipality":"Tlaxcala","setelement":"Del Valle"},{"postalCode":"90115","state":"Tlaxcala","municipality":"Tlaxcala","setelement":"Puesta del Sol"},{"postalCode":"90117","state":"Tlaxcala","municipality":"Tlaxcala","setelement":"San Gabriel Cuauhtla"},{"postalCode":"90117","state":"Tlaxcala","municipality":"Tlaxcala","setelement":"Colinas del Sur"},{"postalCode":"90117","state":"Tlaxcala","municipality":"Tlaxcala","setelement":"Las Arboledas"},{"postalCode":"90117","state":"Tlaxcala","municipality":"Tlaxcala","setelement":"La Garita de Puebla"},{"postalCode":"90117","state":"Tlaxcala","municipality":"Tlaxcala","setelement":"Bugambilias"},{"postalCode":"90118","state":"Tlaxcala","municipality":"Tlaxcala","setelement":"Tlapancalco"},{"postalCode":"90120","state":"Tlaxcala","municipality":"Ixtacuixtla de Mariano Matamoros","setelement":"Centro"},{"postalCode":"90120","state":"Tlaxcala","municipality":"Ixtacuixtla de Mariano Matamoros","setelement":"Santa Cruz El Porvenir"},{"postalCode":"90120","state":"Tlaxcala","municipality":"Ixtacuixtla de Mariano Matamoros","setelement":"Espíritu Santo"},{"postalCode":"90120","state":"Tlaxcala","municipality":"Ixtacuixtla de Mariano Matamoros","setelement":"Villa Mariano Matamoros"},{"postalCode":"90120","state":"Tlaxcala","municipality":"Ixtacuixtla de Mariano Matamoros","setelement":"Barranco"},{"postalCode":"90120","state":"Tlaxcala","municipality":"Ixtacuixtla de Mariano Matamoros","setelement":"Cerro Gordo"},{"postalCode":"90120","state":"Tlaxcala","municipality":"Ixtacuixtla de Mariano Matamoros","setelement":"Chapultepec"},{"postalCode":"90120","state":"Tlaxcala","municipality":"Ixtacuixtla de Mariano Matamoros","setelement":"La Escondida"},{"postalCode":"90120","state":"Tlaxcala","municipality":"Ixtacuixtla de Mariano Matamoros","setelement":"El Calvario"},{"postalCode":"90120","state":"Tlaxcala","municipality":"Ixtacuixtla de Mariano Matamoros","setelement":"San José Buenavista"},{"postalCode":"90120","state":"Tlaxcala","municipality":"Ixtacuixtla de Mariano Matamoros","setelement":"Las Moras (Las Moradillas)"},{"postalCode":"90121","state":"Tlaxcala","municipality":"Ixtacuixtla de Mariano Matamoros","setelement":"La Trinidad Tenexyecac"},{"postalCode":"90121","state":"Tlaxcala","municipality":"Ixtacuixtla de Mariano Matamoros","setelement":"Tetlapa"},{"postalCode":"90121","state":"Tlaxcala","municipality":"Ixtacuixtla de Mariano Matamoros","setelement":"Analco"},{"postalCode":"90122","state":"Tlaxcala","municipality":"Ixtacuixtla de Mariano Matamoros","setelement":"San Diego Xocoyucan"},{"postalCode":"90123","state":"Tlaxcala","municipality":"Ixtacuixtla de Mariano Matamoros","setelement":"Santa Justina Ecatepec"},{"postalCode":"90124","state":"Tlaxcala","municipality":"Ixtacuixtla de Mariano Matamoros","setelement":"La Soledad"},{"postalCode":"90125","state":"Tlaxcala","municipality":"Ixtacuixtla de Mariano Matamoros","setelement":"San Antonio Atotonilco"},{"postalCode":"90125","state":"Tlaxcala","municipality":"Ixtacuixtla de Mariano Matamoros","setelement":"Fracción la Virgen"},{"postalCode":"90125","state":"Tlaxcala","municipality":"Ixtacuixtla de Mariano Matamoros","setelement":"Las Rositas"},{"postalCode":"90125","state":"Tlaxcala","municipality":"Ixtacuixtla de Mariano Matamoros","setelement":"Las Torres"},{"postalCode":"90125","state":"Tlaxcala","municipality":"Ixtacuixtla de Mariano Matamoros","setelement":"Miguel Ángel"},{"postalCode":"90125","state":"Tlaxcala","municipality":"Ixtacuixtla de Mariano Matamoros","setelement":"Agustín López"},{"postalCode":"90125","state":"Tlaxcala","municipality":"Ixtacuixtla de Mariano Matamoros","setelement":"La Virgen"},{"postalCode":"90125","state":"Tlaxcala","municipality":"Ixtacuixtla de Mariano Matamoros","setelement":"San Cristóbal"},{"postalCode":"90125","state":"Tlaxcala","municipality":"Ixtacuixtla de Mariano Matamoros","setelement":"Tláloc"},{"postalCode":"90126","state":"Tlaxcala","municipality":"Ixtacuixtla de Mariano Matamoros","setelement":"Santa Inés Tecuexcomac"},{"postalCode":"90126","state":"Tlaxcala","municipality":"Ixtacuixtla de Mariano Matamoros","setelement":"San Isidro"},{"postalCode":"90127","state":"Tlaxcala","municipality":"Ixtacuixtla de Mariano Matamoros","setelement":"San Antonio Tecóac"},{"postalCode":"90127","state":"Tlaxcala","municipality":"Ixtacuixtla de Mariano Matamoros","setelement":"San Antonio Tizostoc"},{"postalCode":"90128","state":"Tlaxcala","municipality":"Ixtacuixtla de Mariano Matamoros","setelement":"San Gabriel Popocatla"},{"postalCode":"90130","state":"Tlaxcala","municipality":"Ixtacuixtla de Mariano Matamoros","setelement":"Alpotzonga de Lira y Ortega"},{"postalCode":"90130","state":"Tlaxcala","municipality":"Ixtacuixtla de Mariano Matamoros","setelement":"San Carlos"},{"postalCode":"90130","state":"Tlaxcala","municipality":"Ixtacuixtla de Mariano Matamoros","setelement":"La Suiza"},{"postalCode":"90130","state":"Tlaxcala","municipality":"Ixtacuixtla de Mariano Matamoros","setelement":"Santo Domingo"},{"postalCode":"90130","state":"Tlaxcala","municipality":"Ixtacuixtla de Mariano Matamoros","setelement":"Alpotzonga"},{"postalCode":"90130","state":"Tlaxcala","municipality":"Ixtacuixtla de Mariano Matamoros","setelement":"Las Huertas"},{"postalCode":"90130","state":"Tlaxcala","municipality":"Ixtacuixtla de Mariano Matamoros","setelement":"Guadalupe"},{"postalCode":"90131","state":"Tlaxcala","municipality":"Ixtacuixtla de Mariano Matamoros","setelement":"La Caridad Cuaxonacayo"},{"postalCode":"90132","state":"Tlaxcala","municipality":"Ixtacuixtla de Mariano Matamoros","setelement":"Santa Rosa de Lima"},{"postalCode":"90133","state":"Tlaxcala","municipality":"Ixtacuixtla de Mariano Matamoros","setelement":"San Juan Nepopualco"},{"postalCode":"90133","state":"Tlaxcala","municipality":"Ixtacuixtla de Mariano Matamoros","setelement":"San Miguel la Presa"},{"postalCode":"90133","state":"Tlaxcala","municipality":"Ixtacuixtla de Mariano Matamoros","setelement":"Ejido Santa Justina Ecatepec"},{"postalCode":"90133","state":"Tlaxcala","municipality":"Ixtacuixtla de Mariano Matamoros","setelement":"San José Escandona"},{"postalCode":"90133","state":"Tlaxcala","municipality":"Ixtacuixtla de Mariano Matamoros","setelement":"San Cristóbal Oxtotlapango"},{"postalCode":"90133","state":"Tlaxcala","municipality":"Ixtacuixtla de Mariano Matamoros","setelement":"Capula"},{"postalCode":"90134","state":"Tlaxcala","municipality":"Ixtacuixtla de Mariano Matamoros","setelement":"San Marcos Jilotepec"},{"postalCode":"90134","state":"Tlaxcala","municipality":"Ixtacuixtla de Mariano Matamoros","setelement":"Santiago Xochimilco"},{"postalCode":"90135","state":"Tlaxcala","municipality":"Santa Ana Nopalucan","setelement":"Santa Ana Nopalucan Centro"},{"postalCode":"90137","state":"Tlaxcala","municipality":"Santa Ana Nopalucan","setelement":"De México"},{"postalCode":"90137","state":"Tlaxcala","municipality":"Santa Ana Nopalucan","setelement":"Guadalupe"},{"postalCode":"90138","state":"Tlaxcala","municipality":"Santa Ana Nopalucan","setelement":"Unidad Deportiva"},{"postalCode":"90138","state":"Tlaxcala","municipality":"Santa Ana Nopalucan","setelement":"Nuevo México"},{"postalCode":"90139","state":"Tlaxcala","municipality":"Santa Ana Nopalucan","setelement":"De Puebla"},{"postalCode":"90139","state":"Tlaxcala","municipality":"Santa Ana Nopalucan","setelement":"El Cerrito"},{"postalCode":"90139","state":"Tlaxcala","municipality":"Santa Ana Nopalucan","setelement":"San Ignacio"},{"postalCode":"90140","state":"Tlaxcala","municipality":"Panotla","setelement":"San Mateo Huexoyucan"},{"postalCode":"90140","state":"Tlaxcala","municipality":"Panotla","setelement":"San Nicolás Panotla"},{"postalCode":"90140","state":"Tlaxcala","municipality":"Panotla","setelement":"San Tadeo Huiloapan"},{"postalCode":"90140","state":"Tlaxcala","municipality":"Panotla","setelement":"Primero"},{"postalCode":"90140","state":"Tlaxcala","municipality":"Panotla","setelement":"Segundo"},{"postalCode":"90140","state":"Tlaxcala","municipality":"Panotla","setelement":"Tercero"},{"postalCode":"90140","state":"Tlaxcala","municipality":"Panotla","setelement":"Cuarto"},{"postalCode":"90140","state":"Tlaxcala","municipality":"Panotla","setelement":"Quinto"},{"postalCode":"90140","state":"Tlaxcala","municipality":"Panotla","setelement":"Santa Elena"},{"postalCode":"90140","state":"Tlaxcala","municipality":"Panotla","setelement":"Militar"},{"postalCode":"90140","state":"Tlaxcala","municipality":"Panotla","setelement":"Zona Militar"},{"postalCode":"90140","state":"Tlaxcala","municipality":"Panotla","setelement":"La Virgen"},{"postalCode":"90145","state":"Tlaxcala","municipality":"Panotla","setelement":"Santa Cruz Techachalco"},{"postalCode":"90147","state":"Tlaxcala","municipality":"Panotla","setelement":"San Jorge Tezoquipan"},{"postalCode":"90150","state":"Tlaxcala","municipality":"Panotla","setelement":"Emiliano Zapata"},{"postalCode":"90150","state":"Tlaxcala","municipality":"Panotla","setelement":"Las Ánimas"},{"postalCode":"90151","state":"Tlaxcala","municipality":"Panotla","setelement":"San Ambrosio Texantla"},{"postalCode":"90152","state":"Tlaxcala","municipality":"Panotla","setelement":"Jesús Acatitla"},{"postalCode":"90155","state":"Tlaxcala","municipality":"Panotla","setelement":"Santa Catalina Apatlahco"},{"postalCode":"90155","state":"Tlaxcala","municipality":"Panotla","setelement":"San Francisco Temetzontla"},{"postalCode":"90156","state":"Tlaxcala","municipality":"Panotla","setelement":"Tlachco"},{"postalCode":"90156","state":"Tlaxcala","municipality":"Panotla","setelement":"Cuapantla"},{"postalCode":"90156","state":"Tlaxcala","municipality":"Panotla","setelement":"Tezitla"},{"postalCode":"90156","state":"Tlaxcala","municipality":"Panotla","setelement":"Texcacoac"},{"postalCode":"90160","state":"Tlaxcala","municipality":"Totolac","setelement":"Acxotla del Río"},{"postalCode":"90160","state":"Tlaxcala","municipality":"Totolac","setelement":"Los Reyes Quiahuixtlán"},{"postalCode":"90160","state":"Tlaxcala","municipality":"Totolac","setelement":"San Juan Totolac"},{"postalCode":"90160","state":"Tlaxcala","municipality":"Totolac","setelement":"San Miguel Tlamahuco"},{"postalCode":"90160","state":"Tlaxcala","municipality":"Totolac","setelement":"Villa Riverena"},{"postalCode":"90163","state":"Tlaxcala","municipality":"Totolac","setelement":"Santiago Tepeticpac"},{"postalCode":"90163","state":"Tlaxcala","municipality":"Totolac","setelement":"Lomas del Sol"},{"postalCode":"90163","state":"Tlaxcala","municipality":"Totolac","setelement":"San Marcos I"},{"postalCode":"90163","state":"Tlaxcala","municipality":"Totolac","setelement":"San Marcos II"},{"postalCode":"90163","state":"Tlaxcala","municipality":"Totolac","setelement":"Tepectipac"},{"postalCode":"90163","state":"Tlaxcala","municipality":"Totolac","setelement":"San Marcos Tepeticpac"},{"postalCode":"90164","state":"Tlaxcala","municipality":"Totolac","setelement":"Zaragoza"},{"postalCode":"90164","state":"Tlaxcala","municipality":"Totolac","setelement":"Ejido Totolac"},{"postalCode":"90164","state":"Tlaxcala","municipality":"Totolac","setelement":"Eucaliptos"},{"postalCode":"90165","state":"Tlaxcala","municipality":"Totolac","setelement":"San Francisco Ocotelulco"},{"postalCode":"90166","state":"Tlaxcala","municipality":"Totolac","setelement":"La Trinidad Chimalpa"},{"postalCode":"90166","state":"Tlaxcala","municipality":"Totolac","setelement":"Chamizal"},{"postalCode":"90168","state":"Tlaxcala","municipality":"Totolac","setelement":"La Candelaria Teotlalpan"},{"postalCode":"90168","state":"Tlaxcala","municipality":"Totolac","setelement":"El Bosque"},{"postalCode":"90170","state":"Tlaxcala","municipality":"Totolac","setelement":"Cerro del Metecatzi"},{"postalCode":"90180","state":"Tlaxcala","municipality":"Tepeyanco","setelement":"San Cosme Atlamaxac"},{"postalCode":"90180","state":"Tlaxcala","municipality":"Tepeyanco","setelement":"Tepeyanco"},{"postalCode":"90180","state":"Tlaxcala","municipality":"Tepeyanco","setelement":"Santiago Tlacochcalco"},{"postalCode":"90180","state":"Tlaxcala","municipality":"Tepeyanco","setelement":"San Pedro Xalcaltzinco"},{"postalCode":"90180","state":"Tlaxcala","municipality":"Tepeyanco","setelement":"Guerrero"},{"postalCode":"90180","state":"Tlaxcala","municipality":"Tepeyanco","setelement":"Las Águilas"},{"postalCode":"90182","state":"Tlaxcala","municipality":"Tepeyanco","setelement":"La Aurora"},{"postalCode":"90183","state":"Tlaxcala","municipality":"Tepeyanco","setelement":"Antorcha Campesina"},{"postalCode":"90183","state":"Tlaxcala","municipality":"Tepeyanco","setelement":"Gerardo Franco"},{"postalCode":"90193","state":"Tlaxcala","municipality":"Santa Isabel Xiloxoxtla","setelement":"Villas de Santa Isabel"},{"postalCode":"90193","state":"Tlaxcala","municipality":"Santa Isabel Xiloxoxtla","setelement":"Contla"},{"postalCode":"90193","state":"Tlaxcala","municipality":"Santa Isabel Xiloxoxtla","setelement":"Teotitla"},{"postalCode":"90193","state":"Tlaxcala","municipality":"Santa Isabel Xiloxoxtla","setelement":"Chimalpa"},{"postalCode":"90193","state":"Tlaxcala","municipality":"Santa Isabel Xiloxoxtla","setelement":"Quiahuixtla Norte"},{"postalCode":"90193","state":"Tlaxcala","municipality":"Santa Isabel Xiloxoxtla","setelement":"INFONAVIT 5 de Mayo"},{"postalCode":"90194","state":"Tlaxcala","municipality":"Santa Isabel Xiloxoxtla","setelement":"Parque Industrial Xiloxoxtla"},{"postalCode":"90194","state":"Tlaxcala","municipality":"Santa Isabel Xiloxoxtla","setelement":"Quiahuixtla Sur"},{"postalCode":"90194","state":"Tlaxcala","municipality":"Santa Isabel Xiloxoxtla","setelement":"Culhuaca"},{"postalCode":"90194","state":"Tlaxcala","municipality":"Santa Isabel Xiloxoxtla","setelement":"Independencia"},{"postalCode":"90195","state":"Tlaxcala","municipality":"San Juan Huactzinco","setelement":"San Juan Huactzinco"},{"postalCode":"90195","state":"Tlaxcala","municipality":"San Juan Huactzinco","setelement":"Las Cruces"},{"postalCode":"90200","state":"Tlaxcala","municipality":"Calpulalpan","setelement":"Calpulalpan Centro"},{"postalCode":"90202","state":"Tlaxcala","municipality":"Calpulalpan","setelement":"Xahuanxolco"},{"postalCode":"90202","state":"Tlaxcala","municipality":"Calpulalpan","setelement":"San Rafael"},{"postalCode":"90202","state":"Tlaxcala","municipality":"Calpulalpan","setelement":"La Cañada"},{"postalCode":"90203","state":"Tlaxcala","municipality":"Calpulalpan","setelement":"El Palmar"},{"postalCode":"90203","state":"Tlaxcala","municipality":"Calpulalpan","setelement":"San Pedro"},{"postalCode":"90203","state":"Tlaxcala","municipality":"Calpulalpan","setelement":"La Rosa"},{"postalCode":"90203","state":"Tlaxcala","municipality":"Calpulalpan","setelement":"Calpulli"},{"postalCode":"90203","state":"Tlaxcala","municipality":"Calpulalpan","setelement":"INFONAVIT"},{"postalCode":"90203","state":"Tlaxcala","municipality":"Calpulalpan","setelement":"Trabajadores Federados"},{"postalCode":"90203","state":"Tlaxcala","municipality":"Calpulalpan","setelement":"Europa"},{"postalCode":"90203","state":"Tlaxcala","municipality":"Calpulalpan","setelement":"Argos"},{"postalCode":"90204","state":"Tlaxcala","municipality":"Calpulalpan","setelement":"Villas del Sur"},{"postalCode":"90204","state":"Tlaxcala","municipality":"Calpulalpan","setelement":"El Mirador (Las Conchitas)"},{"postalCode":"90204","state":"Tlaxcala","municipality":"Calpulalpan","setelement":"La Nopalera"},{"postalCode":"90204","state":"Tlaxcala","municipality":"Calpulalpan","setelement":"Loma Bonita"},{"postalCode":"90204","state":"Tlaxcala","municipality":"Calpulalpan","setelement":"Esmeralda"},{"postalCode":"90205","state":"Tlaxcala","municipality":"Calpulalpan","setelement":"La Herradura (El Calvario)"},{"postalCode":"90205","state":"Tlaxcala","municipality":"Calpulalpan","setelement":"Arboledas"},{"postalCode":"90205","state":"Tlaxcala","municipality":"Calpulalpan","setelement":"Los Volcanes"},{"postalCode":"90205","state":"Tlaxcala","municipality":"Calpulalpan","setelement":"Pocitos"},{"postalCode":"90205","state":"Tlaxcala","municipality":"Calpulalpan","setelement":"San Antonio Calpulalpan"},{"postalCode":"90207","state":"Tlaxcala","municipality":"Calpulalpan","setelement":"Santa Cecilia"},{"postalCode":"90207","state":"Tlaxcala","municipality":"Calpulalpan","setelement":"Francisco Sarabia"},{"postalCode":"90207","state":"Tlaxcala","municipality":"Calpulalpan","setelement":"Salvador Guarneros"},{"postalCode":"90208","state":"Tlaxcala","municipality":"Calpulalpan","setelement":"El Refugio"},{"postalCode":"90208","state":"Tlaxcala","municipality":"Calpulalpan","setelement":"Alfonso Espejel"},{"postalCode":"90208","state":"Tlaxcala","municipality":"Calpulalpan","setelement":"Belén"},{"postalCode":"90208","state":"Tlaxcala","municipality":"Calpulalpan","setelement":"Nazaret"},{"postalCode":"90208","state":"Tlaxcala","municipality":"Calpulalpan","setelement":"Independencia"},{"postalCode":"90210","state":"Tlaxcala","municipality":"Calpulalpan","setelement":"San Mateo Aticpac"},{"postalCode":"90210","state":"Tlaxcala","municipality":"Calpulalpan","setelement":"Amantla"},{"postalCode":"90210","state":"Tlaxcala","municipality":"Calpulalpan","setelement":"San Benigno"},{"postalCode":"90213","state":"Tlaxcala","municipality":"Calpulalpan","setelement":"Las Palomas"},{"postalCode":"90213","state":"Tlaxcala","municipality":"Calpulalpan","setelement":"San Miguel"},{"postalCode":"90213","state":"Tlaxcala","municipality":"Calpulalpan","setelement":"Los Pinos"},{"postalCode":"90214","state":"Tlaxcala","municipality":"Calpulalpan","setelement":"El Caracol"},{"postalCode":"90218","state":"Tlaxcala","municipality":"Calpulalpan","setelement":"San Vicente"},{"postalCode":"90218","state":"Tlaxcala","municipality":"Calpulalpan","setelement":"Marcelino Cruz"},{"postalCode":"90218","state":"Tlaxcala","municipality":"Calpulalpan","setelement":"Las Auras"},{"postalCode":"90218","state":"Tlaxcala","municipality":"Calpulalpan","setelement":"El Piñón"},{"postalCode":"90220","state":"Tlaxcala","municipality":"Calpulalpan","setelement":"La Soledad"},{"postalCode":"90220","state":"Tlaxcala","municipality":"Calpulalpan","setelement":"Mazapa"},{"postalCode":"90220","state":"Tlaxcala","municipality":"Calpulalpan","setelement":"Santa Cruz"},{"postalCode":"90220","state":"Tlaxcala","municipality":"Calpulalpan","setelement":"Santa Teresa"},{"postalCode":"90220","state":"Tlaxcala","municipality":"Calpulalpan","setelement":"La Palma"},{"postalCode":"90220","state":"Tlaxcala","municipality":"Calpulalpan","setelement":"Santa Isabel Mixtitlán"},{"postalCode":"90220","state":"Tlaxcala","municipality":"Calpulalpan","setelement":"San Francisco"},{"postalCode":"90220","state":"Tlaxcala","municipality":"Calpulalpan","setelement":"La Ocotera"},{"postalCode":"90220","state":"Tlaxcala","municipality":"Calpulalpan","setelement":"Jacarandas"},{"postalCode":"90220","state":"Tlaxcala","municipality":"Calpulalpan","setelement":"El Cacalote"},{"postalCode":"90220","state":"Tlaxcala","municipality":"Calpulalpan","setelement":"Monte de San Agustín"},{"postalCode":"90220","state":"Tlaxcala","municipality":"Calpulalpan","setelement":"Hermanos García"},{"postalCode":"90220","state":"Tlaxcala","municipality":"Calpulalpan","setelement":"Loma de San Agustín"},{"postalCode":"90220","state":"Tlaxcala","municipality":"Calpulalpan","setelement":"Pacheco (De la Rosa)"},{"postalCode":"90220","state":"Tlaxcala","municipality":"Calpulalpan","setelement":"Analco Dos"},{"postalCode":"90220","state":"Tlaxcala","municipality":"Calpulalpan","setelement":"Ángel Pelcastre"},{"postalCode":"90222","state":"Tlaxcala","municipality":"Calpulalpan","setelement":"San Felipe Sultepec"},{"postalCode":"90222","state":"Tlaxcala","municipality":"Calpulalpan","setelement":"Los Tres Hermanos"},{"postalCode":"90222","state":"Tlaxcala","municipality":"Calpulalpan","setelement":"La Quebradora"},{"postalCode":"90222","state":"Tlaxcala","municipality":"Calpulalpan","setelement":"Los Mogotes"},{"postalCode":"90224","state":"Tlaxcala","municipality":"Calpulalpan","setelement":"San Marcos Guaquilpan"},{"postalCode":"90224","state":"Tlaxcala","municipality":"Calpulalpan","setelement":"Santiago Cuaula"},{"postalCode":"90224","state":"Tlaxcala","municipality":"Calpulalpan","setelement":"San Cristóbal Zacacalco"},{"postalCode":"90224","state":"Tlaxcala","municipality":"Calpulalpan","setelement":"Santo Domingo Tequixtla"},{"postalCode":"90224","state":"Tlaxcala","municipality":"Calpulalpan","setelement":"La Venta"},{"postalCode":"90224","state":"Tlaxcala","municipality":"Calpulalpan","setelement":"El Rosario"},{"postalCode":"90224","state":"Tlaxcala","municipality":"Calpulalpan","setelement":"Los Compadres"},{"postalCode":"90224","state":"Tlaxcala","municipality":"Calpulalpan","setelement":"Barranca del Tizar"},{"postalCode":"90224","state":"Tlaxcala","municipality":"Calpulalpan","setelement":"Puente del Ocomique"},{"postalCode":"90225","state":"Tlaxcala","municipality":"Calpulalpan","setelement":"Coesillos"},{"postalCode":"90225","state":"Tlaxcala","municipality":"Calpulalpan","setelement":"San Bartolomé del Monte"},{"postalCode":"90225","state":"Tlaxcala","municipality":"Calpulalpan","setelement":"Rodolfo Ávila"},{"postalCode":"90225","state":"Tlaxcala","municipality":"Calpulalpan","setelement":"San Rodrigo"},{"postalCode":"90225","state":"Tlaxcala","municipality":"Calpulalpan","setelement":"Los Capulines"},{"postalCode":"90225","state":"Tlaxcala","municipality":"Calpulalpan","setelement":"Los Palacios"},{"postalCode":"90225","state":"Tlaxcala","municipality":"Calpulalpan","setelement":"San Isidro"},{"postalCode":"90225","state":"Tlaxcala","municipality":"Calpulalpan","setelement":"Los Pinos"},{"postalCode":"90225","state":"Tlaxcala","municipality":"Calpulalpan","setelement":"San Isidro"},{"postalCode":"90225","state":"Tlaxcala","municipality":"Calpulalpan","setelement":"Del Venado"},{"postalCode":"90225","state":"Tlaxcala","municipality":"Calpulalpan","setelement":"Analco (Jorge López)"},{"postalCode":"90225","state":"Tlaxcala","municipality":"Calpulalpan","setelement":"La Blanca"},{"postalCode":"90225","state":"Tlaxcala","municipality":"Calpulalpan","setelement":"Las Dalias"},{"postalCode":"90226","state":"Tlaxcala","municipality":"Calpulalpan","setelement":"Finca Guadalupe Velázquez"},{"postalCode":"90226","state":"Tlaxcala","municipality":"Calpulalpan","setelement":"San Juan Temazcales"},{"postalCode":"90226","state":"Tlaxcala","municipality":"Calpulalpan","setelement":"San José"},{"postalCode":"90226","state":"Tlaxcala","municipality":"Calpulalpan","setelement":"El Carmen"},{"postalCode":"90226","state":"Tlaxcala","municipality":"Calpulalpan","setelement":"Zoquiapan"},{"postalCode":"90226","state":"Tlaxcala","municipality":"Calpulalpan","setelement":"Gustavo Díaz Ordaz"},{"postalCode":"90226","state":"Tlaxcala","municipality":"Calpulalpan","setelement":"Tlazalán"},{"postalCode":"90226","state":"Tlaxcala","municipality":"Calpulalpan","setelement":"El Padrino"},{"postalCode":"90226","state":"Tlaxcala","municipality":"Calpulalpan","setelement":"El Triángulo"},{"postalCode":"90226","state":"Tlaxcala","municipality":"Calpulalpan","setelement":"San José (Los Hornos)"},{"postalCode":"90230","state":"Tlaxcala","municipality":"Sanctórum de Lázaro Cárdenas","setelement":"Sanctórum"},{"postalCode":"90231","state":"Tlaxcala","municipality":"Sanctórum de Lázaro Cárdenas","setelement":"Francisco Villa"},{"postalCode":"90233","state":"Tlaxcala","municipality":"Sanctórum de Lázaro Cárdenas","setelement":"San Nicolás el Grande"},{"postalCode":"90233","state":"Tlaxcala","municipality":"Sanctórum de Lázaro Cárdenas","setelement":"Juan Antonio"},{"postalCode":"90233","state":"Tlaxcala","municipality":"Sanctórum de Lázaro Cárdenas","setelement":"NCP Álvaro Obregón"},{"postalCode":"90233","state":"Tlaxcala","municipality":"Sanctórum de Lázaro Cárdenas","setelement":"Pachuquilla"},{"postalCode":"90233","state":"Tlaxcala","municipality":"Sanctórum de Lázaro Cárdenas","setelement":"San Nicolás (Farfán)"},{"postalCode":"90234","state":"Tlaxcala","municipality":"Sanctórum de Lázaro Cárdenas","setelement":"Estación Contadero"},{"postalCode":"90234","state":"Tlaxcala","municipality":"Sanctórum de Lázaro Cárdenas","setelement":"Doña Evelia (Los Alpinos)"},{"postalCode":"90234","state":"Tlaxcala","municipality":"Sanctórum de Lázaro Cárdenas","setelement":"Esquibajas"},{"postalCode":"90234","state":"Tlaxcala","municipality":"Sanctórum de Lázaro Cárdenas","setelement":"Julio Roldán"},{"postalCode":"90234","state":"Tlaxcala","municipality":"Sanctórum de Lázaro Cárdenas","setelement":"La Garita"},{"postalCode":"90234","state":"Tlaxcala","municipality":"Sanctórum de Lázaro Cárdenas","setelement":"La Presa de Pozuelos"},{"postalCode":"90234","state":"Tlaxcala","municipality":"Sanctórum de Lázaro Cárdenas","setelement":"La Providencia"},{"postalCode":"90234","state":"Tlaxcala","municipality":"Sanctórum de Lázaro Cárdenas","setelement":"Las Palomas"},{"postalCode":"90234","state":"Tlaxcala","municipality":"Sanctórum de Lázaro Cárdenas","setelement":"Los Alpinos"},{"postalCode":"90234","state":"Tlaxcala","municipality":"Sanctórum de Lázaro Cárdenas","setelement":"Guadalupe"},{"postalCode":"90234","state":"Tlaxcala","municipality":"Sanctórum de Lázaro Cárdenas","setelement":"San Leonardo Arroyo"},{"postalCode":"90234","state":"Tlaxcala","municipality":"Sanctórum de Lázaro Cárdenas","setelement":"Santa Cruz"},{"postalCode":"90235","state":"Tlaxcala","municipality":"Benito Juárez","setelement":"Benito Juárez"},{"postalCode":"90235","state":"Tlaxcala","municipality":"Benito Juárez","setelement":"Ampliación Progreso"},{"postalCode":"90240","state":"Tlaxcala","municipality":"Hueyotlipan","setelement":"San Ildefonso Hueyotlipan"},{"postalCode":"90240","state":"Tlaxcala","municipality":"Hueyotlipan","setelement":"Los Hornitos"},{"postalCode":"90240","state":"Tlaxcala","municipality":"Hueyotlipan","setelement":"La Cañada"},{"postalCode":"90241","state":"Tlaxcala","municipality":"Hueyotlipan","setelement":"San Simeon Xipetzinco"},{"postalCode":"90243","state":"Tlaxcala","municipality":"Hueyotlipan","setelement":"San Andrés Cuaximala"},{"postalCode":"90243","state":"Tlaxcala","municipality":"Hueyotlipan","setelement":"El Carmen (Las Carrozas)"},{"postalCode":"90243","state":"Tlaxcala","municipality":"Hueyotlipan","setelement":"Agua Limpia"},{"postalCode":"90244","state":"Tlaxcala","municipality":"Hueyotlipan","setelement":"Santa María Ixcontla"},{"postalCode":"90244","state":"Tlaxcala","municipality":"Hueyotlipan","setelement":"Santiago Tlalpan"},{"postalCode":"90244","state":"Tlaxcala","municipality":"Hueyotlipan","setelement":"Las Tortolas"},{"postalCode":"90244","state":"Tlaxcala","municipality":"Hueyotlipan","setelement":"Potrero Grande"},{"postalCode":"90244","state":"Tlaxcala","municipality":"Hueyotlipan","setelement":"San Manuel Tlalpan"},{"postalCode":"90245","state":"Tlaxcala","municipality":"Hueyotlipan","setelement":"San Diego Recoba"},{"postalCode":"90245","state":"Tlaxcala","municipality":"Hueyotlipan","setelement":"El Jardín"},{"postalCode":"90245","state":"Tlaxcala","municipality":"Hueyotlipan","setelement":"El Resumidero"},{"postalCode":"90245","state":"Tlaxcala","municipality":"Hueyotlipan","setelement":"La Ardilla"},{"postalCode":"90245","state":"Tlaxcala","municipality":"Hueyotlipan","setelement":"Los Caifanes (La Purísima)"},{"postalCode":"90245","state":"Tlaxcala","municipality":"Hueyotlipan","setelement":"Playa Azul"},{"postalCode":"90246","state":"Tlaxcala","municipality":"Hueyotlipan","setelement":"Ignacio Zaragoza"},{"postalCode":"90246","state":"Tlaxcala","municipality":"Hueyotlipan","setelement":"Adolfo López Mateos"},{"postalCode":"90246","state":"Tlaxcala","municipality":"Hueyotlipan","setelement":"Emilio Sánchez Piedras"},{"postalCode":"90246","state":"Tlaxcala","municipality":"Hueyotlipan","setelement":"Hacienda San Blas Cuaxomulco"},{"postalCode":"90247","state":"Tlaxcala","municipality":"Hueyotlipan","setelement":"La Cruz Techalote"},{"postalCode":"90247","state":"Tlaxcala","municipality":"Hueyotlipan","setelement":"San Lorenzo Techalote"},{"postalCode":"90247","state":"Tlaxcala","municipality":"Hueyotlipan","setelement":"Hacienda San Fernando"},{"postalCode":"90247","state":"Tlaxcala","municipality":"Hueyotlipan","setelement":"Loma Bonita"},{"postalCode":"90247","state":"Tlaxcala","municipality":"Hueyotlipan","setelement":"NCP San Antonio Techalote"},{"postalCode":"90247","state":"Tlaxcala","municipality":"Hueyotlipan","setelement":"El Pilar"},{"postalCode":"90247","state":"Tlaxcala","municipality":"Hueyotlipan","setelement":"La Purísima"},{"postalCode":"90247","state":"Tlaxcala","municipality":"Hueyotlipan","setelement":"Santo Tomás (El Nopal)"},{"postalCode":"90247","state":"Tlaxcala","municipality":"Hueyotlipan","setelement":"San Antonio Techalote"},{"postalCode":"90247","state":"Tlaxcala","municipality":"Hueyotlipan","setelement":"San Fernando"},{"postalCode":"90247","state":"Tlaxcala","municipality":"Hueyotlipan","setelement":"Santa Lucía"},{"postalCode":"90250","state":"Tlaxcala","municipality":"Tlaxco","setelement":"San José Atotonilco"},{"postalCode":"90250","state":"Tlaxcala","municipality":"Tlaxco","setelement":"José María Morelos Buenavista"},{"postalCode":"90250","state":"Tlaxcala","municipality":"Tlaxco","setelement":"Tlaxco"},{"postalCode":"90250","state":"Tlaxcala","municipality":"Tlaxco","setelement":"Tepatlaxco"},{"postalCode":"90250","state":"Tlaxcala","municipality":"Tlaxco","setelement":"San Juan"},{"postalCode":"90250","state":"Tlaxcala","municipality":"Tlaxco","setelement":"Ejidal"},{"postalCode":"90250","state":"Tlaxcala","municipality":"Tlaxco","setelement":"Iturbide"},{"postalCode":"90250","state":"Tlaxcala","municipality":"Tlaxco","setelement":"Postal"},{"postalCode":"90250","state":"Tlaxcala","municipality":"Tlaxco","setelement":"Las Ánimas"},{"postalCode":"90250","state":"Tlaxcala","municipality":"Tlaxco","setelement":"Xomitla"},{"postalCode":"90251","state":"Tlaxcala","municipality":"Tlaxco","setelement":"San Antonio Huexotitla"},{"postalCode":"90251","state":"Tlaxcala","municipality":"Tlaxco","setelement":"Guadalupe Huexotitla"},{"postalCode":"90251","state":"Tlaxcala","municipality":"Tlaxco","setelement":"Xochuca"},{"postalCode":"90251","state":"Tlaxcala","municipality":"Tlaxco","setelement":"El Nacimiento"},{"postalCode":"90251","state":"Tlaxcala","municipality":"Tlaxco","setelement":"La Candelaria"},{"postalCode":"90251","state":"Tlaxcala","municipality":"Tlaxco","setelement":"NCPE la Herradura"},{"postalCode":"90253","state":"Tlaxcala","municipality":"Tlaxco","setelement":"Vista Hermosa"},{"postalCode":"90255","state":"Tlaxcala","municipality":"Tlaxco","setelement":"Acopinalco del Peñón"},{"postalCode":"90255","state":"Tlaxcala","municipality":"Tlaxco","setelement":"Grande"},{"postalCode":"90255","state":"Tlaxcala","municipality":"Tlaxco","setelement":"Chico"},{"postalCode":"90255","state":"Tlaxcala","municipality":"Tlaxco","setelement":"El Sabinal"},{"postalCode":"90255","state":"Tlaxcala","municipality":"Tlaxco","setelement":"Santiago Tlatepoxco"},{"postalCode":"90256","state":"Tlaxcala","municipality":"Tlaxco","setelement":"El Rosario"},{"postalCode":"90257","state":"Tlaxcala","municipality":"Tlaxco","setelement":"San Pedro la Cueva"},{"postalCode":"90257","state":"Tlaxcala","municipality":"Tlaxco","setelement":"La Pedregosa"},{"postalCode":"90257","state":"Tlaxcala","municipality":"Tlaxco","setelement":"El Tintero"},{"postalCode":"90257","state":"Tlaxcala","municipality":"Tlaxco","setelement":"El Limón"},{"postalCode":"90257","state":"Tlaxcala","municipality":"Tlaxco","setelement":"El Mirador"},{"postalCode":"90257","state":"Tlaxcala","municipality":"Tlaxco","setelement":"El Paraje"},{"postalCode":"90257","state":"Tlaxcala","municipality":"Tlaxco","setelement":"Clemente Muñoz"},{"postalCode":"90257","state":"Tlaxcala","municipality":"Tlaxco","setelement":"El Sotol"},{"postalCode":"90257","state":"Tlaxcala","municipality":"Tlaxco","setelement":"Juan Arroyo (San Isidro)"},{"postalCode":"90257","state":"Tlaxcala","municipality":"Tlaxco","setelement":"Tablón de Guadalupe Payuca"},{"postalCode":"90257","state":"Tlaxcala","municipality":"Tlaxco","setelement":"San José el Escombro"},{"postalCode":"90257","state":"Tlaxcala","municipality":"Tlaxco","setelement":"El Catorce"},{"postalCode":"90257","state":"Tlaxcala","municipality":"Tlaxco","setelement":"Diego Muñoz Camargo"},{"postalCode":"90257","state":"Tlaxcala","municipality":"Tlaxco","setelement":"Piedra Blanca"},{"postalCode":"90257","state":"Tlaxcala","municipality":"Tlaxco","setelement":"La Herradura"},{"postalCode":"90257","state":"Tlaxcala","municipality":"Tlaxco","setelement":"Los Serranos"},{"postalCode":"90258","state":"Tlaxcala","municipality":"Tlaxco","setelement":"Río Blanco (El Doce)"},{"postalCode":"90258","state":"Tlaxcala","municipality":"Tlaxco","setelement":"La Cieneguilla"},{"postalCode":"90258","state":"Tlaxcala","municipality":"Tlaxco","setelement":"Al final de la Senda"},{"postalCode":"90258","state":"Tlaxcala","municipality":"Tlaxco","setelement":"Juan Antonio Burle Lomelí"},{"postalCode":"90258","state":"Tlaxcala","municipality":"Tlaxco","setelement":"El Capulín"},{"postalCode":"90258","state":"Tlaxcala","municipality":"Tlaxco","setelement":"La Troje"},{"postalCode":"90258","state":"Tlaxcala","municipality":"Tlaxco","setelement":"La Paz"},{"postalCode":"90258","state":"Tlaxcala","municipality":"Tlaxco","setelement":"Llanos de Teopa (Valle Escondido)"},{"postalCode":"90258","state":"Tlaxcala","municipality":"Tlaxco","setelement":"Kilómetro 31"},{"postalCode":"90259","state":"Tlaxcala","municipality":"Tlaxco","setelement":"Nuevo"},{"postalCode":"90259","state":"Tlaxcala","municipality":"Tlaxco","setelement":"Corralillos"},{"postalCode":"90259","state":"Tlaxcala","municipality":"Tlaxco","setelement":"Los Panchos"},{"postalCode":"90260","state":"Tlaxcala","municipality":"Tlaxco","setelement":"La Magdalena Soltepec"},{"postalCode":"90260","state":"Tlaxcala","municipality":"Tlaxco","setelement":"Lagunilla"},{"postalCode":"90260","state":"Tlaxcala","municipality":"Tlaxco","setelement":"Soltepec"},{"postalCode":"90261","state":"Tlaxcala","municipality":"Tlaxco","setelement":"Ex-Hacienda San Miguel Mimiahuapan"},{"postalCode":"90261","state":"Tlaxcala","municipality":"Tlaxco","setelement":"Las Vigas"},{"postalCode":"90261","state":"Tlaxcala","municipality":"Tlaxco","setelement":"Profesor Graciano Sánchez"},{"postalCode":"90261","state":"Tlaxcala","municipality":"Tlaxco","setelement":"El Desierto"},{"postalCode":"90261","state":"Tlaxcala","municipality":"Tlaxco","setelement":"Cinegético Cruz Verde"},{"postalCode":"90262","state":"Tlaxcala","municipality":"Tlaxco","setelement":"Mariano Matamoros"},{"postalCode":"90262","state":"Tlaxcala","municipality":"Tlaxco","setelement":"Mazaquiáhuac"},{"postalCode":"90263","state":"Tlaxcala","municipality":"Tlaxco","setelement":"Casa Blanca"},{"postalCode":"90264","state":"Tlaxcala","municipality":"Tlaxco","setelement":"Unión Ejidal Tierra y Libertad"},{"postalCode":"90264","state":"Tlaxcala","municipality":"Tlaxco","setelement":"Maguey Cenizo"},{"postalCode":"90264","state":"Tlaxcala","municipality":"Tlaxco","setelement":"Los Ranchitos (La Nopalera)"},{"postalCode":"90264","state":"Tlaxcala","municipality":"Tlaxco","setelement":"La Trasquila"},{"postalCode":"90265","state":"Tlaxcala","municipality":"Tlaxco","setelement":"San Lorenzo Soltepec"},{"postalCode":"90265","state":"Tlaxcala","municipality":"Tlaxco","setelement":"El Perpetuo Socorro"},{"postalCode":"90265","state":"Tlaxcala","municipality":"Tlaxco","setelement":"San Agustín"},{"postalCode":"90265","state":"Tlaxcala","municipality":"Tlaxco","setelement":"El Pato"},{"postalCode":"90265","state":"Tlaxcala","municipality":"Tlaxco","setelement":"El Santísimo"},{"postalCode":"90265","state":"Tlaxcala","municipality":"Tlaxco","setelement":"Ex-hacienda San Buenaventura"},{"postalCode":"90265","state":"Tlaxcala","municipality":"Tlaxco","setelement":"Santa María"},{"postalCode":"90265","state":"Tlaxcala","municipality":"Tlaxco","setelement":"Santa Inés"},{"postalCode":"90265","state":"Tlaxcala","municipality":"Tlaxco","setelement":"Santa Cruz"},{"postalCode":"90266","state":"Tlaxcala","municipality":"Tlaxco","setelement":"La Providencia"},{"postalCode":"90266","state":"Tlaxcala","municipality":"Tlaxco","setelement":"San Francisco Quintanilla"},{"postalCode":"90266","state":"Tlaxcala","municipality":"Tlaxco","setelement":"Alta Luz"},{"postalCode":"90266","state":"Tlaxcala","municipality":"Tlaxco","setelement":"San Diego Quintanilla"},{"postalCode":"90266","state":"Tlaxcala","municipality":"Tlaxco","setelement":"El Fresno"},{"postalCode":"90267","state":"Tlaxcala","municipality":"Tlaxco","setelement":"Las Maravillas"},{"postalCode":"90267","state":"Tlaxcala","municipality":"Tlaxco","setelement":"La Mesa del Cielo"},{"postalCode":"90267","state":"Tlaxcala","municipality":"Tlaxco","setelement":"San José Tepeyahualco"},{"postalCode":"90270","state":"Tlaxcala","municipality":"Tlaxco","setelement":"Tecomalucan"},{"postalCode":"90271","state":"Tlaxcala","municipality":"Tlaxco","setelement":"Máximo Rojas Xalóstoc"},{"postalCode":"90271","state":"Tlaxcala","municipality":"Tlaxco","setelement":"La Vega"},{"postalCode":"90273","state":"Tlaxcala","municipality":"Tlaxco","setelement":"El Convento"},{"postalCode":"90273","state":"Tlaxcala","municipality":"Tlaxco","setelement":"El Paraíso"},{"postalCode":"90273","state":"Tlaxcala","municipality":"Tlaxco","setelement":"Conzoquio"},{"postalCode":"90273","state":"Tlaxcala","municipality":"Tlaxco","setelement":"Ex-hacienda San Pedro Metla"},{"postalCode":"90273","state":"Tlaxcala","municipality":"Tlaxco","setelement":"Santa Rosa de Lima"},{"postalCode":"90273","state":"Tlaxcala","municipality":"Tlaxco","setelement":"El Chupadero"},{"postalCode":"90274","state":"Tlaxcala","municipality":"Tlaxco","setelement":"La Palma"},{"postalCode":"90274","state":"Tlaxcala","municipality":"Tlaxco","setelement":"Las Arandelas"},{"postalCode":"90274","state":"Tlaxcala","municipality":"Tlaxco","setelement":"El Mirador"},{"postalCode":"90274","state":"Tlaxcala","municipality":"Tlaxco","setelement":"La Lobera"},{"postalCode":"90274","state":"Tlaxcala","municipality":"Tlaxco","setelement":"La Rosa"},{"postalCode":"90274","state":"Tlaxcala","municipality":"Tlaxco","setelement":"Los Capulines"},{"postalCode":"90274","state":"Tlaxcala","municipality":"Tlaxco","setelement":"Loma de Enmedio"},{"postalCode":"90274","state":"Tlaxcala","municipality":"Tlaxco","setelement":"Tetzitzilica"},{"postalCode":"90274","state":"Tlaxcala","municipality":"Tlaxco","setelement":"Los Charcos"},{"postalCode":"90274","state":"Tlaxcala","municipality":"Tlaxco","setelement":"La Ciénega"},{"postalCode":"90274","state":"Tlaxcala","municipality":"Tlaxco","setelement":"Las Palomas"},{"postalCode":"90274","state":"Tlaxcala","municipality":"Tlaxco","setelement":"El Calvario"},{"postalCode":"90275","state":"Tlaxcala","municipality":"Tlaxco","setelement":"Capilla de Tepeyahualco"},{"postalCode":"90275","state":"Tlaxcala","municipality":"Tlaxco","setelement":"Rancho Ojo de Agua"},{"postalCode":"90275","state":"Tlaxcala","municipality":"Tlaxco","setelement":"Las Mesas"},{"postalCode":"90276","state":"Tlaxcala","municipality":"Tlaxco","setelement":"El Potrero"},{"postalCode":"90276","state":"Tlaxcala","municipality":"Tlaxco","setelement":"El Potrero Mazayolo"},{"postalCode":"90276","state":"Tlaxcala","municipality":"Tlaxco","setelement":"El Llano"},{"postalCode":"90276","state":"Tlaxcala","municipality":"Tlaxco","setelement":"La Loma del Cortijo"},{"postalCode":"90276","state":"Tlaxcala","municipality":"Tlaxco","setelement":"Metla (Los Pinos)"},{"postalCode":"90276","state":"Tlaxcala","municipality":"Tlaxco","setelement":"Toltecapa"},{"postalCode":"90276","state":"Tlaxcala","municipality":"Tlaxco","setelement":"Tlaquexpa"},{"postalCode":"90276","state":"Tlaxcala","municipality":"Tlaxco","setelement":"La Pera"},{"postalCode":"90277","state":"Tlaxcala","municipality":"Tlaxco","setelement":"Ciudad Industrial Xicohténcatl III"},{"postalCode":"90277","state":"Tlaxcala","municipality":"Tlaxco","setelement":"Comisión Federal de Electricidad-La Martinica"},{"postalCode":"90277","state":"Tlaxcala","municipality":"Tlaxco","setelement":"La Tronconera"},{"postalCode":"90277","state":"Tlaxcala","municipality":"Tlaxco","setelement":"El Grullo"},{"postalCode":"90277","state":"Tlaxcala","municipality":"Tlaxco","setelement":"El Volador"},{"postalCode":"90277","state":"Tlaxcala","municipality":"Tlaxco","setelement":"Santa Fe"},{"postalCode":"90277","state":"Tlaxcala","municipality":"Tlaxco","setelement":"San Pablo el Mirador"},{"postalCode":"90277","state":"Tlaxcala","municipality":"Tlaxco","setelement":"Tierra Nueva"},{"postalCode":"90277","state":"Tlaxcala","municipality":"Tlaxco","setelement":"El Jardín"},{"postalCode":"90277","state":"Tlaxcala","municipality":"Tlaxco","setelement":"El Tecorral"},{"postalCode":"90277","state":"Tlaxcala","municipality":"Tlaxco","setelement":"Las Tórtolas"},{"postalCode":"90277","state":"Tlaxcala","municipality":"Tlaxco","setelement":"San Baltazar"},{"postalCode":"90277","state":"Tlaxcala","municipality":"Tlaxco","setelement":"El Mirador (Teresa Rivera)"},{"postalCode":"90277","state":"Tlaxcala","municipality":"Tlaxco","setelement":"La Loma del Jardín"},{"postalCode":"90278","state":"Tlaxcala","municipality":"Tlaxco","setelement":"Titichilco"},{"postalCode":"90278","state":"Tlaxcala","municipality":"Tlaxco","setelement":"San Antonio Chapultepec"},{"postalCode":"90278","state":"Tlaxcala","municipality":"Tlaxco","setelement":"Dos Barrancas"},{"postalCode":"90278","state":"Tlaxcala","municipality":"Tlaxco","setelement":"San Martín"},{"postalCode":"90278","state":"Tlaxcala","municipality":"Tlaxco","setelement":"Agua Escondida"},{"postalCode":"90278","state":"Tlaxcala","municipality":"Tlaxco","setelement":"Los Polos"},{"postalCode":"90278","state":"Tlaxcala","municipality":"Tlaxco","setelement":"Agua Escondida Zotoluca"},{"postalCode":"90278","state":"Tlaxcala","municipality":"Tlaxco","setelement":"Seco el Viejo"},{"postalCode":"90278","state":"Tlaxcala","municipality":"Tlaxco","setelement":"Los Laureles"},{"postalCode":"90278","state":"Tlaxcala","municipality":"Tlaxco","setelement":"Santa María Zotoluca"},{"postalCode":"90278","state":"Tlaxcala","municipality":"Tlaxco","setelement":"San José Atotonilco"},{"postalCode":"90278","state":"Tlaxcala","municipality":"Tlaxco","setelement":"Seco"},{"postalCode":"90278","state":"Tlaxcala","municipality":"Tlaxco","setelement":"Santa Cruz Rancho Seco"},{"postalCode":"90278","state":"Tlaxcala","municipality":"Tlaxco","setelement":"Campo David"},{"postalCode":"90280","state":"Tlaxcala","municipality":"Nanacamilpa de Mariano Arista","setelement":"Niños Héroes de Chapultepec"},{"postalCode":"90280","state":"Tlaxcala","municipality":"Nanacamilpa de Mariano Arista","setelement":"Domingo Arenas"},{"postalCode":"90280","state":"Tlaxcala","municipality":"Nanacamilpa de Mariano Arista","setelement":"Chapultepec"},{"postalCode":"90280","state":"Tlaxcala","municipality":"Nanacamilpa de Mariano Arista","setelement":"Francisco Villa"},{"postalCode":"90280","state":"Tlaxcala","municipality":"Nanacamilpa de Mariano Arista","setelement":"Obregón"},{"postalCode":"90280","state":"Tlaxcala","municipality":"Nanacamilpa de Mariano Arista","setelement":"INFONAVIT Mineros"},{"postalCode":"90280","state":"Tlaxcala","municipality":"Nanacamilpa de Mariano Arista","setelement":"Loma Bonita"},{"postalCode":"90280","state":"Tlaxcala","municipality":"Nanacamilpa de Mariano Arista","setelement":"Loreto"},{"postalCode":"90280","state":"Tlaxcala","municipality":"Nanacamilpa de Mariano Arista","setelement":"La Villa"},{"postalCode":"90283","state":"Tlaxcala","municipality":"Nanacamilpa de Mariano Arista","setelement":"Amaxac"},{"postalCode":"90283","state":"Tlaxcala","municipality":"Nanacamilpa de Mariano Arista","setelement":"La Candelaria"},{"postalCode":"90283","state":"Tlaxcala","municipality":"Nanacamilpa de Mariano Arista","setelement":"Los Delgadillo"},{"postalCode":"90283","state":"Tlaxcala","municipality":"Nanacamilpa de Mariano Arista","setelement":"Santos Lozano"},{"postalCode":"90283","state":"Tlaxcala","municipality":"Nanacamilpa de Mariano Arista","setelement":"José Eduardo Hernández Fernández"},{"postalCode":"90284","state":"Tlaxcala","municipality":"Nanacamilpa de Mariano Arista","setelement":"Ixtafiayuca"},{"postalCode":"90284","state":"Tlaxcala","municipality":"Nanacamilpa de Mariano Arista","setelement":"Domingo Arenas (La Calera)"},{"postalCode":"90284","state":"Tlaxcala","municipality":"Nanacamilpa de Mariano Arista","setelement":"Francisco I. Madero"},{"postalCode":"90284","state":"Tlaxcala","municipality":"Nanacamilpa de Mariano Arista","setelement":"Entronque Nanacamilpa"},{"postalCode":"90285","state":"Tlaxcala","municipality":"Nanacamilpa de Mariano Arista","setelement":"Mifive"},{"postalCode":"90285","state":"Tlaxcala","municipality":"Nanacamilpa de Mariano Arista","setelement":"Los Rosales"},{"postalCode":"90285","state":"Tlaxcala","municipality":"Nanacamilpa de Mariano Arista","setelement":"La Unión"},{"postalCode":"90285","state":"Tlaxcala","municipality":"Nanacamilpa de Mariano Arista","setelement":"Media Caballería"},{"postalCode":"90286","state":"Tlaxcala","municipality":"Nanacamilpa de Mariano Arista","setelement":"Constantino Zavala"},{"postalCode":"90286","state":"Tlaxcala","municipality":"Nanacamilpa de Mariano Arista","setelement":"Manuel Estrada"},{"postalCode":"90286","state":"Tlaxcala","municipality":"Nanacamilpa de Mariano Arista","setelement":"Tepuente"},{"postalCode":"90287","state":"Tlaxcala","municipality":"Nanacamilpa de Mariano Arista","setelement":"El Carmen"},{"postalCode":"90287","state":"Tlaxcala","municipality":"Nanacamilpa de Mariano Arista","setelement":"Agua Escondida"},{"postalCode":"90288","state":"Tlaxcala","municipality":"Nanacamilpa de Mariano Arista","setelement":"San Isidro"},{"postalCode":"90288","state":"Tlaxcala","municipality":"Nanacamilpa de Mariano Arista","setelement":"Miguel Lira y Ortega"},{"postalCode":"90288","state":"Tlaxcala","municipality":"Nanacamilpa de Mariano Arista","setelement":"San Felipe Hidalgo"},{"postalCode":"90290","state":"Tlaxcala","municipality":"Españita","setelement":"Españita"},{"postalCode":"90290","state":"Tlaxcala","municipality":"Españita","setelement":"El Carmen"},{"postalCode":"90290","state":"Tlaxcala","municipality":"Españita","setelement":"San Miguel"},{"postalCode":"90291","state":"Tlaxcala","municipality":"Españita","setelement":"San Juan Mitepec"},{"postalCode":"90292","state":"Tlaxcala","municipality":"Españita","setelement":"San Francisco Mitepec"},{"postalCode":"90292","state":"Tlaxcala","municipality":"Españita","setelement":"San Miguel Pipiyola"},{"postalCode":"90292","state":"Tlaxcala","municipality":"Españita","setelement":"San Pablo"},{"postalCode":"90293","state":"Tlaxcala","municipality":"Españita","setelement":"Álvaro Obregón"},{"postalCode":"90293","state":"Tlaxcala","municipality":"Españita","setelement":"San Agustín"},{"postalCode":"90293","state":"Tlaxcala","municipality":"Españita","setelement":"La Joya"},{"postalCode":"90293","state":"Tlaxcala","municipality":"Españita","setelement":"Francisco I. Madero el Viejo"},{"postalCode":"90293","state":"Tlaxcala","municipality":"Españita","setelement":"La Concepción"},{"postalCode":"90293","state":"Tlaxcala","municipality":"Españita","setelement":"Pablo García Sánchez (Rancho Tecuicuilco)"},{"postalCode":"90293","state":"Tlaxcala","municipality":"Españita","setelement":"Rancho Nuevo"},{"postalCode":"90293","state":"Tlaxcala","municipality":"Españita","setelement":"Lindavista"},{"postalCode":"90294","state":"Tlaxcala","municipality":"Españita","setelement":"Miguel Aldama"},{"postalCode":"90294","state":"Tlaxcala","municipality":"Españita","setelement":"La Soledad"},{"postalCode":"90294","state":"Tlaxcala","municipality":"Españita","setelement":"Las Pilas"},{"postalCode":"90294","state":"Tlaxcala","municipality":"Españita","setelement":"Guillén"},{"postalCode":"90295","state":"Tlaxcala","municipality":"Españita","setelement":"La Magdalena Cuextotitla"},{"postalCode":"90295","state":"Tlaxcala","municipality":"Españita","setelement":"Barrio de Torres"},{"postalCode":"90297","state":"Tlaxcala","municipality":"Españita","setelement":"Vicente Guerrero"},{"postalCode":"90297","state":"Tlaxcala","municipality":"Españita","setelement":"Lagunitas"},{"postalCode":"90297","state":"Tlaxcala","municipality":"Españita","setelement":"El Ocotal (Roque Sánchez)"},{"postalCode":"90297","state":"Tlaxcala","municipality":"Españita","setelement":"El Agua Santa (Las Tinas)"},{"postalCode":"90297","state":"Tlaxcala","municipality":"Españita","setelement":"El Calicanto"},{"postalCode":"90298","state":"Tlaxcala","municipality":"Españita","setelement":"La Constancia"},{"postalCode":"90298","state":"Tlaxcala","municipality":"Españita","setelement":"La Reforma"},{"postalCode":"90298","state":"Tlaxcala","municipality":"Españita","setelement":"La Valentina"},{"postalCode":"90298","state":"Tlaxcala","municipality":"Españita","setelement":"Los Capulines"},{"postalCode":"90298","state":"Tlaxcala","municipality":"Españita","setelement":"San Miguel el Piñón"},{"postalCode":"90298","state":"Tlaxcala","municipality":"Españita","setelement":"El Relicario"},{"postalCode":"90298","state":"Tlaxcala","municipality":"Españita","setelement":"Asilo de Anciano San Judas Tadeo"},{"postalCode":"90298","state":"Tlaxcala","municipality":"Españita","setelement":"El Potrero"},{"postalCode":"90298","state":"Tlaxcala","municipality":"Españita","setelement":"San José Bellavista"},{"postalCode":"90298","state":"Tlaxcala","municipality":"Españita","setelement":"San Miguel Tepalca"},{"postalCode":"90298","state":"Tlaxcala","municipality":"Españita","setelement":"El Capulín"},{"postalCode":"90298","state":"Tlaxcala","municipality":"Españita","setelement":"San Antonio"},{"postalCode":"90300","state":"Tlaxcala","municipality":"Apizaco","setelement":"Centro"},{"postalCode":"90319","state":"Tlaxcala","municipality":"Apizaco","setelement":"Rodan"},{"postalCode":"90320","state":"Tlaxcala","municipality":"Apizaco","setelement":"Granjas de Guadalupe"},{"postalCode":"90323","state":"Tlaxcala","municipality":"Apizaco","setelement":"Cerrito de Guadalupe"},{"postalCode":"90329","state":"Tlaxcala","municipality":"Apizaco","setelement":"Fuentes de Actipan"},{"postalCode":"90329","state":"Tlaxcala","municipality":"Apizaco","setelement":"Hogares Ferrocarrileros"},{"postalCode":"90329","state":"Tlaxcala","municipality":"Apizaco","setelement":"Hogares Ferrocarrileros 3"},{"postalCode":"90330","state":"Tlaxcala","municipality":"Apizaco","setelement":"Guadalupe"},{"postalCode":"90337","state":"Tlaxcala","municipality":"Apizaco","setelement":"San Martin de Porres"},{"postalCode":"90338","state":"Tlaxcala","municipality":"Apizaco","setelement":"Bellavista"},{"postalCode":"90338","state":"Tlaxcala","municipality":"Apizaco","setelement":"El Carmen"},{"postalCode":"90338","state":"Tlaxcala","municipality":"Apizaco","setelement":"San Diego Crom"},{"postalCode":"90339","state":"Tlaxcala","municipality":"Apizaco","setelement":"San Miguel"},{"postalCode":"90340","state":"Tlaxcala","municipality":"Apizaco","setelement":"Santa Rosa"},{"postalCode":"90341","state":"Tlaxcala","municipality":"Apizaco","setelement":"20 de Noviembre"},{"postalCode":"90342","state":"Tlaxcala","municipality":"Apizaco","setelement":"Ferrocarrilera"},{"postalCode":"90342","state":"Tlaxcala","municipality":"Apizaco","setelement":"Adolfo López Mateos"},{"postalCode":"90342","state":"Tlaxcala","municipality":"Apizaco","setelement":"Emilio Sánchez Piedras"},{"postalCode":"90347","state":"Tlaxcala","municipality":"Apizaco","setelement":"La Ciénega"},{"postalCode":"90350","state":"Tlaxcala","municipality":"Apizaco","setelement":"Buenos Aires"},{"postalCode":"90350","state":"Tlaxcala","municipality":"Apizaco","setelement":"INFONAVIT CTM"},{"postalCode":"90350","state":"Tlaxcala","municipality":"Apizaco","setelement":"INFONAVIT San Rafael Atlixtac"},{"postalCode":"90355","state":"Tlaxcala","municipality":"Apizaco","setelement":"Villa Santa Clara"},{"postalCode":"90355","state":"Tlaxcala","municipality":"Apizaco","setelement":"Villas del Monte"},{"postalCode":"90355","state":"Tlaxcala","municipality":"Apizaco","setelement":"Villas de Apizaco"},{"postalCode":"90355","state":"Tlaxcala","municipality":"Apizaco","setelement":"Villa Santa Anita"},{"postalCode":"90355","state":"Tlaxcala","municipality":"Apizaco","setelement":"Loma Paraíso"},{"postalCode":"90355","state":"Tlaxcala","municipality":"Apizaco","setelement":"FOVISSSTE Loma Verde"},{"postalCode":"90355","state":"Tlaxcala","municipality":"Apizaco","setelement":"INFONAVIT Loma Verde"},{"postalCode":"90355","state":"Tlaxcala","municipality":"Apizaco","setelement":"Real del Bosque"},{"postalCode":"90355","state":"Tlaxcala","municipality":"Apizaco","setelement":"Real del Valle"},{"postalCode":"90355","state":"Tlaxcala","municipality":"Apizaco","setelement":"Paso de Cortes I"},{"postalCode":"90355","state":"Tlaxcala","municipality":"Apizaco","setelement":"Paso de Cortes II"},{"postalCode":"90355","state":"Tlaxcala","municipality":"Apizaco","setelement":"La Perla"},{"postalCode":"90355","state":"Tlaxcala","municipality":"Apizaco","setelement":"La Perla II"},{"postalCode":"90355","state":"Tlaxcala","municipality":"Apizaco","setelement":"Apatlahuaya"},{"postalCode":"90355","state":"Tlaxcala","municipality":"Apizaco","setelement":"San Diego"},{"postalCode":"90356","state":"Tlaxcala","municipality":"Apizaco","setelement":"Loma Florida 1a Secc"},{"postalCode":"90356","state":"Tlaxcala","municipality":"Apizaco","setelement":"Loma Florida 2a Secc"},{"postalCode":"90356","state":"Tlaxcala","municipality":"Apizaco","setelement":"Los Sauces"},{"postalCode":"90356","state":"Tlaxcala","municipality":"Apizaco","setelement":"Nuevo México"},{"postalCode":"90357","state":"Tlaxcala","municipality":"Apizaco","setelement":"Benito Juárez"},{"postalCode":"90357","state":"Tlaxcala","municipality":"Apizaco","setelement":"Fátima"},{"postalCode":"90357","state":"Tlaxcala","municipality":"Apizaco","setelement":"Lindavista"},{"postalCode":"90358","state":"Tlaxcala","municipality":"Apizaco","setelement":"Jesús y San Juan"},{"postalCode":"90360","state":"Tlaxcala","municipality":"Apizaco","setelement":"Bryc"},{"postalCode":"90360","state":"Tlaxcala","municipality":"Apizaco","setelement":"La Cañada"},{"postalCode":"90360","state":"Tlaxcala","municipality":"Apizaco","setelement":"Los Morales II"},{"postalCode":"90370","state":"Tlaxcala","municipality":"Apizaco","setelement":"INDECO San Rafael Atlixtac"},{"postalCode":"90370","state":"Tlaxcala","municipality":"Apizaco","setelement":"Zaragoza"},{"postalCode":"90370","state":"Tlaxcala","municipality":"Apizaco","setelement":"Campestre los Sabinos"},{"postalCode":"90378","state":"Tlaxcala","municipality":"Apizaco","setelement":"Loma Santa Anita"},{"postalCode":"90380","state":"Tlaxcala","municipality":"Apizaco","setelement":"Agrícola Covadonga"},{"postalCode":"90380","state":"Tlaxcala","municipality":"Apizaco","setelement":"Jardines de Apizaco"},{"postalCode":"90380","state":"Tlaxcala","municipality":"Apizaco","setelement":"La Soledad"},{"postalCode":"90380","state":"Tlaxcala","municipality":"Apizaco","setelement":"El Llano"},{"postalCode":"90401","state":"Tlaxcala","municipality":"Apizaco","setelement":"Benito Juárez Apizaquito"},{"postalCode":"90401","state":"Tlaxcala","municipality":"Apizaco","setelement":"El Calvario"},{"postalCode":"90401","state":"Tlaxcala","municipality":"Apizaco","setelement":"San Luis Apizaquito"},{"postalCode":"90401","state":"Tlaxcala","municipality":"Apizaco","setelement":"San Luis Apizaquito"},{"postalCode":"90401","state":"Tlaxcala","municipality":"Apizaco","setelement":"Tulio Hernandez"},{"postalCode":"90401","state":"Tlaxcala","municipality":"Apizaco","setelement":"Coporo y Cerro Azul I y II"},{"postalCode":"90401","state":"Tlaxcala","municipality":"Apizaco","setelement":"San Luis"},{"postalCode":"90401","state":"Tlaxcala","municipality":"Apizaco","setelement":"La Paz"},{"postalCode":"90401","state":"Tlaxcala","municipality":"Apizaco","setelement":"El Farallon"},{"postalCode":"90401","state":"Tlaxcala","municipality":"Apizaco","setelement":"Residencial Las Flores"},{"postalCode":"90401","state":"Tlaxcala","municipality":"Apizaco","setelement":"La Colina"},{"postalCode":"90401","state":"Tlaxcala","municipality":"Apizaco","setelement":"Lomas de Apizaquito"},{"postalCode":"90402","state":"Tlaxcala","municipality":"Apizaco","setelement":"Santa Maria Texcalac"},{"postalCode":"90402","state":"Tlaxcala","municipality":"Apizaco","setelement":"10 de Mayo"},{"postalCode":"90402","state":"Tlaxcala","municipality":"Apizaco","setelement":"Francisco I. Madero"},{"postalCode":"90402","state":"Tlaxcala","municipality":"Apizaco","setelement":"El Cerrito"},{"postalCode":"90402","state":"Tlaxcala","municipality":"Apizaco","setelement":"2a. Sección"},{"postalCode":"90403","state":"Tlaxcala","municipality":"Apizaco","setelement":"Guadalupe Texcalac"},{"postalCode":"90404","state":"Tlaxcala","municipality":"Apizaco","setelement":"CERESO Apizaco"},{"postalCode":"90405","state":"Tlaxcala","municipality":"Apizaco","setelement":"Cuarta Manzana"},{"postalCode":"90405","state":"Tlaxcala","municipality":"Apizaco","setelement":"Actipan"},{"postalCode":"90405","state":"Tlaxcala","municipality":"Apizaco","setelement":"Atenco"},{"postalCode":"90405","state":"Tlaxcala","municipality":"Apizaco","setelement":"Jardines de San Francisco"},{"postalCode":"90405","state":"Tlaxcala","municipality":"Apizaco","setelement":"José María Morelos"},{"postalCode":"90406","state":"Tlaxcala","municipality":"Apizaco","setelement":"San Isidro"},{"postalCode":"90406","state":"Tlaxcala","municipality":"Apizaco","setelement":"Lomas del Bosque"},{"postalCode":"90406","state":"Tlaxcala","municipality":"Apizaco","setelement":"Lomas del Bosque II"},{"postalCode":"90406","state":"Tlaxcala","municipality":"Apizaco","setelement":"Jardines de San Isidro"},{"postalCode":"90407","state":"Tlaxcala","municipality":"Apizaco","setelement":"Santa Anita Huiloac"},{"postalCode":"90407","state":"Tlaxcala","municipality":"Apizaco","setelement":"San Marcos"},{"postalCode":"90407","state":"Tlaxcala","municipality":"Apizaco","setelement":"Atlayoalco"},{"postalCode":"90410","state":"Tlaxcala","municipality":"Atlangatepec","setelement":"Atlangatepec"},{"postalCode":"90411","state":"Tlaxcala","municipality":"Atlangatepec","setelement":"Agrícola San Luis"},{"postalCode":"90411","state":"Tlaxcala","municipality":"Atlangatepec","setelement":"Santa Clara Ozumba"},{"postalCode":"90411","state":"Tlaxcala","municipality":"Atlangatepec","setelement":"San Simón"},{"postalCode":"90411","state":"Tlaxcala","municipality":"Atlangatepec","setelement":"Cerro de las Flores"},{"postalCode":"90411","state":"Tlaxcala","municipality":"Atlangatepec","setelement":"El Catorce"},{"postalCode":"90411","state":"Tlaxcala","municipality":"Atlangatepec","setelement":"La Loma (El Cerrito)"},{"postalCode":"90411","state":"Tlaxcala","municipality":"Atlangatepec","setelement":"La Palma"},{"postalCode":"90411","state":"Tlaxcala","municipality":"Atlangatepec","setelement":"La Providencia"},{"postalCode":"90413","state":"Tlaxcala","municipality":"Atlangatepec","setelement":"Zumpango"},{"postalCode":"90413","state":"Tlaxcala","municipality":"Atlangatepec","setelement":"La Flor"},{"postalCode":"90413","state":"Tlaxcala","municipality":"Atlangatepec","setelement":"San Felipe"},{"postalCode":"90413","state":"Tlaxcala","municipality":"Atlangatepec","setelement":"El Paraíso"},{"postalCode":"90413","state":"Tlaxcala","municipality":"Atlangatepec","setelement":"San José Atlanga"},{"postalCode":"90413","state":"Tlaxcala","municipality":"Atlangatepec","setelement":"La Cuchilla (El Alcanfor)"},{"postalCode":"90414","state":"Tlaxcala","municipality":"Atlangatepec","setelement":"Las Barrancas"},{"postalCode":"90414","state":"Tlaxcala","municipality":"Atlangatepec","setelement":"Las Tinajas"},{"postalCode":"90414","state":"Tlaxcala","municipality":"Atlangatepec","setelement":"Los Capulines"},{"postalCode":"90414","state":"Tlaxcala","municipality":"Atlangatepec","setelement":"Los Encinos"},{"postalCode":"90414","state":"Tlaxcala","municipality":"Atlangatepec","setelement":"Santiago Villalta"},{"postalCode":"90414","state":"Tlaxcala","municipality":"Atlangatepec","setelement":"El Huérfano"},{"postalCode":"90414","state":"Tlaxcala","municipality":"Atlangatepec","setelement":"El Ocote"},{"postalCode":"90414","state":"Tlaxcala","municipality":"Atlangatepec","setelement":"La Joya"},{"postalCode":"90414","state":"Tlaxcala","municipality":"Atlangatepec","setelement":"Las Tinajas (La Tepozanera)"},{"postalCode":"90414","state":"Tlaxcala","municipality":"Atlangatepec","setelement":"El Ocote"},{"postalCode":"90414","state":"Tlaxcala","municipality":"Atlangatepec","setelement":"El Potrero"},{"postalCode":"90414","state":"Tlaxcala","municipality":"Atlangatepec","setelement":"El Encino"},{"postalCode":"90415","state":"Tlaxcala","municipality":"Atlangatepec","setelement":"San Pedro Ecatepec"},{"postalCode":"90415","state":"Tlaxcala","municipality":"Atlangatepec","setelement":"Jericó"},{"postalCode":"90415","state":"Tlaxcala","municipality":"Atlangatepec","setelement":"La Herradura"},{"postalCode":"90415","state":"Tlaxcala","municipality":"Atlangatepec","setelement":"Tenopala"},{"postalCode":"90415","state":"Tlaxcala","municipality":"Atlangatepec","setelement":"Xalnene"},{"postalCode":"90415","state":"Tlaxcala","municipality":"Atlangatepec","setelement":"Sabino Grande (El Carmen)"},{"postalCode":"90415","state":"Tlaxcala","municipality":"Atlangatepec","setelement":"Los Patos"},{"postalCode":"90415","state":"Tlaxcala","municipality":"Atlangatepec","setelement":"San Antonio Zacapexco"},{"postalCode":"90415","state":"Tlaxcala","municipality":"Atlangatepec","setelement":"San José de Santa Rosa Zacapexco"},{"postalCode":"90415","state":"Tlaxcala","municipality":"Atlangatepec","setelement":"San Marcos"},{"postalCode":"90415","state":"Tlaxcala","municipality":"Atlangatepec","setelement":"Santa Elena"},{"postalCode":"90415","state":"Tlaxcala","municipality":"Atlangatepec","setelement":"Santa María Tepetzala"},{"postalCode":"90415","state":"Tlaxcala","municipality":"Atlangatepec","setelement":"Tepezilapan"},{"postalCode":"90415","state":"Tlaxcala","municipality":"Atlangatepec","setelement":"Unidad Habitacional I"},{"postalCode":"90415","state":"Tlaxcala","municipality":"Atlangatepec","setelement":"Villa de las Flores"},{"postalCode":"90415","state":"Tlaxcala","municipality":"Atlangatepec","setelement":"Xuxtepec"},{"postalCode":"90415","state":"Tlaxcala","municipality":"Atlangatepec","setelement":"El Alemán"},{"postalCode":"90415","state":"Tlaxcala","municipality":"Atlangatepec","setelement":"El Ocotal"},{"postalCode":"90415","state":"Tlaxcala","municipality":"Atlangatepec","setelement":"El Recuerdo"},{"postalCode":"90415","state":"Tlaxcala","municipality":"Atlangatepec","setelement":"San Antonio Tepetzala"},{"postalCode":"90415","state":"Tlaxcala","municipality":"Atlangatepec","setelement":"La Cañada"},{"postalCode":"90416","state":"Tlaxcala","municipality":"Atlangatepec","setelement":"Segunda Fracción de Olivares"},{"postalCode":"90416","state":"Tlaxcala","municipality":"Atlangatepec","setelement":"Tercera Fracción de Olivares"},{"postalCode":"90416","state":"Tlaxcala","municipality":"Atlangatepec","setelement":"Vista Hermosa"},{"postalCode":"90416","state":"Tlaxcala","municipality":"Atlangatepec","setelement":"Centro Vacacional Villa Quinta Olivares"},{"postalCode":"90416","state":"Tlaxcala","municipality":"Atlangatepec","setelement":"Cuarta Fracción de Olivares"},{"postalCode":"90416","state":"Tlaxcala","municipality":"Atlangatepec","setelement":"La Trasquila"},{"postalCode":"90416","state":"Tlaxcala","municipality":"Atlangatepec","setelement":"Fracción San Pedro Ecatepec"},{"postalCode":"90416","state":"Tlaxcala","municipality":"Atlangatepec","setelement":"La Cañada"},{"postalCode":"90416","state":"Tlaxcala","municipality":"Atlangatepec","setelement":"La Trasquila"},{"postalCode":"90416","state":"Tlaxcala","municipality":"Atlangatepec","setelement":"La Troje"},{"postalCode":"90418","state":"Tlaxcala","municipality":"Atlangatepec","setelement":"Benito Juárez (Tezoyo)"},{"postalCode":"90418","state":"Tlaxcala","municipality":"Atlangatepec","setelement":"Loma Bonita"},{"postalCode":"90420","state":"Tlaxcala","municipality":"Muñoz de Domingo Arenas","setelement":"Muñoz"},{"postalCode":"90421","state":"Tlaxcala","municipality":"Muñoz de Domingo Arenas","setelement":"Guadalupe Estación"},{"postalCode":"90421","state":"Tlaxcala","municipality":"Muñoz de Domingo Arenas","setelement":"San José Cuamantzingo"},{"postalCode":"90423","state":"Tlaxcala","municipality":"Muñoz de Domingo Arenas","setelement":"La Bodega"},{"postalCode":"90423","state":"Tlaxcala","municipality":"Muñoz de Domingo Arenas","setelement":"Los Maizales"},{"postalCode":"90423","state":"Tlaxcala","municipality":"Muñoz de Domingo Arenas","setelement":"Los Rodríguez"},{"postalCode":"90423","state":"Tlaxcala","municipality":"Muñoz de Domingo Arenas","setelement":"Los Álamos"},{"postalCode":"90425","state":"Tlaxcala","municipality":"Muñoz de Domingo Arenas","setelement":"San Isidro Chipila"},{"postalCode":"90425","state":"Tlaxcala","municipality":"Muñoz de Domingo Arenas","setelement":"De Zacatepec"},{"postalCode":"90426","state":"Tlaxcala","municipality":"Muñoz de Domingo Arenas","setelement":"Muñoz"},{"postalCode":"90427","state":"Tlaxcala","municipality":"Muñoz de Domingo Arenas","setelement":"Guadalupe Cuauhtémoc"},{"postalCode":"90427","state":"Tlaxcala","municipality":"Muñoz de Domingo Arenas","setelement":"Ex-hacienda de Guadalupe"},{"postalCode":"90428","state":"Tlaxcala","municipality":"Muñoz de Domingo Arenas","setelement":"San Bartolo Cuamantzingo"},{"postalCode":"90430","state":"Tlaxcala","municipality":"Tetla de la Solidaridad","setelement":"2da San Bartolomé Matlalohcan"},{"postalCode":"90430","state":"Tlaxcala","municipality":"Tetla de la Solidaridad","setelement":"Antorcha Revolucionaria INFONAVIT Tetla"},{"postalCode":"90430","state":"Tlaxcala","municipality":"Tetla de la Solidaridad","setelement":"1ra San Bartolomé Matlalohcan"},{"postalCode":"90430","state":"Tlaxcala","municipality":"Tetla de la Solidaridad","setelement":"Teotlalpan"},{"postalCode":"90430","state":"Tlaxcala","municipality":"Tetla de la Solidaridad","setelement":"Los Robles"},{"postalCode":"90430","state":"Tlaxcala","municipality":"Tetla de la Solidaridad","setelement":"La Cañada"},{"postalCode":"90430","state":"Tlaxcala","municipality":"Tetla de la Solidaridad","setelement":"Jardines de San Bartolo"},{"postalCode":"90430","state":"Tlaxcala","municipality":"Tetla de la Solidaridad","setelement":"Metenco"},{"postalCode":"90430","state":"Tlaxcala","municipality":"Tetla de la Solidaridad","setelement":"4ta San Bartolomé Matlalohcan"},{"postalCode":"90430","state":"Tlaxcala","municipality":"Tetla de la Solidaridad","setelement":"3ra San Bartolomé Matlalohcan"},{"postalCode":"90430","state":"Tlaxcala","municipality":"Tetla de la Solidaridad","setelement":"Actipac"},{"postalCode":"90430","state":"Tlaxcala","municipality":"Tetla de la Solidaridad","setelement":"Cuatepec"},{"postalCode":"90430","state":"Tlaxcala","municipality":"Tetla de la Solidaridad","setelement":"Villa Celeste"},{"postalCode":"90430","state":"Tlaxcala","municipality":"Tetla de la Solidaridad","setelement":"El Pedregal"},{"postalCode":"90430","state":"Tlaxcala","municipality":"Tetla de la Solidaridad","setelement":"Villa de las Flores"},{"postalCode":"90430","state":"Tlaxcala","municipality":"Tetla de la Solidaridad","setelement":"Vista de Sol"},{"postalCode":"90430","state":"Tlaxcala","municipality":"Tetla de la Solidaridad","setelement":"América del Sur"},{"postalCode":"90430","state":"Tlaxcala","municipality":"Tetla de la Solidaridad","setelement":"Las Arboledas"},{"postalCode":"90430","state":"Tlaxcala","municipality":"Tetla de la Solidaridad","setelement":"Los Sabinales"},{"postalCode":"90430","state":"Tlaxcala","municipality":"Tetla de la Solidaridad","setelement":"Paseos de Tetla"},{"postalCode":"90430","state":"Tlaxcala","municipality":"Tetla de la Solidaridad","setelement":"Alberto Juárez Blancas"},{"postalCode":"90430","state":"Tlaxcala","municipality":"Tetla de la Solidaridad","setelement":"Villas de Tetla"},{"postalCode":"90430","state":"Tlaxcala","municipality":"Tetla de la Solidaridad","setelement":"Ocotitla"},{"postalCode":"90432","state":"Tlaxcala","municipality":"Tetla de la Solidaridad","setelement":"1ra Manzana San Francisco Atezcatzinco"},{"postalCode":"90432","state":"Tlaxcala","municipality":"Tetla de la Solidaridad","setelement":"Paseos de Xolalpa"},{"postalCode":"90432","state":"Tlaxcala","municipality":"Tetla de la Solidaridad","setelement":"San Francisco Atexcatzingo 3ra Manz"},{"postalCode":"90432","state":"Tlaxcala","municipality":"Tetla de la Solidaridad","setelement":"4ta Manzana San Francisco Atexcatzinco"},{"postalCode":"90432","state":"Tlaxcala","municipality":"Tetla de la Solidaridad","setelement":"San Francisco Atexcatzinco 2da Manzana"},{"postalCode":"90433","state":"Tlaxcala","municipality":"Tetla de la Solidaridad","setelement":"Chautzingo"},{"postalCode":"90433","state":"Tlaxcala","municipality":"Tetla de la Solidaridad","setelement":"Los Dolores"},{"postalCode":"90434","state":"Tlaxcala","municipality":"Tetla de la Solidaridad","setelement":"José María Morelos y Pavón"},{"postalCode":"90434","state":"Tlaxcala","municipality":"Tetla de la Solidaridad","setelement":"Ciudad Industrial Xicohténcatl"},{"postalCode":"90435","state":"Tlaxcala","municipality":"Tetla de la Solidaridad","setelement":"Capulac"},{"postalCode":"90435","state":"Tlaxcala","municipality":"Tetla de la Solidaridad","setelement":"San Gregorio"},{"postalCode":"90435","state":"Tlaxcala","municipality":"Tetla de la Solidaridad","setelement":"La Divina Providencia"},{"postalCode":"90435","state":"Tlaxcala","municipality":"Tetla de la Solidaridad","setelement":"Campo David"},{"postalCode":"90435","state":"Tlaxcala","municipality":"Tetla de la Solidaridad","setelement":"Felipe Gutiérrez"},{"postalCode":"90435","state":"Tlaxcala","municipality":"Tetla de la Solidaridad","setelement":"Santa Fe la Troje"},{"postalCode":"90435","state":"Tlaxcala","municipality":"Tetla de la Solidaridad","setelement":"Guillermo Macías"},{"postalCode":"90435","state":"Tlaxcala","municipality":"Tetla de la Solidaridad","setelement":"El Pozo"},{"postalCode":"90435","state":"Tlaxcala","municipality":"Tetla de la Solidaridad","setelement":"El Prado"},{"postalCode":"90435","state":"Tlaxcala","municipality":"Tetla de la Solidaridad","setelement":"Fracción el Derramadero"},{"postalCode":"90436","state":"Tlaxcala","municipality":"Tetla de la Solidaridad","setelement":"NCPE San Francisco Tepeyanco"},{"postalCode":"90436","state":"Tlaxcala","municipality":"Tetla de la Solidaridad","setelement":"Juan Lima Olivares"},{"postalCode":"90436","state":"Tlaxcala","municipality":"Tetla de la Solidaridad","setelement":"El Ocote"},{"postalCode":"90436","state":"Tlaxcala","municipality":"Tetla de la Solidaridad","setelement":"Ricardo Flores Magón"},{"postalCode":"90437","state":"Tlaxcala","municipality":"Tetla de la Solidaridad","setelement":"Las Cabañas"},{"postalCode":"90437","state":"Tlaxcala","municipality":"Tetla de la Solidaridad","setelement":"San José Piedras Negras"},{"postalCode":"90437","state":"Tlaxcala","municipality":"Tetla de la Solidaridad","setelement":"San Isidro Piedras Negras"},{"postalCode":"90437","state":"Tlaxcala","municipality":"Tetla de la Solidaridad","setelement":"La Caridad"},{"postalCode":"90437","state":"Tlaxcala","municipality":"Tetla de la Solidaridad","setelement":"San Miguel"},{"postalCode":"90437","state":"Tlaxcala","municipality":"Tetla de la Solidaridad","setelement":"De Gómez"},{"postalCode":"90437","state":"Tlaxcala","municipality":"Tetla de la Solidaridad","setelement":"Las Arenas"},{"postalCode":"90438","state":"Tlaxcala","municipality":"Tetla de la Solidaridad","setelement":"Santa Rosa Mena"},{"postalCode":"90438","state":"Tlaxcala","municipality":"Tetla de la Solidaridad","setelement":"San Isidro"},{"postalCode":"90438","state":"Tlaxcala","municipality":"Tetla de la Solidaridad","setelement":"Anastacio Lemus"},{"postalCode":"90438","state":"Tlaxcala","municipality":"Tetla de la Solidaridad","setelement":"De Apizaquito"},{"postalCode":"90438","state":"Tlaxcala","municipality":"Tetla de la Solidaridad","setelement":"La Loma"},{"postalCode":"90438","state":"Tlaxcala","municipality":"Tetla de la Solidaridad","setelement":"Alejandro López Ávila (Los Temontones)"},{"postalCode":"90438","state":"Tlaxcala","municipality":"Tetla de la Solidaridad","setelement":"Santa Margarita"},{"postalCode":"90438","state":"Tlaxcala","municipality":"Tetla de la Solidaridad","setelement":"San Juan"},{"postalCode":"90438","state":"Tlaxcala","municipality":"Tetla de la Solidaridad","setelement":"Plan de Ayala"},{"postalCode":"90438","state":"Tlaxcala","municipality":"Tetla de la Solidaridad","setelement":"El Corazón"},{"postalCode":"90438","state":"Tlaxcala","municipality":"Tetla de la Solidaridad","setelement":"La Concepción"},{"postalCode":"90440","state":"Tlaxcala","municipality":"Xaltocan","setelement":"San Martin Xaltocan"},{"postalCode":"90440","state":"Tlaxcala","municipality":"Xaltocan","setelement":"San Simón Tlatlahuquitepec"},{"postalCode":"90440","state":"Tlaxcala","municipality":"Xaltocan","setelement":"Cuatla"},{"postalCode":"90440","state":"Tlaxcala","municipality":"Xaltocan","setelement":"Topilco de Juárez"},{"postalCode":"90440","state":"Tlaxcala","municipality":"Xaltocan","setelement":"Puerto Arturo"},{"postalCode":"90440","state":"Tlaxcala","municipality":"Xaltocan","setelement":"Jardines de Xaltocan"},{"postalCode":"90440","state":"Tlaxcala","municipality":"Xaltocan","setelement":"Tlalapechco"},{"postalCode":"90440","state":"Tlaxcala","municipality":"Xaltocan","setelement":"Loma Dorada"},{"postalCode":"90443","state":"Tlaxcala","municipality":"Xaltocan","setelement":"Santa Bárbara Acuicuizcatepec"},{"postalCode":"90443","state":"Tlaxcala","municipality":"Xaltocan","setelement":"Cañada de Chipila"},{"postalCode":"90443","state":"Tlaxcala","municipality":"Xaltocan","setelement":"Alva"},{"postalCode":"90443","state":"Tlaxcala","municipality":"Xaltocan","setelement":"Nueva Ampliación Adolfo Ruiz Cortínez"},{"postalCode":"90443","state":"Tlaxcala","municipality":"Xaltocan","setelement":"Nueva Ampliación Camino a Xaltocan"},{"postalCode":"90443","state":"Tlaxcala","municipality":"Xaltocan","setelement":"San José Texopa"},{"postalCode":"90443","state":"Tlaxcala","municipality":"Xaltocan","setelement":"Las Mesas"},{"postalCode":"90443","state":"Tlaxcala","municipality":"Xaltocan","setelement":"La Retama"},{"postalCode":"90444","state":"Tlaxcala","municipality":"Xaltocan","setelement":"La Ascensión Huitzcolotepec"},{"postalCode":"90444","state":"Tlaxcala","municipality":"Xaltocan","setelement":"Atzacoalco"},{"postalCode":"90445","state":"Tlaxcala","municipality":"San Lucas Tecopilco","setelement":"San Lucas Tecopilco"},{"postalCode":"90446","state":"Tlaxcala","municipality":"San Lucas Tecopilco","setelement":"Las Cañadas"},{"postalCode":"90446","state":"Tlaxcala","municipality":"San Lucas Tecopilco","setelement":"Toltecapa"},{"postalCode":"90447","state":"Tlaxcala","municipality":"San Lucas Tecopilco","setelement":"El Llano"},{"postalCode":"90448","state":"Tlaxcala","municipality":"San Lucas Tecopilco","setelement":"San José Rosastitla"},{"postalCode":"90448","state":"Tlaxcala","municipality":"San Lucas Tecopilco","setelement":"Cauatla"},{"postalCode":"90448","state":"Tlaxcala","municipality":"San Lucas Tecopilco","setelement":"Tlaxcantitla"},{"postalCode":"90448","state":"Tlaxcala","municipality":"San Lucas Tecopilco","setelement":"Loma Bonita"},{"postalCode":"90450","state":"Tlaxcala","municipality":"Yauhquemehcan","setelement":"La Noria"},{"postalCode":"90450","state":"Tlaxcala","municipality":"Yauhquemehcan","setelement":"San Dionisio Yauhquemehcan"},{"postalCode":"90450","state":"Tlaxcala","municipality":"Yauhquemehcan","setelement":"San Francisco Tlacuilohcan"},{"postalCode":"90450","state":"Tlaxcala","municipality":"Yauhquemehcan","setelement":"San Lorenzo Tlacualoyan"},{"postalCode":"90450","state":"Tlaxcala","municipality":"Yauhquemehcan","setelement":"Santa Úrsula Zimatepec"},{"postalCode":"90450","state":"Tlaxcala","municipality":"Yauhquemehcan","setelement":"La Noria II"},{"postalCode":"90450","state":"Tlaxcala","municipality":"Yauhquemehcan","setelement":"Viky"},{"postalCode":"90450","state":"Tlaxcala","municipality":"Yauhquemehcan","setelement":"La Corona"},{"postalCode":"90450","state":"Tlaxcala","municipality":"Yauhquemehcan","setelement":"Cruztitla"},{"postalCode":"90450","state":"Tlaxcala","municipality":"Yauhquemehcan","setelement":"Malintzi I"},{"postalCode":"90450","state":"Tlaxcala","municipality":"Yauhquemehcan","setelement":"El Padrino II"},{"postalCode":"90450","state":"Tlaxcala","municipality":"Yauhquemehcan","setelement":"El Padrino I"},{"postalCode":"90450","state":"Tlaxcala","municipality":"Yauhquemehcan","setelement":"La Cima de Piedra II"},{"postalCode":"90450","state":"Tlaxcala","municipality":"Yauhquemehcan","setelement":"Los Sauces IV"},{"postalCode":"90450","state":"Tlaxcala","municipality":"Yauhquemehcan","setelement":"La Esperanza"},{"postalCode":"90450","state":"Tlaxcala","municipality":"Yauhquemehcan","setelement":"Los Sauces I"},{"postalCode":"90450","state":"Tlaxcala","municipality":"Yauhquemehcan","setelement":"La Palma"},{"postalCode":"90450","state":"Tlaxcala","municipality":"Yauhquemehcan","setelement":"La Huerta"},{"postalCode":"90450","state":"Tlaxcala","municipality":"Yauhquemehcan","setelement":"La Aurora"},{"postalCode":"90450","state":"Tlaxcala","municipality":"Yauhquemehcan","setelement":"Xalcuentla"},{"postalCode":"90450","state":"Tlaxcala","municipality":"Yauhquemehcan","setelement":"La Huerta I"},{"postalCode":"90450","state":"Tlaxcala","municipality":"Yauhquemehcan","setelement":"Jardines de Santa Úrsula"},{"postalCode":"90450","state":"Tlaxcala","municipality":"Yauhquemehcan","setelement":"Los Sauces II"},{"postalCode":"90450","state":"Tlaxcala","municipality":"Yauhquemehcan","setelement":"Los Sauces III"},{"postalCode":"90450","state":"Tlaxcala","municipality":"Yauhquemehcan","setelement":"El Padrino III"},{"postalCode":"90450","state":"Tlaxcala","municipality":"Yauhquemehcan","setelement":"Los Sauces V"},{"postalCode":"90450","state":"Tlaxcala","municipality":"Yauhquemehcan","setelement":"Villa Hermosa"},{"postalCode":"90450","state":"Tlaxcala","municipality":"Yauhquemehcan","setelement":"El Pedregal"},{"postalCode":"90450","state":"Tlaxcala","municipality":"Yauhquemehcan","setelement":"Ahuaxtla"},{"postalCode":"90450","state":"Tlaxcala","municipality":"Yauhquemehcan","setelement":"La Cima de Piedra I"},{"postalCode":"90450","state":"Tlaxcala","municipality":"Yauhquemehcan","setelement":"Las Rosas 2000"},{"postalCode":"90453","state":"Tlaxcala","municipality":"Yauhquemehcan","setelement":"San Benito Xaltocan"},{"postalCode":"90453","state":"Tlaxcala","municipality":"Yauhquemehcan","setelement":"Doctores"},{"postalCode":"90453","state":"Tlaxcala","municipality":"Yauhquemehcan","setelement":"Villa Alta"},{"postalCode":"90453","state":"Tlaxcala","municipality":"Yauhquemehcan","setelement":"La Libertad"},{"postalCode":"90453","state":"Tlaxcala","municipality":"Yauhquemehcan","setelement":"La Joya"},{"postalCode":"90453","state":"Tlaxcala","municipality":"Yauhquemehcan","setelement":"Las Torres"},{"postalCode":"90454","state":"Tlaxcala","municipality":"Yauhquemehcan","setelement":"Arenal"},{"postalCode":"90454","state":"Tlaxcala","municipality":"Yauhquemehcan","setelement":"San José Tetel"},{"postalCode":"90454","state":"Tlaxcala","municipality":"Yauhquemehcan","setelement":"Axotecatl"},{"postalCode":"90454","state":"Tlaxcala","municipality":"Yauhquemehcan","setelement":"Coyotla"},{"postalCode":"90454","state":"Tlaxcala","municipality":"Yauhquemehcan","setelement":"Pentágono"},{"postalCode":"90454","state":"Tlaxcala","municipality":"Yauhquemehcan","setelement":"Paraíso"},{"postalCode":"90454","state":"Tlaxcala","municipality":"Yauhquemehcan","setelement":"El Mirador II"},{"postalCode":"90454","state":"Tlaxcala","municipality":"Yauhquemehcan","setelement":"Emilio Sánchez Piedras"},{"postalCode":"90454","state":"Tlaxcala","municipality":"Yauhquemehcan","setelement":"El Palmar"},{"postalCode":"90454","state":"Tlaxcala","municipality":"Yauhquemehcan","setelement":"Vista los Volcanes II"},{"postalCode":"90454","state":"Tlaxcala","municipality":"Yauhquemehcan","setelement":"Vista los Volcanes I"},{"postalCode":"90454","state":"Tlaxcala","municipality":"Yauhquemehcan","setelement":"Villas la Monumental"},{"postalCode":"90454","state":"Tlaxcala","municipality":"Yauhquemehcan","setelement":"Modulo el Mirador"},{"postalCode":"90454","state":"Tlaxcala","municipality":"Yauhquemehcan","setelement":"Acuario"},{"postalCode":"90454","state":"Tlaxcala","municipality":"Yauhquemehcan","setelement":"La Unión"},{"postalCode":"90454","state":"Tlaxcala","municipality":"Yauhquemehcan","setelement":"Los Patios"},{"postalCode":"90454","state":"Tlaxcala","municipality":"Yauhquemehcan","setelement":"Arcos Tetel I"},{"postalCode":"90454","state":"Tlaxcala","municipality":"Yauhquemehcan","setelement":"Arboledas"},{"postalCode":"90454","state":"Tlaxcala","municipality":"Yauhquemehcan","setelement":"Arcos Tetel II"},{"postalCode":"90455","state":"Tlaxcala","municipality":"Yauhquemehcan","setelement":"Calapa"},{"postalCode":"90455","state":"Tlaxcala","municipality":"Yauhquemehcan","setelement":"Jazmín"},{"postalCode":"90455","state":"Tlaxcala","municipality":"Yauhquemehcan","setelement":"Atencingo"},{"postalCode":"90456","state":"Tlaxcala","municipality":"Yauhquemehcan","setelement":"El Rosario Ocotoxco"},{"postalCode":"90457","state":"Tlaxcala","municipality":"Yauhquemehcan","setelement":"Magdalena Tepepa"},{"postalCode":"90457","state":"Tlaxcala","municipality":"Yauhquemehcan","setelement":"La Luz"},{"postalCode":"90457","state":"Tlaxcala","municipality":"Yauhquemehcan","setelement":"Villa Arboledas"},{"postalCode":"90458","state":"Tlaxcala","municipality":"Yauhquemehcan","setelement":"Serafín Sánchez García"},{"postalCode":"90458","state":"Tlaxcala","municipality":"Yauhquemehcan","setelement":"La Soledad (El Charco)"},{"postalCode":"90459","state":"Tlaxcala","municipality":"Yauhquemehcan","setelement":"Santa María Atlihuetzian"},{"postalCode":"90459","state":"Tlaxcala","municipality":"Yauhquemehcan","setelement":"Lomas de la Misión"},{"postalCode":"90459","state":"Tlaxcala","municipality":"Yauhquemehcan","setelement":"Cuarta Sección"},{"postalCode":"90459","state":"Tlaxcala","municipality":"Yauhquemehcan","setelement":"Hualcaltzinco"},{"postalCode":"90459","state":"Tlaxcala","municipality":"Yauhquemehcan","setelement":"San José Tepoxtla"},{"postalCode":"90460","state":"Tlaxcala","municipality":"Xaloztoc","setelement":"Conjunto habitacional Pronavi San Cosme"},{"postalCode":"90460","state":"Tlaxcala","municipality":"Xaloztoc","setelement":"San Cosme Xaloztoc"},{"postalCode":"90460","state":"Tlaxcala","municipality":"Xaloztoc","setelement":"San Pedro Tlacotepec"},{"postalCode":"90460","state":"Tlaxcala","municipality":"Xaloztoc","setelement":"Guadalupe Texmolac"},{"postalCode":"90460","state":"Tlaxcala","municipality":"Xaloztoc","setelement":"Venustiano Carranza"},{"postalCode":"90460","state":"Tlaxcala","municipality":"Xaloztoc","setelement":"Tetitla"},{"postalCode":"90460","state":"Tlaxcala","municipality":"Xaloztoc","setelement":"Santa Martha"},{"postalCode":"90460","state":"Tlaxcala","municipality":"Xaloztoc","setelement":"La Sierra"},{"postalCode":"90460","state":"Tlaxcala","municipality":"Xaloztoc","setelement":"Santa Cruz Zacatzontetla"},{"postalCode":"90463","state":"Tlaxcala","municipality":"Xaloztoc","setelement":"José López Portillo"},{"postalCode":"90463","state":"Tlaxcala","municipality":"Xaloztoc","setelement":"El Jagüey Prieto"},{"postalCode":"90465","state":"Tlaxcala","municipality":"Xaloztoc","setelement":"Velazco"},{"postalCode":"90465","state":"Tlaxcala","municipality":"Xaloztoc","setelement":"Florencia Sánchez Nava"},{"postalCode":"90470","state":"Tlaxcala","municipality":"Xaloztoc","setelement":"Los Corrales"},{"postalCode":"90480","state":"Tlaxcala","municipality":"Tocatlán","setelement":"Santa María Tocatlán"},{"postalCode":"90480","state":"Tlaxcala","municipality":"Tocatlán","setelement":"San José"},{"postalCode":"90482","state":"Tlaxcala","municipality":"Tocatlán","setelement":"Venustiano Carranza"},{"postalCode":"90484","state":"Tlaxcala","municipality":"Tocatlán","setelement":"Acocotla"},{"postalCode":"90490","state":"Tlaxcala","municipality":"Tzompantepec","setelement":"El Divino Salvador"},{"postalCode":"90490","state":"Tlaxcala","municipality":"Tzompantepec","setelement":"San Salvador Tzompantepec"},{"postalCode":"90490","state":"Tlaxcala","municipality":"Tzompantepec","setelement":"Jean Charlot II"},{"postalCode":"90490","state":"Tlaxcala","municipality":"Tzompantepec","setelement":"San Pablo"},{"postalCode":"90490","state":"Tlaxcala","municipality":"Tzompantepec","setelement":"Los Girasoles"},{"postalCode":"90490","state":"Tlaxcala","municipality":"Tzompantepec","setelement":"Zauhtla"},{"postalCode":"90490","state":"Tlaxcala","municipality":"Tzompantepec","setelement":"Meyalco"},{"postalCode":"90490","state":"Tlaxcala","municipality":"Tzompantepec","setelement":"La Estrella"},{"postalCode":"90490","state":"Tlaxcala","municipality":"Tzompantepec","setelement":"Loma Dorada"},{"postalCode":"90490","state":"Tlaxcala","municipality":"Tzompantepec","setelement":"19 de Noviembre"},{"postalCode":"90490","state":"Tlaxcala","municipality":"Tzompantepec","setelement":"Doña María"},{"postalCode":"90490","state":"Tlaxcala","municipality":"Tzompantepec","setelement":"San Andrés"},{"postalCode":"90490","state":"Tlaxcala","municipality":"Tzompantepec","setelement":"San Juan"},{"postalCode":"90490","state":"Tlaxcala","municipality":"Tzompantepec","setelement":"Jean Charlot I"},{"postalCode":"90490","state":"Tlaxcala","municipality":"Tzompantepec","setelement":"Jean Charlot III"},{"postalCode":"90490","state":"Tlaxcala","municipality":"Tzompantepec","setelement":"Tepozotenco"},{"postalCode":"90491","state":"Tlaxcala","municipality":"Tzompantepec","setelement":"San Andrés Ahuashuatepec"},{"postalCode":"90493","state":"Tlaxcala","municipality":"Tzompantepec","setelement":"San Juan Quetzalcoapan"},{"postalCode":"90493","state":"Tlaxcala","municipality":"Tzompantepec","setelement":"Cuayecatl"},{"postalCode":"90493","state":"Tlaxcala","municipality":"Tzompantepec","setelement":"Mazapa (Rancho los Juanes)"},{"postalCode":"90493","state":"Tlaxcala","municipality":"Tzompantepec","setelement":"El Llano"},{"postalCode":"90493","state":"Tlaxcala","municipality":"Tzompantepec","setelement":"Cruztitla (Coyoeca)"},{"postalCode":"90494","state":"Tlaxcala","municipality":"Tzompantepec","setelement":"San Mateo Inophil"},{"postalCode":"90494","state":"Tlaxcala","municipality":"Tzompantepec","setelement":"La Providencia las Huertas"},{"postalCode":"90494","state":"Tlaxcala","municipality":"Tzompantepec","setelement":"Amoltepec"},{"postalCode":"90494","state":"Tlaxcala","municipality":"Tzompantepec","setelement":"Xaltianquisco"},{"postalCode":"90495","state":"Tlaxcala","municipality":"San José Teacalco","setelement":"1ra. Sección San José Teacalco"},{"postalCode":"90495","state":"Tlaxcala","municipality":"San José Teacalco","setelement":"4ta. Sección San José Teacalco"},{"postalCode":"90496","state":"Tlaxcala","municipality":"San José Teacalco","setelement":"5ta. Sección San José Teacalco"},{"postalCode":"90496","state":"Tlaxcala","municipality":"San José Teacalco","setelement":"3ra. Sección San José Teacalco"},{"postalCode":"90497","state":"Tlaxcala","municipality":"San José Teacalco","setelement":"2da. Sección San José Teacalco"},{"postalCode":"90498","state":"Tlaxcala","municipality":"San José Teacalco","setelement":"Ex-rancho San Nicolás Cuatlapanga"},{"postalCode":"90498","state":"Tlaxcala","municipality":"San José Teacalco","setelement":"El Encinal Dos de Mayo"},{"postalCode":"90498","state":"Tlaxcala","municipality":"San José Teacalco","setelement":"San Pedro Mártir"},{"postalCode":"90498","state":"Tlaxcala","municipality":"San José Teacalco","setelement":"San Luis"},{"postalCode":"90498","state":"Tlaxcala","municipality":"San José Teacalco","setelement":"Ecológica"},{"postalCode":"90500","state":"Tlaxcala","municipality":"Huamantla","setelement":"Huamantla Centro"},{"postalCode":"90502","state":"Tlaxcala","municipality":"Huamantla","setelement":"El Calvario"},{"postalCode":"90502","state":"Tlaxcala","municipality":"Huamantla","setelement":"Santa Cruz"},{"postalCode":"90502","state":"Tlaxcala","municipality":"Huamantla","setelement":"La Santísima"},{"postalCode":"90502","state":"Tlaxcala","municipality":"Huamantla","setelement":"El Encanto"},{"postalCode":"90502","state":"Tlaxcala","municipality":"Huamantla","setelement":"Del Dulce Nombre"},{"postalCode":"90502","state":"Tlaxcala","municipality":"Huamantla","setelement":"De Jesús"},{"postalCode":"90503","state":"Tlaxcala","municipality":"Huamantla","setelement":"San Carlos"},{"postalCode":"90503","state":"Tlaxcala","municipality":"Huamantla","setelement":"San Juan"},{"postalCode":"90503","state":"Tlaxcala","municipality":"Huamantla","setelement":"Santa Ana"},{"postalCode":"90503","state":"Tlaxcala","municipality":"Huamantla","setelement":"Cuamanco"},{"postalCode":"90503","state":"Tlaxcala","municipality":"Huamantla","setelement":"Villa de las Flores"},{"postalCode":"90503","state":"Tlaxcala","municipality":"Huamantla","setelement":"El Cornejal"},{"postalCode":"90505","state":"Tlaxcala","municipality":"Huamantla","setelement":"La Preciosa"},{"postalCode":"90505","state":"Tlaxcala","municipality":"Huamantla","setelement":"San Francisco Yancuitlalpan"},{"postalCode":"90505","state":"Tlaxcala","municipality":"Huamantla","setelement":"San José"},{"postalCode":"90505","state":"Tlaxcala","municipality":"Huamantla","setelement":"San Antonio"},{"postalCode":"90505","state":"Tlaxcala","municipality":"Huamantla","setelement":"Santa Maria Yancuitlalpan"},{"postalCode":"90505","state":"Tlaxcala","municipality":"Huamantla","setelement":"San Miguel"},{"postalCode":"90505","state":"Tlaxcala","municipality":"Huamantla","setelement":"Jardines de San Manuel"},{"postalCode":"90506","state":"Tlaxcala","municipality":"Huamantla","setelement":"Ignacio Zaragoza"},{"postalCode":"90506","state":"Tlaxcala","municipality":"Huamantla","setelement":"Nuevos Horizontes"},{"postalCode":"90506","state":"Tlaxcala","municipality":"Huamantla","setelement":"Emiliano Zapata"},{"postalCode":"90506","state":"Tlaxcala","municipality":"Huamantla","setelement":"La Estación"},{"postalCode":"90506","state":"Tlaxcala","municipality":"Huamantla","setelement":"Viva"},{"postalCode":"90506","state":"Tlaxcala","municipality":"Huamantla","setelement":"Tierra y Libertad"},{"postalCode":"90507","state":"Tlaxcala","municipality":"Huamantla","setelement":"San Lucas"},{"postalCode":"90507","state":"Tlaxcala","municipality":"Huamantla","setelement":"San Francisco"},{"postalCode":"90507","state":"Tlaxcala","municipality":"Huamantla","setelement":"Unión y Progreso"},{"postalCode":"90507","state":"Tlaxcala","municipality":"Huamantla","setelement":"San Francisquito"},{"postalCode":"90508","state":"Tlaxcala","municipality":"Huamantla","setelement":"La Palma"},{"postalCode":"90508","state":"Tlaxcala","municipality":"Huamantla","setelement":"INFONAVIT 15 de Agosto"},{"postalCode":"90508","state":"Tlaxcala","municipality":"Huamantla","setelement":"San Sebastián"},{"postalCode":"90508","state":"Tlaxcala","municipality":"Huamantla","setelement":"Santa Anita"},{"postalCode":"90508","state":"Tlaxcala","municipality":"Huamantla","setelement":"La Giralda"},{"postalCode":"90508","state":"Tlaxcala","municipality":"Huamantla","setelement":"La Cañada"},{"postalCode":"90508","state":"Tlaxcala","municipality":"Huamantla","setelement":"Juárez"},{"postalCode":"90508","state":"Tlaxcala","municipality":"Huamantla","setelement":"Los Volcanes II"},{"postalCode":"90508","state":"Tlaxcala","municipality":"Huamantla","setelement":"Los Volcanes"},{"postalCode":"90508","state":"Tlaxcala","municipality":"Huamantla","setelement":"La Esmeralda"},{"postalCode":"90508","state":"Tlaxcala","municipality":"Huamantla","setelement":"Arboledas"},{"postalCode":"90508","state":"Tlaxcala","municipality":"Huamantla","setelement":"El Jagüey"},{"postalCode":"90509","state":"Tlaxcala","municipality":"Huamantla","setelement":"Ciudad Industrial Xicohténcatl"},{"postalCode":"90510","state":"Tlaxcala","municipality":"Huamantla","setelement":"Los Pilares"},{"postalCode":"90510","state":"Tlaxcala","municipality":"Huamantla","setelement":"Ignacio Zaragoza"},{"postalCode":"90513","state":"Tlaxcala","municipality":"Huamantla","setelement":"Hermenegildo Galeana"},{"postalCode":"90513","state":"Tlaxcala","municipality":"Huamantla","setelement":"El Carmen Xalpatlahuaya"},{"postalCode":"90513","state":"Tlaxcala","municipality":"Huamantla","setelement":"N.C.P. San Diego Xalpatlahuaya"},{"postalCode":"90514","state":"Tlaxcala","municipality":"Huamantla","setelement":"Benito Juárez"},{"postalCode":"90514","state":"Tlaxcala","municipality":"Huamantla","setelement":"Francisco I. Madero la Mesa"},{"postalCode":"90514","state":"Tlaxcala","municipality":"Huamantla","setelement":"Francisco I. Madero Tecoac"},{"postalCode":"90514","state":"Tlaxcala","municipality":"Huamantla","setelement":"Francisco Villa Tecoac"},{"postalCode":"90514","state":"Tlaxcala","municipality":"Huamantla","setelement":"El Molino"},{"postalCode":"90514","state":"Tlaxcala","municipality":"Huamantla","setelement":"De Torres"},{"postalCode":"90514","state":"Tlaxcala","municipality":"Huamantla","setelement":"La Lima"},{"postalCode":"90515","state":"Tlaxcala","municipality":"Huamantla","setelement":"El Valle"},{"postalCode":"90515","state":"Tlaxcala","municipality":"Huamantla","setelement":"San José Xicohtencatl"},{"postalCode":"90515","state":"Tlaxcala","municipality":"Huamantla","setelement":"Los Alamos"},{"postalCode":"90515","state":"Tlaxcala","municipality":"Huamantla","setelement":"Ampliación Felipe Carrillo Puerto"},{"postalCode":"90515","state":"Tlaxcala","municipality":"Huamantla","setelement":"NCP José María Morelos"},{"postalCode":"90520","state":"Tlaxcala","municipality":"Huamantla","setelement":"San Francisco Tecoac"},{"postalCode":"90520","state":"Tlaxcala","municipality":"Huamantla","setelement":"Lázaro Cárdenas"},{"postalCode":"90520","state":"Tlaxcala","municipality":"Huamantla","setelement":"San Francisco Notario"},{"postalCode":"90525","state":"Tlaxcala","municipality":"Huamantla","setelement":"Chapultepec"},{"postalCode":"90525","state":"Tlaxcala","municipality":"Huamantla","setelement":"Lic. Mauro Angulo"},{"postalCode":"90525","state":"Tlaxcala","municipality":"Huamantla","setelement":"N.C.P. San José Teacalco"},{"postalCode":"90526","state":"Tlaxcala","municipality":"Huamantla","setelement":"General Francisco Villa"},{"postalCode":"90526","state":"Tlaxcala","municipality":"Huamantla","setelement":"San Martín Notario"},{"postalCode":"90526","state":"Tlaxcala","municipality":"Huamantla","setelement":"Acasillados San Martin Notario"},{"postalCode":"90526","state":"Tlaxcala","municipality":"Huamantla","setelement":"Agrícola San Martín Notario"},{"postalCode":"90527","state":"Tlaxcala","municipality":"Huamantla","setelement":"Cuauhtémoc"},{"postalCode":"90530","state":"Tlaxcala","municipality":"Huamantla","setelement":"José María Morelos"},{"postalCode":"90530","state":"Tlaxcala","municipality":"Huamantla","setelement":"De Jesús"},{"postalCode":"90530","state":"Tlaxcala","municipality":"Huamantla","setelement":"San Miguel Baez"},{"postalCode":"90530","state":"Tlaxcala","municipality":"Huamantla","setelement":"De la Cruz"},{"postalCode":"90534","state":"Tlaxcala","municipality":"Huamantla","setelement":"Mariano Matamoros"},{"postalCode":"90534","state":"Tlaxcala","municipality":"Huamantla","setelement":"Altamira Guadalupe"},{"postalCode":"90535","state":"Tlaxcala","municipality":"Huamantla","setelement":"La Cruz"},{"postalCode":"90540","state":"Tlaxcala","municipality":"Terrenate","setelement":"Terrenate"},{"postalCode":"90540","state":"Tlaxcala","municipality":"Terrenate","setelement":"Chipilo"},{"postalCode":"90540","state":"Tlaxcala","municipality":"Terrenate","setelement":"Chapultepec"},{"postalCode":"90542","state":"Tlaxcala","municipality":"Terrenate","setelement":"La Caldera"},{"postalCode":"90542","state":"Tlaxcala","municipality":"Terrenate","setelement":"San José Villarreal"},{"postalCode":"90542","state":"Tlaxcala","municipality":"Terrenate","setelement":"El Pilancón"},{"postalCode":"90542","state":"Tlaxcala","municipality":"Terrenate","setelement":"El Capulín"},{"postalCode":"90543","state":"Tlaxcala","municipality":"Terrenate","setelement":"Nicolás Bravo"},{"postalCode":"90543","state":"Tlaxcala","municipality":"Terrenate","setelement":"El Capulín"},{"postalCode":"90543","state":"Tlaxcala","municipality":"Terrenate","setelement":"Guadalupe Victoria"},{"postalCode":"90543","state":"Tlaxcala","municipality":"Terrenate","setelement":"Los Ameles (Acolco)"},{"postalCode":"90543","state":"Tlaxcala","municipality":"Terrenate","setelement":"El Capulín"},{"postalCode":"90544","state":"Tlaxcala","municipality":"Terrenate","setelement":"Toluca de Guadalupe"},{"postalCode":"90545","state":"Tlaxcala","municipality":"Lázaro Cárdenas","setelement":"Lázaro Cárdenas"},{"postalCode":"90546","state":"Tlaxcala","municipality":"Lázaro Cárdenas","setelement":"La Mancera"},{"postalCode":"90546","state":"Tlaxcala","municipality":"Lázaro Cárdenas","setelement":"El Palomar"},{"postalCode":"90546","state":"Tlaxcala","municipality":"Lázaro Cárdenas","setelement":"San José de la Laguna"},{"postalCode":"90546","state":"Tlaxcala","municipality":"Lázaro Cárdenas","setelement":"Maribel"},{"postalCode":"90546","state":"Tlaxcala","municipality":"Lázaro Cárdenas","setelement":"Atlixtaca"},{"postalCode":"90547","state":"Tlaxcala","municipality":"Emiliano Zapata","setelement":"Emiliano Zapata"},{"postalCode":"90547","state":"Tlaxcala","municipality":"Emiliano Zapata","setelement":"Guadalupe"},{"postalCode":"90548","state":"Tlaxcala","municipality":"Emiliano Zapata","setelement":"Ahilitla"},{"postalCode":"90548","state":"Tlaxcala","municipality":"Emiliano Zapata","setelement":"San Nicolás"},{"postalCode":"90548","state":"Tlaxcala","municipality":"Emiliano Zapata","setelement":"Las Palomas"},{"postalCode":"90548","state":"Tlaxcala","municipality":"Emiliano Zapata","setelement":"Guardamonte"},{"postalCode":"90548","state":"Tlaxcala","municipality":"Emiliano Zapata","setelement":"Vista Hermosa"},{"postalCode":"90548","state":"Tlaxcala","municipality":"Emiliano Zapata","setelement":"La Venta"},{"postalCode":"90548","state":"Tlaxcala","municipality":"Emiliano Zapata","setelement":"Cruz Verde"},{"postalCode":"90548","state":"Tlaxcala","municipality":"Emiliano Zapata","setelement":"Tlaximaloya (La Amapola)"},{"postalCode":"90548","state":"Tlaxcala","municipality":"Emiliano Zapata","setelement":"Ojo de Agua"},{"postalCode":"90548","state":"Tlaxcala","municipality":"Emiliano Zapata","setelement":"Gustavo Díaz Ordaz"},{"postalCode":"90548","state":"Tlaxcala","municipality":"Emiliano Zapata","setelement":"La Loma"},{"postalCode":"90548","state":"Tlaxcala","municipality":"Emiliano Zapata","setelement":"Tecoaquillo"},{"postalCode":"90548","state":"Tlaxcala","municipality":"Emiliano Zapata","setelement":"El Ciprés"},{"postalCode":"90548","state":"Tlaxcala","municipality":"Emiliano Zapata","setelement":"Tres Ríos"},{"postalCode":"90548","state":"Tlaxcala","municipality":"Emiliano Zapata","setelement":"El Epazote"},{"postalCode":"90548","state":"Tlaxcala","municipality":"Emiliano Zapata","setelement":"Coamila"},{"postalCode":"90548","state":"Tlaxcala","municipality":"Emiliano Zapata","setelement":"Atotonilco"},{"postalCode":"90548","state":"Tlaxcala","municipality":"Emiliano Zapata","setelement":"Los Encinos"},{"postalCode":"90548","state":"Tlaxcala","municipality":"Emiliano Zapata","setelement":"Tipitzila"},{"postalCode":"90550","state":"Tlaxcala","municipality":"Atltzayanca","setelement":"De la Concepción"},{"postalCode":"90550","state":"Tlaxcala","municipality":"Atltzayanca","setelement":"Santiago"},{"postalCode":"90550","state":"Tlaxcala","municipality":"Atltzayanca","setelement":"San Antonio"},{"postalCode":"90553","state":"Tlaxcala","municipality":"Atltzayanca","setelement":"La Garita"},{"postalCode":"90554","state":"Tlaxcala","municipality":"Atltzayanca","setelement":"Xaltitla"},{"postalCode":"90554","state":"Tlaxcala","municipality":"Atltzayanca","setelement":"San José Buenavista"},{"postalCode":"90554","state":"Tlaxcala","municipality":"Atltzayanca","setelement":"San José Pilancón"},{"postalCode":"90554","state":"Tlaxcala","municipality":"Atltzayanca","setelement":"San Francisco Axopilco"},{"postalCode":"90554","state":"Tlaxcala","municipality":"Atltzayanca","setelement":"San José Miravalle"},{"postalCode":"90554","state":"Tlaxcala","municipality":"Atltzayanca","setelement":"Carreta"},{"postalCode":"90554","state":"Tlaxcala","municipality":"Atltzayanca","setelement":"José Fernández"},{"postalCode":"90554","state":"Tlaxcala","municipality":"Atltzayanca","setelement":"Aurelio Aguilar"},{"postalCode":"90554","state":"Tlaxcala","municipality":"Atltzayanca","setelement":"Techachalco"},{"postalCode":"90554","state":"Tlaxcala","municipality":"Atltzayanca","setelement":"Xarero Xaltitla"},{"postalCode":"90554","state":"Tlaxcala","municipality":"Atltzayanca","setelement":"San Antonio Tecopilco"},{"postalCode":"90555","state":"Tlaxcala","municipality":"Atltzayanca","setelement":"Concepción Hidalgo"},{"postalCode":"90555","state":"Tlaxcala","municipality":"Atltzayanca","setelement":"Felipe Carrillo Puerto"},{"postalCode":"90555","state":"Tlaxcala","municipality":"Atltzayanca","setelement":"Lázaro Cárdenas"},{"postalCode":"90555","state":"Tlaxcala","municipality":"Atltzayanca","setelement":"La Rincona"},{"postalCode":"90555","state":"Tlaxcala","municipality":"Atltzayanca","setelement":"La Soledad Loma de Ocotla"},{"postalCode":"90555","state":"Tlaxcala","municipality":"Atltzayanca","setelement":"Blanco"},{"postalCode":"90555","state":"Tlaxcala","municipality":"Atltzayanca","setelement":"Jesús"},{"postalCode":"90555","state":"Tlaxcala","municipality":"Atltzayanca","setelement":"Mazehualpa"},{"postalCode":"90555","state":"Tlaxcala","municipality":"Atltzayanca","setelement":"Ocotla"},{"postalCode":"90556","state":"Tlaxcala","municipality":"Atltzayanca","setelement":"Mesa Redonda"},{"postalCode":"90556","state":"Tlaxcala","municipality":"Atltzayanca","setelement":"San Juan Ocotitla"},{"postalCode":"90557","state":"Tlaxcala","municipality":"Atltzayanca","setelement":"Nexnopala"},{"postalCode":"90557","state":"Tlaxcala","municipality":"Atltzayanca","setelement":"La Higuera"},{"postalCode":"90557","state":"Tlaxcala","municipality":"Atltzayanca","setelement":"Nazareth"},{"postalCode":"90557","state":"Tlaxcala","municipality":"Atltzayanca","setelement":"San Miguel Franco"},{"postalCode":"90557","state":"Tlaxcala","municipality":"Atltzayanca","setelement":"Santa Martha"},{"postalCode":"90557","state":"Tlaxcala","municipality":"Atltzayanca","setelement":"Guadalupe"},{"postalCode":"90557","state":"Tlaxcala","municipality":"Atltzayanca","setelement":"San José Xalasco"},{"postalCode":"90557","state":"Tlaxcala","municipality":"Atltzayanca","setelement":"Delicias"},{"postalCode":"90558","state":"Tlaxcala","municipality":"Atltzayanca","setelement":"Santa Cruz Pocitos"},{"postalCode":"90558","state":"Tlaxcala","municipality":"Atltzayanca","setelement":"Santa María las Cuevas"},{"postalCode":"90558","state":"Tlaxcala","municipality":"Atltzayanca","setelement":"El Piñonal (Guadalupe el Piñonal)"},{"postalCode":"90558","state":"Tlaxcala","municipality":"Atltzayanca","setelement":"Los Ocalitos"},{"postalCode":"90558","state":"Tlaxcala","municipality":"Atltzayanca","setelement":"Miahuapan el Alto"},{"postalCode":"90558","state":"Tlaxcala","municipality":"Atltzayanca","setelement":"Miahuapan el Bajo"},{"postalCode":"90558","state":"Tlaxcala","municipality":"Atltzayanca","setelement":"Pocitos"},{"postalCode":"90558","state":"Tlaxcala","municipality":"Atltzayanca","setelement":"Loma de Junguito"},{"postalCode":"90560","state":"Tlaxcala","municipality":"Cuapiaxtla","setelement":"San Antonio"},{"postalCode":"90560","state":"Tlaxcala","municipality":"Cuapiaxtla","setelement":"Los Ángeles"},{"postalCode":"90560","state":"Tlaxcala","municipality":"Cuapiaxtla","setelement":"Alta Luz"},{"postalCode":"90560","state":"Tlaxcala","municipality":"Cuapiaxtla","setelement":"De Guadalupe"},{"postalCode":"90560","state":"Tlaxcala","municipality":"Cuapiaxtla","setelement":"San Miguel"},{"postalCode":"90562","state":"Tlaxcala","municipality":"Cuapiaxtla","setelement":"San Francisco Cuexcontzi"},{"postalCode":"90562","state":"Tlaxcala","municipality":"Cuapiaxtla","setelement":"San Francisco Cuexcomatepec"},{"postalCode":"90563","state":"Tlaxcala","municipality":"Cuapiaxtla","setelement":"La Soledad"},{"postalCode":"90563","state":"Tlaxcala","municipality":"Cuapiaxtla","setelement":"San Cristóbal del Río"},{"postalCode":"90563","state":"Tlaxcala","municipality":"Cuapiaxtla","setelement":"Egipto"},{"postalCode":"90563","state":"Tlaxcala","municipality":"Cuapiaxtla","setelement":"José María Morelos"},{"postalCode":"90564","state":"Tlaxcala","municipality":"Cuapiaxtla","setelement":"Granja de Guadalupe"},{"postalCode":"90564","state":"Tlaxcala","municipality":"Cuapiaxtla","setelement":"El Tejocote"},{"postalCode":"90564","state":"Tlaxcala","municipality":"Cuapiaxtla","setelement":"Mazarraza"},{"postalCode":"90564","state":"Tlaxcala","municipality":"Cuapiaxtla","setelement":"Del Valle"},{"postalCode":"90564","state":"Tlaxcala","municipality":"Cuapiaxtla","setelement":"Santa Rebeca"},{"postalCode":"90564","state":"Tlaxcala","municipality":"Cuapiaxtla","setelement":"Plan de Ayala"},{"postalCode":"90565","state":"Tlaxcala","municipality":"Cuapiaxtla","setelement":"Loma Bonita"},{"postalCode":"90565","state":"Tlaxcala","municipality":"Cuapiaxtla","setelement":"Santa Fe Uno"},{"postalCode":"90565","state":"Tlaxcala","municipality":"Cuapiaxtla","setelement":"Manuel Ávila Camacho"},{"postalCode":"90565","state":"Tlaxcala","municipality":"Cuapiaxtla","setelement":"Santa Beatriz la Nueva"},{"postalCode":"90567","state":"Tlaxcala","municipality":"Cuapiaxtla","setelement":"La Asunción Rascona"},{"postalCode":"90568","state":"Tlaxcala","municipality":"Cuapiaxtla","setelement":"Ignacio Allende"},{"postalCode":"90568","state":"Tlaxcala","municipality":"Cuapiaxtla","setelement":"Allende"},{"postalCode":"90568","state":"Tlaxcala","municipality":"Cuapiaxtla","setelement":"San Rafael Tepatlaxco (Unión y Progreso)"},{"postalCode":"90568","state":"Tlaxcala","municipality":"Cuapiaxtla","setelement":"San Miguel Teometitla"},{"postalCode":"90568","state":"Tlaxcala","municipality":"Cuapiaxtla","setelement":"La Granja (Camino a Franco)"},{"postalCode":"90570","state":"Tlaxcala","municipality":"El Carmen Tequexquitla","setelement":"Villa del Carmen Tequexquitla"},{"postalCode":"90570","state":"Tlaxcala","municipality":"El Carmen Tequexquitla","setelement":"De Guadalupe"},{"postalCode":"90573","state":"Tlaxcala","municipality":"El Carmen Tequexquitla","setelement":"Mazatepec"},{"postalCode":"90575","state":"Tlaxcala","municipality":"El Carmen Tequexquitla","setelement":"La Soledad"},{"postalCode":"90576","state":"Tlaxcala","municipality":"El Carmen Tequexquitla","setelement":"Vicente Guerrero"},{"postalCode":"90577","state":"Tlaxcala","municipality":"El Carmen Tequexquitla","setelement":"Ocotlán Temalacayucan"},{"postalCode":"90580","state":"Tlaxcala","municipality":"Ixtenco","setelement":"San Juan Sección Uno"},{"postalCode":"90580","state":"Tlaxcala","municipality":"Ixtenco","setelement":"San Juan Sección Dos"},{"postalCode":"90583","state":"Tlaxcala","municipality":"Ixtenco","setelement":"Santiago"},{"postalCode":"90583","state":"Tlaxcala","municipality":"Ixtenco","setelement":"Resurrección Sección Dos"},{"postalCode":"90583","state":"Tlaxcala","municipality":"Ixtenco","setelement":"San Gabriel Sección Dos"},{"postalCode":"90584","state":"Tlaxcala","municipality":"Ixtenco","setelement":"San Gabriel Sección Uno"},{"postalCode":"90584","state":"Tlaxcala","municipality":"Ixtenco","setelement":"Resurrección Sección Uno"},{"postalCode":"90585","state":"Tlaxcala","municipality":"Ixtenco","setelement":"San Antonio Sección Uno"},{"postalCode":"90585","state":"Tlaxcala","municipality":"Ixtenco","setelement":"San Antonio Sección Dos"},{"postalCode":"90586","state":"Tlaxcala","municipality":"Ixtenco","setelement":"La Era"},{"postalCode":"90590","state":"Tlaxcala","municipality":"Ziltlaltépec de Trinidad Sánchez Santos","setelement":"Zitlaltépec"},{"postalCode":"90590","state":"Tlaxcala","municipality":"Ziltlaltépec de Trinidad Sánchez Santos","setelement":"Guadalupe"},{"postalCode":"90592","state":"Tlaxcala","municipality":"Ziltlaltépec de Trinidad Sánchez Santos","setelement":"San Juan Bautista Mier"},{"postalCode":"90594","state":"Tlaxcala","municipality":"Ziltlaltépec de Trinidad Sánchez Santos","setelement":"El Lindero"},{"postalCode":"90595","state":"Tlaxcala","municipality":"Ziltlaltépec de Trinidad Sánchez Santos","setelement":"Guadalupe los Capulines"},{"postalCode":"90596","state":"Tlaxcala","municipality":"Ziltlaltépec de Trinidad Sánchez Santos","setelement":"Francisco Javier Mina"},{"postalCode":"90600","state":"Tlaxcala","municipality":"Apetatitlán de Antonio Carvajal","setelement":"Providencia"},{"postalCode":"90600","state":"Tlaxcala","municipality":"Apetatitlán de Antonio Carvajal","setelement":"Apetatitlán"},{"postalCode":"90600","state":"Tlaxcala","municipality":"Apetatitlán de Antonio Carvajal","setelement":"Petroquímica"},{"postalCode":"90600","state":"Tlaxcala","municipality":"Apetatitlán de Antonio Carvajal","setelement":"Tlahuicole IMSS"},{"postalCode":"90605","state":"Tlaxcala","municipality":"Apetatitlán de Antonio Carvajal","setelement":"Belén Atzitzimititlán"},{"postalCode":"90606","state":"Tlaxcala","municipality":"Apetatitlán de Antonio Carvajal","setelement":"La Loma"},{"postalCode":"90606","state":"Tlaxcala","municipality":"Apetatitlán de Antonio Carvajal","setelement":"San Matías Tepetomatitlán"},{"postalCode":"90608","state":"Tlaxcala","municipality":"Apetatitlán de Antonio Carvajal","setelement":"Tecolotla"},{"postalCode":"90610","state":"Tlaxcala","municipality":"Apetatitlán de Antonio Carvajal","setelement":"Tlatempan"},{"postalCode":"90610","state":"Tlaxcala","municipality":"Apetatitlán de Antonio Carvajal","setelement":"Jesús"},{"postalCode":"90620","state":"Tlaxcala","municipality":"Amaxac de Guerrero","setelement":"Amaxac de Guerrero"},{"postalCode":"90623","state":"Tlaxcala","municipality":"Amaxac de Guerrero","setelement":"Tercera Sección"},{"postalCode":"90624","state":"Tlaxcala","municipality":"Amaxac de Guerrero","setelement":"Primera Sección"},{"postalCode":"90630","state":"Tlaxcala","municipality":"Amaxac de Guerrero","setelement":"La Preciosa"},{"postalCode":"90635","state":"Tlaxcala","municipality":"Amaxac de Guerrero","setelement":"San Damián Tlacocalpan"},{"postalCode":"90640","state":"Tlaxcala","municipality":"Santa Cruz Tlaxcala","setelement":"Guadalupe Tlachco"},{"postalCode":"90640","state":"Tlaxcala","municipality":"Santa Cruz Tlaxcala","setelement":"San Lucas Tlacochcalco"},{"postalCode":"90640","state":"Tlaxcala","municipality":"Santa Cruz Tlaxcala","setelement":"San Miguel Contla"},{"postalCode":"90640","state":"Tlaxcala","municipality":"Santa Cruz Tlaxcala","setelement":"Santa Cruz Tlaxcala"},{"postalCode":"90640","state":"Tlaxcala","municipality":"Santa Cruz Tlaxcala","setelement":"Ex-Hacienda San Manuel"},{"postalCode":"90640","state":"Tlaxcala","municipality":"Santa Cruz Tlaxcala","setelement":"Llano Viejo"},{"postalCode":"90640","state":"Tlaxcala","municipality":"Santa Cruz Tlaxcala","setelement":"El Arcángel"},{"postalCode":"90640","state":"Tlaxcala","municipality":"Santa Cruz Tlaxcala","setelement":"Villas de San Miguel II"},{"postalCode":"90643","state":"Tlaxcala","municipality":"Santa Cruz Tlaxcala","setelement":"Tepetlacinco"},{"postalCode":"90644","state":"Tlaxcala","municipality":"Santa Cruz Tlaxcala","setelement":"El Progreso"},{"postalCode":"90644","state":"Tlaxcala","municipality":"Santa Cruz Tlaxcala","setelement":"Tetzotzocola"},{"postalCode":"90644","state":"Tlaxcala","municipality":"Santa Cruz Tlaxcala","setelement":"El Alto"},{"postalCode":"90644","state":"Tlaxcala","municipality":"Santa Cruz Tlaxcala","setelement":"Analco"},{"postalCode":"90644","state":"Tlaxcala","municipality":"Santa Cruz Tlaxcala","setelement":"Ixaquixtla"},{"postalCode":"90645","state":"Tlaxcala","municipality":"Santa Cruz Tlaxcala","setelement":"Centro Vacacional la Trinidad"},{"postalCode":"90646","state":"Tlaxcala","municipality":"Santa Cruz Tlaxcala","setelement":"Potrero Viejo"},{"postalCode":"90650","state":"Tlaxcala","municipality":"Santa Cruz Tlaxcala","setelement":"Jesús Huitznáhuac"},{"postalCode":"90653","state":"Tlaxcala","municipality":"Santa Cruz Tlaxcala","setelement":"Xamistla"},{"postalCode":"90660","state":"Tlaxcala","municipality":"Cuaxomulco","setelement":"San Miguel Buenavista"},{"postalCode":"90660","state":"Tlaxcala","municipality":"Cuaxomulco","setelement":"San Antonio"},{"postalCode":"90660","state":"Tlaxcala","municipality":"Cuaxomulco","setelement":"San Lorenzo Xaltelulco"},{"postalCode":"90660","state":"Tlaxcala","municipality":"Cuaxomulco","setelement":"Tepechapa"},{"postalCode":"90660","state":"Tlaxcala","municipality":"Cuaxomulco","setelement":"Zacamolpa"},{"postalCode":"90660","state":"Tlaxcala","municipality":"Cuaxomulco","setelement":"Primera Sección Atenco"},{"postalCode":"90660","state":"Tlaxcala","municipality":"Cuaxomulco","setelement":"Segunda Sección Tecuicuilco"},{"postalCode":"90660","state":"Tlaxcala","municipality":"Cuaxomulco","setelement":"Centro"},{"postalCode":"90660","state":"Tlaxcala","municipality":"Cuaxomulco","setelement":"Coxtla"},{"postalCode":"90660","state":"Tlaxcala","municipality":"Cuaxomulco","setelement":"Tecola"},{"postalCode":"90670","state":"Tlaxcala","municipality":"Contla de Juan Cuamatzi","setelement":"San Bernardino Contla Centro"},{"postalCode":"90670","state":"Tlaxcala","municipality":"Contla de Juan Cuamatzi","setelement":"Zencalco"},{"postalCode":"90670","state":"Tlaxcala","municipality":"Contla de Juan Cuamatzi","setelement":"Villa Chica"},{"postalCode":"90670","state":"Tlaxcala","municipality":"Contla de Juan Cuamatzi","setelement":"San Antonio"},{"postalCode":"90670","state":"Tlaxcala","municipality":"Contla de Juan Cuamatzi","setelement":"Xopantla"},{"postalCode":"90670","state":"Tlaxcala","municipality":"Contla de Juan Cuamatzi","setelement":"La Conchita"},{"postalCode":"90676","state":"Tlaxcala","municipality":"Contla de Juan Cuamatzi","setelement":"Santa María Tlacatecpa"},{"postalCode":"90676","state":"Tlaxcala","municipality":"Contla de Juan Cuamatzi","setelement":"Colhuaca"},{"postalCode":"90676","state":"Tlaxcala","municipality":"Contla de Juan Cuamatzi","setelement":"Netzahuala"},{"postalCode":"90680","state":"Tlaxcala","municipality":"Contla de Juan Cuamatzi","setelement":"San Miguel Xaltipa"},{"postalCode":"90690","state":"Tlaxcala","municipality":"Contla de Juan Cuamatzi","setelement":"San Felipe Cuauhtenco"},{"postalCode":"90692","state":"Tlaxcala","municipality":"Contla de Juan Cuamatzi","setelement":"San José Aztatla"},{"postalCode":"90692","state":"Tlaxcala","municipality":"Contla de Juan Cuamatzi","setelement":"Ocotlán de Tepatlaxco"},{"postalCode":"90692","state":"Tlaxcala","municipality":"Contla de Juan Cuamatzi","setelement":"La Luz"},{"postalCode":"90693","state":"Tlaxcala","municipality":"Contla de Juan Cuamatzi","setelement":"Santa María Aquiáhuac"},{"postalCode":"90693","state":"Tlaxcala","municipality":"Contla de Juan Cuamatzi","setelement":"Ixtlahuaca"},{"postalCode":"90700","state":"Tlaxcala","municipality":"Tepetitla de Lardizábal","setelement":"San Mateo Ayecac"},{"postalCode":"90700","state":"Tlaxcala","municipality":"Tepetitla de Lardizábal","setelement":"Tepetitla"},{"postalCode":"90700","state":"Tlaxcala","municipality":"Tepetitla de Lardizábal","setelement":"Villa Alta"},{"postalCode":"90700","state":"Tlaxcala","municipality":"Tepetitla de Lardizábal","setelement":"Residencial las Palomas"},{"postalCode":"90700","state":"Tlaxcala","municipality":"Tepetitla de Lardizábal","setelement":"Atalaya"},{"postalCode":"90700","state":"Tlaxcala","municipality":"Tepetitla de Lardizábal","setelement":"Guadalupe Victoria"},{"postalCode":"90710","state":"Tlaxcala","municipality":"Natívitas","setelement":"La Concordia"},{"postalCode":"90710","state":"Tlaxcala","municipality":"Natívitas","setelement":"Nativitas"},{"postalCode":"90712","state":"Tlaxcala","municipality":"Natívitas","setelement":"San Bernabé Capula"},{"postalCode":"90712","state":"Tlaxcala","municipality":"Natívitas","setelement":"San Miguel del Milagro"},{"postalCode":"90712","state":"Tlaxcala","municipality":"Natívitas","setelement":"San Miguel Xochitecatitla"},{"postalCode":"90713","state":"Tlaxcala","municipality":"Natívitas","setelement":"Jesús Tepactepec"},{"postalCode":"90715","state":"Tlaxcala","municipality":"Natívitas","setelement":"Guadalupe Victoria"},{"postalCode":"90716","state":"Tlaxcala","municipality":"Natívitas","setelement":"San Vicente Xiloxochitla"},{"postalCode":"90716","state":"Tlaxcala","municipality":"Natívitas","setelement":"San Francisco Tenexyecac"},{"postalCode":"90716","state":"Tlaxcala","municipality":"Natívitas","setelement":"Emiliano Zapata"},{"postalCode":"90716","state":"Tlaxcala","municipality":"Natívitas","setelement":"Santa Cruz"},{"postalCode":"90717","state":"Tlaxcala","municipality":"Natívitas","setelement":"San José Atoyatenco"},{"postalCode":"90717","state":"Tlaxcala","municipality":"Natívitas","setelement":"Colecturía"},{"postalCode":"90717","state":"Tlaxcala","municipality":"Natívitas","setelement":"Matamoros"},{"postalCode":"90717","state":"Tlaxcala","municipality":"Natívitas","setelement":"El Rosario"},{"postalCode":"90718","state":"Tlaxcala","municipality":"Natívitas","setelement":"San Rafael Tenanyecac"},{"postalCode":"90721","state":"Tlaxcala","municipality":"Natívitas","setelement":"Santiago Michac"},{"postalCode":"90722","state":"Tlaxcala","municipality":"Natívitas","setelement":"San Miguel Analco"},{"postalCode":"90722","state":"Tlaxcala","municipality":"Natívitas","setelement":"Santa Clara Atoyac"},{"postalCode":"90722","state":"Tlaxcala","municipality":"Natívitas","setelement":"San Miguel Tlale"},{"postalCode":"90722","state":"Tlaxcala","municipality":"Natívitas","setelement":"San Juan Tepactepec"},{"postalCode":"90722","state":"Tlaxcala","municipality":"Natívitas","setelement":"La Cabaña"},{"postalCode":"90722","state":"Tlaxcala","municipality":"Natívitas","setelement":"La Remolacha"},{"postalCode":"90722","state":"Tlaxcala","municipality":"Natívitas","setelement":"San Antonio Teacalco"},{"postalCode":"90723","state":"Tlaxcala","municipality":"Natívitas","setelement":"Santa Elena"},{"postalCode":"90723","state":"Tlaxcala","municipality":"Natívitas","setelement":"Segura Michac"},{"postalCode":"90723","state":"Tlaxcala","municipality":"Natívitas","setelement":"Loma Verde"},{"postalCode":"90723","state":"Tlaxcala","municipality":"Natívitas","setelement":"NCP Santa Elena Teacalco"},{"postalCode":"90723","state":"Tlaxcala","municipality":"Natívitas","setelement":"San Antonio"},{"postalCode":"90723","state":"Tlaxcala","municipality":"Natívitas","setelement":"Zanja Real"},{"postalCode":"90725","state":"Tlaxcala","municipality":"Santa Apolonia Teacalco","setelement":"Santa Apolonia Teacalco"},{"postalCode":"90725","state":"Tlaxcala","municipality":"Santa Apolonia Teacalco","setelement":"El Ranchito"},{"postalCode":"90725","state":"Tlaxcala","municipality":"Santa Apolonia Teacalco","setelement":"El Carril"},{"postalCode":"90730","state":"Tlaxcala","municipality":"Tetlatlahuca","setelement":"Santa Isabel Tetlatlahuca"},{"postalCode":"90730","state":"Tlaxcala","municipality":"Tetlatlahuca","setelement":"Santa Cruz Aquiahuac"},{"postalCode":"90730","state":"Tlaxcala","municipality":"Tetlatlahuca","setelement":"Atenco"},{"postalCode":"90733","state":"Tlaxcala","municipality":"Tetlatlahuca","setelement":"Val Quirico"},{"postalCode":"90733","state":"Tlaxcala","municipality":"Tetlatlahuca","setelement":"Equiah Villa Sustentable"},{"postalCode":"90733","state":"Tlaxcala","municipality":"Tetlatlahuca","setelement":"Santa Ana Portales"},{"postalCode":"90733","state":"Tlaxcala","municipality":"Tetlatlahuca","setelement":"Santa Águeda"},{"postalCode":"90734","state":"Tlaxcala","municipality":"Tetlatlahuca","setelement":"San Bartolomé Tenango"},{"postalCode":"90734","state":"Tlaxcala","municipality":"Tetlatlahuca","setelement":"San Andrés Cuamilpa"},{"postalCode":"90734","state":"Tlaxcala","municipality":"Tetlatlahuca","setelement":"Santa Cruz Capulinares"},{"postalCode":"90735","state":"Tlaxcala","municipality":"San Damián Texóloc","setelement":"El Alto"},{"postalCode":"90736","state":"Tlaxcala","municipality":"San Damián Texóloc","setelement":"Monterrey"},{"postalCode":"90736","state":"Tlaxcala","municipality":"San Damián Texóloc","setelement":"Zavaleta"},{"postalCode":"90736","state":"Tlaxcala","municipality":"San Damián Texóloc","setelement":"La Cueva"},{"postalCode":"90737","state":"Tlaxcala","municipality":"San Damián Texóloc","setelement":"Luis Echeverría"},{"postalCode":"90738","state":"Tlaxcala","municipality":"San Jerónimo Zacualpan","setelement":"San Jerónimo Zacualpan"},{"postalCode":"90740","state":"Tlaxcala","municipality":"Zacatelco","setelement":"Sección Segunda"},{"postalCode":"90740","state":"Tlaxcala","municipality":"Zacatelco","setelement":"Sección Primera"},{"postalCode":"90740","state":"Tlaxcala","municipality":"Zacatelco","setelement":"La Libertad"},{"postalCode":"90740","state":"Tlaxcala","municipality":"Zacatelco","setelement":"Alberto Juárez Blancas"},{"postalCode":"90740","state":"Tlaxcala","municipality":"Zacatelco","setelement":"Las Palomas"},{"postalCode":"90750","state":"Tlaxcala","municipality":"Zacatelco","setelement":"Sección Tercera Gurdia"},{"postalCode":"90750","state":"Tlaxcala","municipality":"Zacatelco","setelement":"Sección Cuarta"},{"postalCode":"90750","state":"Tlaxcala","municipality":"Zacatelco","setelement":"Sección Quinta"},{"postalCode":"90750","state":"Tlaxcala","municipality":"Zacatelco","setelement":"Exquitla"},{"postalCode":"90750","state":"Tlaxcala","municipality":"Zacatelco","setelement":"Xochicalco"},{"postalCode":"90750","state":"Tlaxcala","municipality":"Zacatelco","setelement":"CROM Santa Inés"},{"postalCode":"90750","state":"Tlaxcala","municipality":"Zacatelco","setelement":"Girasoles"},{"postalCode":"90750","state":"Tlaxcala","municipality":"Zacatelco","setelement":"Guardia"},{"postalCode":"90750","state":"Tlaxcala","municipality":"Zacatelco","setelement":"Las Américas"},{"postalCode":"90750","state":"Tlaxcala","municipality":"Zacatelco","setelement":"Privansa"},{"postalCode":"90754","state":"Tlaxcala","municipality":"Zacatelco","setelement":"Domingo Arenas"},{"postalCode":"90760","state":"Tlaxcala","municipality":"San Lorenzo Axocomanitla","setelement":"San Lorenzo Axocomanitla"},{"postalCode":"90770","state":"Tlaxcala","municipality":"Santa Catarina Ayometla","setelement":"Santa Catarina Ayometla"},{"postalCode":"90773","state":"Tlaxcala","municipality":"Santa Catarina Ayometla","setelement":"Estocapa"},{"postalCode":"90774","state":"Tlaxcala","municipality":"Santa Catarina Ayometla","setelement":"Tlapayatla"},{"postalCode":"90775","state":"Tlaxcala","municipality":"Santa Catarina Ayometla","setelement":"Tlaxcaltecatla"},{"postalCode":"90780","state":"Tlaxcala","municipality":"Xicohtzinco","setelement":"Xicohtzingo"},{"postalCode":"90780","state":"Tlaxcala","municipality":"Xicohtzinco","setelement":"Santa Filomena"},{"postalCode":"90780","state":"Tlaxcala","municipality":"Xicohtzinco","setelement":"San Isidro"},{"postalCode":"90780","state":"Tlaxcala","municipality":"Xicohtzinco","setelement":"Guadalupe"},{"postalCode":"90780","state":"Tlaxcala","municipality":"Xicohtzinco","setelement":"El Rancho"},{"postalCode":"90780","state":"Tlaxcala","municipality":"Xicohtzinco","setelement":"El Llano"},{"postalCode":"90780","state":"Tlaxcala","municipality":"Xicohtzinco","setelement":"Capulín"},{"postalCode":"90780","state":"Tlaxcala","municipality":"Xicohtzinco","setelement":"El Cerrito"},{"postalCode":"90780","state":"Tlaxcala","municipality":"Xicohtzinco","setelement":"Chalma"},{"postalCode":"90780","state":"Tlaxcala","municipality":"Xicohtzinco","setelement":"Techaloya"},{"postalCode":"90780","state":"Tlaxcala","municipality":"Xicohtzinco","setelement":"El Llano 2"},{"postalCode":"90780","state":"Tlaxcala","municipality":"Xicohtzinco","setelement":"El Llano 1"},{"postalCode":"90790","state":"Tlaxcala","municipality":"Papalotla de Xicohténcatl","setelement":"San Francisco Papalotla Centro"},{"postalCode":"90790","state":"Tlaxcala","municipality":"Papalotla de Xicohténcatl","setelement":"San Juan Bosco"},{"postalCode":"90790","state":"Tlaxcala","municipality":"Papalotla de Xicohténcatl","setelement":"Xilotzingo"},{"postalCode":"90790","state":"Tlaxcala","municipality":"Papalotla de Xicohténcatl","setelement":"Xolalpa"},{"postalCode":"90790","state":"Tlaxcala","municipality":"Papalotla de Xicohténcatl","setelement":"Xaltipa"},{"postalCode":"90790","state":"Tlaxcala","municipality":"Papalotla de Xicohténcatl","setelement":"El Carmen"},{"postalCode":"90790","state":"Tlaxcala","municipality":"Papalotla de Xicohténcatl","setelement":"La Trinidad"},{"postalCode":"90790","state":"Tlaxcala","municipality":"Papalotla de Xicohténcatl","setelement":"Los Reyes"},{"postalCode":"90791","state":"Tlaxcala","municipality":"Papalotla de Xicohténcatl","setelement":"San Marcos Contla"},{"postalCode":"90796","state":"Tlaxcala","municipality":"Papalotla de Xicohténcatl","setelement":"Panzacola"},{"postalCode":"90796","state":"Tlaxcala","municipality":"Papalotla de Xicohténcatl","setelement":"San Buenaventura"},{"postalCode":"90796","state":"Tlaxcala","municipality":"Papalotla de Xicohténcatl","setelement":"Tenantitla"},{"postalCode":"90796","state":"Tlaxcala","municipality":"Papalotla de Xicohténcatl","setelement":"La Ciénega"},{"postalCode":"90796","state":"Tlaxcala","municipality":"Papalotla de Xicohténcatl","setelement":"Santo Toribio Xicotzinco"},{"postalCode":"90800","state":"Tlaxcala","municipality":"Chiautempan","setelement":"Santa Ana Chiautempan Centro"},{"postalCode":"90800","state":"Tlaxcala","municipality":"Chiautempan","setelement":"Xaltantla"},{"postalCode":"90800","state":"Tlaxcala","municipality":"Chiautempan","setelement":"Lucero"},{"postalCode":"90802","state":"Tlaxcala","municipality":"Chiautempan","setelement":"Buenos Aires"},{"postalCode":"90802","state":"Tlaxcala","municipality":"Chiautempan","setelement":"Industrial"},{"postalCode":"90802","state":"Tlaxcala","municipality":"Chiautempan","setelement":"Los Pinos"},{"postalCode":"90802","state":"Tlaxcala","municipality":"Chiautempan","setelement":"Puente Picazo"},{"postalCode":"90802","state":"Tlaxcala","municipality":"Chiautempan","setelement":"Ximentla"},{"postalCode":"90802","state":"Tlaxcala","municipality":"Chiautempan","setelement":"Santa Cruz"},{"postalCode":"90802","state":"Tlaxcala","municipality":"Chiautempan","setelement":"San Onofre"},{"postalCode":"90802","state":"Tlaxcala","municipality":"Chiautempan","setelement":"Santa Cruz Tetela"},{"postalCode":"90802","state":"Tlaxcala","municipality":"Chiautempan","setelement":"Llanos de Tepetlapa"},{"postalCode":"90802","state":"Tlaxcala","municipality":"Chiautempan","setelement":"La Magdalena"},{"postalCode":"90803","state":"Tlaxcala","municipality":"Chiautempan","setelement":"Tlapacoyac"},{"postalCode":"90803","state":"Tlaxcala","municipality":"Chiautempan","setelement":"Villa de las Flores"},{"postalCode":"90804","state":"Tlaxcala","municipality":"Chiautempan","setelement":"Chalma"},{"postalCode":"90804","state":"Tlaxcala","municipality":"Chiautempan","setelement":"El Llanito"},{"postalCode":"90804","state":"Tlaxcala","municipality":"Chiautempan","setelement":"De Fátima"},{"postalCode":"90804","state":"Tlaxcala","municipality":"Chiautempan","setelement":"La Laguna"},{"postalCode":"90804","state":"Tlaxcala","municipality":"Chiautempan","setelement":"Los Álamos"},{"postalCode":"90805","state":"Tlaxcala","municipality":"Chiautempan","setelement":"José Agustín Arrieta"},{"postalCode":"90805","state":"Tlaxcala","municipality":"Chiautempan","setelement":"La Concha"},{"postalCode":"90805","state":"Tlaxcala","municipality":"Chiautempan","setelement":"Panzacola"},{"postalCode":"90805","state":"Tlaxcala","municipality":"Chiautempan","setelement":"Panzacola"},{"postalCode":"90805","state":"Tlaxcala","municipality":"Chiautempan","setelement":"Reforma"},{"postalCode":"90805","state":"Tlaxcala","municipality":"Chiautempan","setelement":"Tepetlapa"},{"postalCode":"90805","state":"Tlaxcala","municipality":"Chiautempan","setelement":"Del Carmen"},{"postalCode":"90805","state":"Tlaxcala","municipality":"Chiautempan","setelement":"La Soledad"},{"postalCode":"90805","state":"Tlaxcala","municipality":"Chiautempan","setelement":"San Sebastián"},{"postalCode":"90806","state":"Tlaxcala","municipality":"Chiautempan","setelement":"Nueva"},{"postalCode":"90806","state":"Tlaxcala","municipality":"Chiautempan","setelement":"Texcacoac"},{"postalCode":"90806","state":"Tlaxcala","municipality":"Chiautempan","setelement":"Xaxala"},{"postalCode":"90806","state":"Tlaxcala","municipality":"Chiautempan","setelement":"Constitución"},{"postalCode":"90806","state":"Tlaxcala","municipality":"Chiautempan","setelement":"Texcacoac"},{"postalCode":"90807","state":"Tlaxcala","municipality":"Chiautempan","setelement":"El Alto"},{"postalCode":"90807","state":"Tlaxcala","municipality":"Chiautempan","setelement":"La Malinche"},{"postalCode":"90807","state":"Tlaxcala","municipality":"Chiautempan","setelement":"Villas del Sabinal"},{"postalCode":"90810","state":"Tlaxcala","municipality":"Chiautempan","setelement":"Guadalupe Ixcotla"},{"postalCode":"90810","state":"Tlaxcala","municipality":"Chiautempan","setelement":"Santa Cruz Guadalupe"},{"postalCode":"90820","state":"Tlaxcala","municipality":"Chiautempan","setelement":"San Bartolomé Cuahuixmatlac"},{"postalCode":"90820","state":"Tlaxcala","municipality":"Chiautempan","setelement":"San Pedro Xochiteotla"},{"postalCode":"90820","state":"Tlaxcala","municipality":"Chiautempan","setelement":"San Pedro Muñoztla"},{"postalCode":"90820","state":"Tlaxcala","municipality":"Chiautempan","setelement":"San Pedro Tlalcuapan de Nicolás Bravo"},{"postalCode":"90820","state":"Tlaxcala","municipality":"Chiautempan","setelement":"Ramontla"},{"postalCode":"90821","state":"Tlaxcala","municipality":"Chiautempan","setelement":"San Rafael Tepatlaxco"},{"postalCode":"90830","state":"Tlaxcala","municipality":"La Magdalena Tlaltelulco","setelement":"La Magdalena Tlaltelulco"},{"postalCode":"90833","state":"Tlaxcala","municipality":"La Magdalena Tlaltelulco","setelement":"Tecpa Morales"},{"postalCode":"90833","state":"Tlaxcala","municipality":"La Magdalena Tlaltelulco","setelement":"Tecpa Pluma"},{"postalCode":"90833","state":"Tlaxcala","municipality":"La Magdalena Tlaltelulco","setelement":"Santa Cruz Progreso"},{"postalCode":"90833","state":"Tlaxcala","municipality":"La Magdalena Tlaltelulco","setelement":"1901"},{"postalCode":"90833","state":"Tlaxcala","municipality":"La Magdalena Tlaltelulco","setelement":"Tezoquipan"},{"postalCode":"90833","state":"Tlaxcala","municipality":"La Magdalena Tlaltelulco","setelement":"Estocapa"},{"postalCode":"90833","state":"Tlaxcala","municipality":"La Magdalena Tlaltelulco","setelement":"Villa de las Flores"},{"postalCode":"90833","state":"Tlaxcala","municipality":"La Magdalena Tlaltelulco","setelement":"Progreso"},{"postalCode":"90833","state":"Tlaxcala","municipality":"La Magdalena Tlaltelulco","setelement":"Independencia"},{"postalCode":"90833","state":"Tlaxcala","municipality":"La Magdalena Tlaltelulco","setelement":"La Loma"},{"postalCode":"90834","state":"Tlaxcala","municipality":"La Magdalena Tlaltelulco","setelement":"Poxtla 1a Sección"},{"postalCode":"90834","state":"Tlaxcala","municipality":"La Magdalena Tlaltelulco","setelement":"Poxtla 2a Sección"},{"postalCode":"90834","state":"Tlaxcala","municipality":"La Magdalena Tlaltelulco","setelement":"Calnahuac"},{"postalCode":"90834","state":"Tlaxcala","municipality":"La Magdalena Tlaltelulco","setelement":"Comalteopan"},{"postalCode":"90834","state":"Tlaxcala","municipality":"La Magdalena Tlaltelulco","setelement":"Satelite"},{"postalCode":"90834","state":"Tlaxcala","municipality":"La Magdalena Tlaltelulco","setelement":"San Nicolás"},{"postalCode":"90835","state":"Tlaxcala","municipality":"La Magdalena Tlaltelulco","setelement":"Teotlalpan"},{"postalCode":"90835","state":"Tlaxcala","municipality":"La Magdalena Tlaltelulco","setelement":"Santa Cruz Yoalcoatl"},{"postalCode":"90835","state":"Tlaxcala","municipality":"La Magdalena Tlaltelulco","setelement":"Yoalcoatl"},{"postalCode":"90835","state":"Tlaxcala","municipality":"La Magdalena Tlaltelulco","setelement":"La Venta"},{"postalCode":"90843","state":"Tlaxcala","municipality":"San Francisco Tetlanohcan","setelement":"Jesús Xolalpan"},{"postalCode":"90843","state":"Tlaxcala","municipality":"San Francisco Tetlanohcan","setelement":"Santa Cruz Matlacahuacan"},{"postalCode":"90845","state":"Tlaxcala","municipality":"San Francisco Tetlanohcan","setelement":"Dolores Aquiahuac"},{"postalCode":"90847","state":"Tlaxcala","municipality":"San Francisco Tetlanohcan","setelement":"Vivero Malintzi"},{"postalCode":"90850","state":"Tlaxcala","municipality":"Teolocholco","setelement":"Santa Maria Acxotla Del Monte"},{"postalCode":"90850","state":"Tlaxcala","municipality":"Teolocholco","setelement":"Cuaxinca"},{"postalCode":"90850","state":"Tlaxcala","municipality":"Teolocholco","setelement":"Cuauhtla"},{"postalCode":"90850","state":"Tlaxcala","municipality":"Teolocholco","setelement":"Actipa"},{"postalCode":"90850","state":"Tlaxcala","municipality":"Teolocholco","setelement":"Primera"},{"postalCode":"90850","state":"Tlaxcala","municipality":"Teolocholco","setelement":"Segunda"},{"postalCode":"90850","state":"Tlaxcala","municipality":"Teolocholco","setelement":"Tercera"},{"postalCode":"90855","state":"Tlaxcala","municipality":"Teolocholco","setelement":"El Carmen Aztama"},{"postalCode":"90860","state":"Tlaxcala","municipality":"Acuamanala de Miguel Hidalgo","setelement":"Acuamanala"},{"postalCode":"90860","state":"Tlaxcala","municipality":"Acuamanala de Miguel Hidalgo","setelement":"Concepción Chimalpa"},{"postalCode":"90861","state":"Tlaxcala","municipality":"Acuamanala de Miguel Hidalgo","setelement":"Guadalupe Hidalgo"},{"postalCode":"90864","state":"Tlaxcala","municipality":"Acuamanala de Miguel Hidalgo","setelement":"Olextla de Juárez"},{"postalCode":"90867","state":"Tlaxcala","municipality":"Santa Cruz Quilehtla","setelement":"Santa Cruz Quilehtla"},{"postalCode":"90867","state":"Tlaxcala","municipality":"Santa Cruz Quilehtla","setelement":"Ayometitla"},{"postalCode":"90870","state":"Tlaxcala","municipality":"Mazatecochco de José María Morelos","setelement":"Primera"},{"postalCode":"90873","state":"Tlaxcala","municipality":"Mazatecochco de José María Morelos","setelement":"Cuarta"},{"postalCode":"90874","state":"Tlaxcala","municipality":"Mazatecochco de José María Morelos","setelement":"Tercera"},{"postalCode":"90875","state":"Tlaxcala","municipality":"Mazatecochco de José María Morelos","setelement":"Segunda"},{"postalCode":"90876","state":"Tlaxcala","municipality":"Mazatecochco de José María Morelos","setelement":"San Juan Ixhualco"},{"postalCode":"90876","state":"Tlaxcala","municipality":"Mazatecochco de José María Morelos","setelement":"Ramos Muñoz Manzano"},{"postalCode":"90877","state":"Tlaxcala","municipality":"Mazatecochco de José María Morelos","setelement":"Zacatecoma"},{"postalCode":"90880","state":"Tlaxcala","municipality":"Tenancingo","setelement":"Tenancingo"},{"postalCode":"90883","state":"Tlaxcala","municipality":"Tenancingo","setelement":"Tecoac"},{"postalCode":"90886","state":"Tlaxcala","municipality":"Tenancingo","setelement":"Concepción Acopilco"},{"postalCode":"90887","state":"Tlaxcala","municipality":"Tenancingo","setelement":"Tepepantlalpa (Magdalena Reyes)"},{"postalCode":"90890","state":"Tlaxcala","municipality":"San Pablo del Monte","setelement":"San Isidro Buen Suceso"},{"postalCode":"90894","state":"Tlaxcala","municipality":"San Pablo del Monte","setelement":"Tetzacual"},{"postalCode":"90895","state":"Tlaxcala","municipality":"San Pablo del Monte","setelement":"Cacamila San Antonio"},{"postalCode":"90896","state":"Tlaxcala","municipality":"San Pablo del Monte","setelement":"Hueyocotl"},{"postalCode":"90897","state":"Tlaxcala","municipality":"San Pablo del Monte","setelement":"Ex-hacienda Guadalupe Xaltelulco"},{"postalCode":"90898","state":"Tlaxcala","municipality":"San Pablo del Monte","setelement":"Acopilco"},{"postalCode":"90900","state":"Tlaxcala","municipality":"San Pablo del Monte","setelement":"Villa Vicente Guerrero"},{"postalCode":"90920","state":"Tlaxcala","municipality":"San Pablo del Monte","setelement":"Cristo"},{"postalCode":"90930","state":"Tlaxcala","municipality":"San Pablo del Monte","setelement":"Xahuén Vargas"},{"postalCode":"90930","state":"Tlaxcala","municipality":"San Pablo del Monte","setelement":"San Nicolás"},{"postalCode":"90940","state":"Tlaxcala","municipality":"San Pablo del Monte","setelement":"San Miguel"},{"postalCode":"90940","state":"Tlaxcala","municipality":"San Pablo del Monte","setelement":"Santiago"},{"postalCode":"90950","state":"Tlaxcala","municipality":"San Pablo del Monte","setelement":"La Santísima"},{"postalCode":"90960","state":"Tlaxcala","municipality":"San Pablo del Monte","setelement":"San Cosme"},{"postalCode":"90970","state":"Tlaxcala","municipality":"San Pablo del Monte","setelement":"Jesús"},{"postalCode":"90970","state":"Tlaxcala","municipality":"San Pablo del Monte","setelement":"San Bartolomé"},{"postalCode":"90970","state":"Tlaxcala","municipality":"San Pablo del Monte","setelement":"San Sebastián"},{"postalCode":"90980","state":"Tlaxcala","municipality":"San Pablo del Monte","setelement":"San Pedro"},{"postalCode":"90990","state":"Tlaxcala","municipality":"San Pablo del Monte","setelement":"Tlaltepango"}]