[{"postalCode":"97000","state":"Yucatán","municipality":"Mérida","setelement":"Mérida Centro"},{"postalCode":"97000","state":"Yucatán","municipality":"Mérida","setelement":"Itzaes"},{"postalCode":"97000","state":"Yucatán","municipality":"Mérida","setelement":"Madrid"},{"postalCode":"97000","state":"Yucatán","municipality":"Mérida","setelement":"Villa Fontana"},{"postalCode":"97000","state":"Yucatán","municipality":"Mérida","setelement":"La Quinta"},{"postalCode":"97000","state":"Yucatán","municipality":"Mérida","setelement":"Los Cocos"},{"postalCode":"97000","state":"Yucatán","municipality":"Mérida","setelement":"Privada Del Maestro"},{"postalCode":"97000","state":"Yucatán","municipality":"Mérida","setelement":"Privada Garcia Gineres C - 29"},{"postalCode":"97000","state":"Yucatán","municipality":"Mérida","setelement":"Jardines de San Sebastian"},{"postalCode":"97003","state":"Yucatán","municipality":"Mérida","setelement":"Los Reyes"},{"postalCode":"97050","state":"Yucatán","municipality":"Mérida","setelement":"Alcalá Martín"},{"postalCode":"97050","state":"Yucatán","municipality":"Mérida","setelement":"Yucatán"},{"postalCode":"97059","state":"Yucatán","municipality":"Mérida","setelement":"Señorial"},{"postalCode":"97060","state":"Yucatán","municipality":"Mérida","setelement":"Carrillo Ancona"},{"postalCode":"97069","state":"Yucatán","municipality":"Mérida","setelement":"Inalámbrica"},{"postalCode":"97070","state":"Yucatán","municipality":"Mérida","setelement":"Dolores Patron"},{"postalCode":"97070","state":"Yucatán","municipality":"Mérida","setelement":"Garcia Gineres"},{"postalCode":"97070","state":"Yucatán","municipality":"Mérida","setelement":"El Pedregal"},{"postalCode":"97080","state":"Yucatán","municipality":"Mérida","setelement":"La Huerta"},{"postalCode":"97088","state":"Yucatán","municipality":"Mérida","setelement":"Santa Cecilia"},{"postalCode":"97089","state":"Yucatán","municipality":"Mérida","setelement":"Cupules"},{"postalCode":"97098","state":"Yucatán","municipality":"Mérida","setelement":"Lourdes"},{"postalCode":"97099","state":"Yucatán","municipality":"Mérida","setelement":"Waspa"},{"postalCode":"97100","state":"Yucatán","municipality":"Mérida","setelement":"Itzimna"},{"postalCode":"97100","state":"Yucatán","municipality":"Mérida","setelement":"Itzimna"},{"postalCode":"97100","state":"Yucatán","municipality":"Mérida","setelement":"Itzimna 2"},{"postalCode":"97100","state":"Yucatán","municipality":"Mérida","setelement":"Rinconada Itzmina"},{"postalCode":"97107","state":"Yucatán","municipality":"Mérida","setelement":"Manola"},{"postalCode":"97108","state":"Yucatán","municipality":"Mérida","setelement":"Las Arboledas"},{"postalCode":"97109","state":"Yucatán","municipality":"Mérida","setelement":"Ferrocarrileros"},{"postalCode":"97109","state":"Yucatán","municipality":"Mérida","setelement":"Jesús Carranza"},{"postalCode":"97110","state":"Yucatán","municipality":"Mérida","setelement":"Revolución (Cordemex)"},{"postalCode":"97113","state":"Yucatán","municipality":"Mérida","setelement":"Montebello"},{"postalCode":"97113","state":"Yucatán","municipality":"Mérida","setelement":"San Antonio"},{"postalCode":"97113","state":"Yucatán","municipality":"Mérida","setelement":"Xaman-Tan"},{"postalCode":"97114","state":"Yucatán","municipality":"Mérida","setelement":"Monte Alban"},{"postalCode":"97114","state":"Yucatán","municipality":"Mérida","setelement":"Residencial Sol Campestre"},{"postalCode":"97115","state":"Yucatán","municipality":"Mérida","setelement":"Sodzil Norte"},{"postalCode":"97115","state":"Yucatán","municipality":"Mérida","setelement":"Montes de Ame"},{"postalCode":"97115","state":"Yucatán","municipality":"Mérida","setelement":"Gonzalo Guerrero"},{"postalCode":"97115","state":"Yucatán","municipality":"Mérida","setelement":"Residencial Montejo Norte"},{"postalCode":"97115","state":"Yucatán","municipality":"Mérida","setelement":"Ampliación Revolución"},{"postalCode":"97115","state":"Yucatán","municipality":"Mérida","setelement":"Residencial San Angelo"},{"postalCode":"97116","state":"Yucatán","municipality":"Mérida","setelement":"San Antonio Cucul"},{"postalCode":"97116","state":"Yucatán","municipality":"Mérida","setelement":"Privada San Antonio Cucul"},{"postalCode":"97117","state":"Yucatán","municipality":"Mérida","setelement":"San Ramon Norte"},{"postalCode":"97117","state":"Yucatán","municipality":"Mérida","setelement":"San Ramon Sur"},{"postalCode":"97117","state":"Yucatán","municipality":"Mérida","setelement":"San Ramon Norte I"},{"postalCode":"97117","state":"Yucatán","municipality":"Mérida","setelement":"Villareal"},{"postalCode":"97117","state":"Yucatán","municipality":"Mérida","setelement":"Xaman-Kab"},{"postalCode":"97118","state":"Yucatán","municipality":"Mérida","setelement":"Plan de Ayala"},{"postalCode":"97118","state":"Yucatán","municipality":"Mérida","setelement":"Villas Del Sol"},{"postalCode":"97118","state":"Yucatán","municipality":"Mérida","setelement":"Ampliación Plan de Ayala (Villas del Sol)"},{"postalCode":"97119","state":"Yucatán","municipality":"Mérida","setelement":"Benito Juárez Nte"},{"postalCode":"97119","state":"Yucatán","municipality":"Mérida","setelement":"Villas La Hacienda"},{"postalCode":"97119","state":"Yucatán","municipality":"Mérida","setelement":"Gonzalo Guerrero"},{"postalCode":"97119","state":"Yucatán","municipality":"Mérida","setelement":"Villas del Rey"},{"postalCode":"97120","state":"Yucatán","municipality":"Mérida","setelement":"Campestre"},{"postalCode":"97120","state":"Yucatán","municipality":"Mérida","setelement":"Del Norte"},{"postalCode":"97120","state":"Yucatán","municipality":"Mérida","setelement":"Tecnológico"},{"postalCode":"97120","state":"Yucatán","municipality":"Mérida","setelement":"Ampliación del Norte (1a. Ampliación)"},{"postalCode":"97125","state":"Yucatán","municipality":"Mérida","setelement":"México"},{"postalCode":"97125","state":"Yucatán","municipality":"Mérida","setelement":"Privada Nuevo México"},{"postalCode":"97127","state":"Yucatán","municipality":"Mérida","setelement":"Buenavista"},{"postalCode":"97127","state":"Yucatán","municipality":"Mérida","setelement":"Montejo"},{"postalCode":"97128","state":"Yucatán","municipality":"Mérida","setelement":"México Norte"},{"postalCode":"97128","state":"Yucatán","municipality":"Mérida","setelement":"Privada Mediterráneo"},{"postalCode":"97128","state":"Yucatán","municipality":"Mérida","setelement":"Residencial Colonia México"},{"postalCode":"97129","state":"Yucatán","municipality":"Mérida","setelement":"Emiliano Zapata Nte"},{"postalCode":"97130","state":"Yucatán","municipality":"Mérida","setelement":"Torremolinos"},{"postalCode":"97130","state":"Yucatán","municipality":"Mérida","setelement":"Diaz Ordaz"},{"postalCode":"97130","state":"Yucatán","municipality":"Mérida","setelement":"San Carlos"},{"postalCode":"97130","state":"Yucatán","municipality":"Mérida","setelement":"Vista Alegre"},{"postalCode":"97130","state":"Yucatán","municipality":"Mérida","setelement":"Residencial Palmerales de Altabrisa"},{"postalCode":"97130","state":"Yucatán","municipality":"Mérida","setelement":"Missan II"},{"postalCode":"97130","state":"Yucatán","municipality":"Mérida","setelement":"Residencial Altabrisa"},{"postalCode":"97130","state":"Yucatán","municipality":"Mérida","setelement":"Montecarlo"},{"postalCode":"97130","state":"Yucatán","municipality":"Mérida","setelement":"Vista Alegre"},{"postalCode":"97130","state":"Yucatán","municipality":"Mérida","setelement":"Vista Alegre Norte"},{"postalCode":"97130","state":"Yucatán","municipality":"Mérida","setelement":"Altabrisa"},{"postalCode":"97130","state":"Yucatán","municipality":"Mérida","setelement":"San Remo"},{"postalCode":"97130","state":"Yucatán","municipality":"Mérida","setelement":"Santa Rita Cholul"},{"postalCode":"97133","state":"Yucatán","municipality":"Mérida","setelement":"Montecristo"},{"postalCode":"97133","state":"Yucatán","municipality":"Mérida","setelement":"Montevideo"},{"postalCode":"97133","state":"Yucatán","municipality":"Mérida","setelement":"Residencial Camara de Comercio Norte"},{"postalCode":"97133","state":"Yucatán","municipality":"Mérida","setelement":"Monterreal"},{"postalCode":"97134","state":"Yucatán","municipality":"Mérida","setelement":"Maya"},{"postalCode":"97134","state":"Yucatán","municipality":"Mérida","setelement":"Paraíso Maya"},{"postalCode":"97134","state":"Yucatán","municipality":"Mérida","setelement":"Jose Maria Iturralde"},{"postalCode":"97135","state":"Yucatán","municipality":"Mérida","setelement":"Jardines de Mérida"},{"postalCode":"97136","state":"Yucatán","municipality":"Mérida","setelement":"Felipe Carrillo Puerto Nte"},{"postalCode":"97137","state":"Yucatán","municipality":"Mérida","setelement":"México Oriente"},{"postalCode":"97138","state":"Yucatán","municipality":"Mérida","setelement":"Jardines del Noreste"},{"postalCode":"97138","state":"Yucatán","municipality":"Mérida","setelement":"Los Álamos"},{"postalCode":"97138","state":"Yucatán","municipality":"Mérida","setelement":"Residencial Del Arco"},{"postalCode":"97138","state":"Yucatán","municipality":"Mérida","setelement":"La Florida"},{"postalCode":"97138","state":"Yucatán","municipality":"Mérida","setelement":"Los Pinos"},{"postalCode":"97138","state":"Yucatán","municipality":"Mérida","setelement":"Jardines Del Norte"},{"postalCode":"97138","state":"Yucatán","municipality":"Mérida","setelement":"Jardines de Vista Alegre"},{"postalCode":"97138","state":"Yucatán","municipality":"Mérida","setelement":"Residencial Bancarios"},{"postalCode":"97138","state":"Yucatán","municipality":"Mérida","setelement":"San Pedro Cholul"},{"postalCode":"97138","state":"Yucatán","municipality":"Mérida","setelement":"Santa Maria"},{"postalCode":"97138","state":"Yucatán","municipality":"Mérida","setelement":"El Arco"},{"postalCode":"97138","state":"Yucatán","municipality":"Mérida","setelement":"Jardines de Vista Alegre II"},{"postalCode":"97138","state":"Yucatán","municipality":"Mérida","setelement":"Vista Alegre Lotificacion"},{"postalCode":"97138","state":"Yucatán","municipality":"Mérida","setelement":"Pinos Norte II"},{"postalCode":"97139","state":"Yucatán","municipality":"Mérida","setelement":"Prado Norte"},{"postalCode":"97139","state":"Yucatán","municipality":"Mérida","setelement":"San Antonio Cinta"},{"postalCode":"97139","state":"Yucatán","municipality":"Mérida","setelement":"Jardines del Norte de Prado Norte"},{"postalCode":"97140","state":"Yucatán","municipality":"Mérida","setelement":"Lopez Mateos"},{"postalCode":"97140","state":"Yucatán","municipality":"Mérida","setelement":"San Luis"},{"postalCode":"97140","state":"Yucatán","municipality":"Mérida","setelement":"San Miguel"},{"postalCode":"97142","state":"Yucatán","municipality":"Mérida","setelement":"Unidad Habitacional CTM"},{"postalCode":"97142","state":"Yucatán","municipality":"Mérida","setelement":"Antonia Jimenez Trava"},{"postalCode":"97142","state":"Yucatán","municipality":"Mérida","setelement":"Antonia Jimenez Trava II"},{"postalCode":"97142","state":"Yucatán","municipality":"Mérida","setelement":"San Vicente Oriente (La Isla)"},{"postalCode":"97143","state":"Yucatán","municipality":"Mérida","setelement":"Polígono 108"},{"postalCode":"97143","state":"Yucatán","municipality":"Mérida","setelement":"Vicente Guerrero"},{"postalCode":"97143","state":"Yucatán","municipality":"Mérida","setelement":"Boulevares de Oriente"},{"postalCode":"97143","state":"Yucatán","municipality":"Mérida","setelement":"Itzimna 108"},{"postalCode":"97143","state":"Yucatán","municipality":"Mérida","setelement":"Luis Donaldo Colosio"},{"postalCode":"97143","state":"Yucatán","municipality":"Mérida","setelement":"Leandro Valle"},{"postalCode":"97143","state":"Yucatán","municipality":"Mérida","setelement":"Brisas Del Bosque"},{"postalCode":"97144","state":"Yucatán","municipality":"Mérida","setelement":"Emiliano Zapata Ote"},{"postalCode":"97144","state":"Yucatán","municipality":"Mérida","setelement":"Las Brisas"},{"postalCode":"97144","state":"Yucatán","municipality":"Mérida","setelement":"Las Brisas Del Norte"},{"postalCode":"97144","state":"Yucatán","municipality":"Mérida","setelement":"Ampliación las Brisas"},{"postalCode":"97145","state":"Yucatán","municipality":"Mérida","setelement":"Las Palmas"},{"postalCode":"97145","state":"Yucatán","municipality":"Mérida","setelement":"Pet-kanche"},{"postalCode":"97145","state":"Yucatán","municipality":"Mérida","setelement":"San Juan Grande"},{"postalCode":"97145","state":"Yucatán","municipality":"Mérida","setelement":"Noria II"},{"postalCode":"97146","state":"Yucatán","municipality":"Mérida","setelement":"Nueva Alemán"},{"postalCode":"97146","state":"Yucatán","municipality":"Mérida","setelement":"Las Flores"},{"postalCode":"97147","state":"Yucatán","municipality":"Mérida","setelement":"Nuevo Yucatán"},{"postalCode":"97147","state":"Yucatán","municipality":"Mérida","setelement":"San Nicolás"},{"postalCode":"97148","state":"Yucatán","municipality":"Mérida","setelement":"Miguel Alemán"},{"postalCode":"97149","state":"Yucatán","municipality":"Mérida","setelement":"San Esteban"},{"postalCode":"97150","state":"Yucatán","municipality":"Mérida","setelement":"Industrial"},{"postalCode":"97150","state":"Yucatán","municipality":"Mérida","setelement":"Trava Quintero"},{"postalCode":"97155","state":"Yucatán","municipality":"Mérida","setelement":"Fenix"},{"postalCode":"97155","state":"Yucatán","municipality":"Mérida","setelement":"Lourdes Industrial"},{"postalCode":"97156","state":"Yucatán","municipality":"Mérida","setelement":"Los Reyes"},{"postalCode":"97157","state":"Yucatán","municipality":"Mérida","setelement":"Lázaro Cárdenas Ote"},{"postalCode":"97157","state":"Yucatán","municipality":"Mérida","setelement":"Nueva Mayapan"},{"postalCode":"97158","state":"Yucatán","municipality":"Mérida","setelement":"Chuminopolis"},{"postalCode":"97159","state":"Yucatán","municipality":"Mérida","setelement":"Máximo Ancona"},{"postalCode":"97159","state":"Yucatán","municipality":"Mérida","setelement":"Manuel Avila Camacho"},{"postalCode":"97159","state":"Yucatán","municipality":"Mérida","setelement":"Mayapan"},{"postalCode":"97159","state":"Yucatán","municipality":"Mérida","setelement":"Nueva Pacabtun"},{"postalCode":"97159","state":"Yucatán","municipality":"Mérida","setelement":"Nueva Mayapan"},{"postalCode":"97159","state":"Yucatán","municipality":"Mérida","setelement":"Lotificacion las Brisas"},{"postalCode":"97160","state":"Yucatán","municipality":"Mérida","setelement":"Del Parque"},{"postalCode":"97160","state":"Yucatán","municipality":"Mérida","setelement":"Pacabtun"},{"postalCode":"97160","state":"Yucatán","municipality":"Mérida","setelement":"Manuel Avila Camacho"},{"postalCode":"97160","state":"Yucatán","municipality":"Mérida","setelement":"Privada Del Autotransporte CTM"},{"postalCode":"97165","state":"Yucatán","municipality":"Mérida","setelement":"Melchor Ocampo"},{"postalCode":"97165","state":"Yucatán","municipality":"Mérida","setelement":"Melchor Ocampo II"},{"postalCode":"97166","state":"Yucatán","municipality":"Mérida","setelement":"Fidel Velázquez"},{"postalCode":"97166","state":"Yucatán","municipality":"Mérida","setelement":"Salvador Alvarado Oriente"},{"postalCode":"97166","state":"Yucatán","municipality":"Mérida","setelement":"Fidel Velázquez 2a Etapa"},{"postalCode":"97167","state":"Yucatán","municipality":"Mérida","setelement":"Emilio Portes Gil"},{"postalCode":"97167","state":"Yucatán","municipality":"Mérida","setelement":"Bosques de Oriente"},{"postalCode":"97167","state":"Yucatán","municipality":"Mérida","setelement":"Privada Emilio Portes Gil"},{"postalCode":"97168","state":"Yucatán","municipality":"Mérida","setelement":"Del Carmen"},{"postalCode":"97168","state":"Yucatán","municipality":"Mérida","setelement":"Cortes Sarmiento"},{"postalCode":"97168","state":"Yucatán","municipality":"Mérida","setelement":"Jardines de Miraflores"},{"postalCode":"97168","state":"Yucatán","municipality":"Mérida","setelement":"Cerillera"},{"postalCode":"97169","state":"Yucatán","municipality":"Mérida","setelement":"Esperanza"},{"postalCode":"97169","state":"Yucatán","municipality":"Mérida","setelement":"Wallis"},{"postalCode":"97170","state":"Yucatán","municipality":"Mérida","setelement":"Chichen-itza"},{"postalCode":"97170","state":"Yucatán","municipality":"Mérida","setelement":"Nueva Chichen-itza"},{"postalCode":"97173","state":"Yucatán","municipality":"Mérida","setelement":"Vergel"},{"postalCode":"97173","state":"Yucatán","municipality":"Mérida","setelement":"Vergel II"},{"postalCode":"97173","state":"Yucatán","municipality":"Mérida","setelement":"Vergel III"},{"postalCode":"97173","state":"Yucatán","municipality":"Mérida","setelement":"Vergel IV"},{"postalCode":"97173","state":"Yucatán","municipality":"Mérida","setelement":"San Jose Vergel"},{"postalCode":"97173","state":"Yucatán","municipality":"Mérida","setelement":"Real San José"},{"postalCode":"97173","state":"Yucatán","municipality":"Mérida","setelement":"Misne III"},{"postalCode":"97174","state":"Yucatán","municipality":"Mérida","setelement":"Villas La Macarena"},{"postalCode":"97174","state":"Yucatán","municipality":"Mérida","setelement":"Morelos Oriente"},{"postalCode":"97175","state":"Yucatán","municipality":"Mérida","setelement":"Amalia Solorzano"},{"postalCode":"97176","state":"Yucatán","municipality":"Mérida","setelement":"Misné II"},{"postalCode":"97176","state":"Yucatán","municipality":"Mérida","setelement":"San Pablo Oriente"},{"postalCode":"97176","state":"Yucatán","municipality":"Mérida","setelement":"Vergel 65"},{"postalCode":"97176","state":"Yucatán","municipality":"Mérida","setelement":"San Antonio Kaua"},{"postalCode":"97176","state":"Yucatán","municipality":"Mérida","setelement":"El Vergel"},{"postalCode":"97177","state":"Yucatán","municipality":"Mérida","setelement":"Azcorra"},{"postalCode":"97178","state":"Yucatán","municipality":"Mérida","setelement":"Benito Juárez Ote"},{"postalCode":"97179","state":"Yucatán","municipality":"Mérida","setelement":"Miraflores"},{"postalCode":"97179","state":"Yucatán","municipality":"Mérida","setelement":"Privada Miraflores"},{"postalCode":"97180","state":"Yucatán","municipality":"Mérida","setelement":"Vicente Solis"},{"postalCode":"97189","state":"Yucatán","municipality":"Mérida","setelement":"Canto"},{"postalCode":"97189","state":"Yucatán","municipality":"Mérida","setelement":"San Jose"},{"postalCode":"97190","state":"Yucatán","municipality":"Mérida","setelement":"Morelos"},{"postalCode":"97190","state":"Yucatán","municipality":"Mérida","setelement":"Morelos Issste Fovissste"},{"postalCode":"97195","state":"Yucatán","municipality":"Mérida","setelement":"Nueva Kukulkan"},{"postalCode":"97195","state":"Yucatán","municipality":"Mérida","setelement":"San Antonio Kaua"},{"postalCode":"97195","state":"Yucatán","municipality":"Mérida","setelement":"San Antonio Kaua II"},{"postalCode":"97195","state":"Yucatán","municipality":"Mérida","setelement":"Miraflores II"},{"postalCode":"97195","state":"Yucatán","municipality":"Mérida","setelement":"San Antonio Kaua I"},{"postalCode":"97195","state":"Yucatán","municipality":"Mérida","setelement":"Aquaparque"},{"postalCode":"97196","state":"Yucatán","municipality":"Mérida","setelement":"Salvador Alvarado Sur"},{"postalCode":"97196","state":"Yucatán","municipality":"Mérida","setelement":"Militar"},{"postalCode":"97196","state":"Yucatán","municipality":"Mérida","setelement":"Salvador Alvarado Sur II"},{"postalCode":"97196","state":"Yucatán","municipality":"Mérida","setelement":"Ampliación Salvador Alvarado Sur"},{"postalCode":"97198","state":"Yucatán","municipality":"Mérida","setelement":"Ampliación Granjas"},{"postalCode":"97198","state":"Yucatán","municipality":"Mérida","setelement":"Reparto Granjas"},{"postalCode":"97198","state":"Yucatán","municipality":"Mérida","setelement":"Kukulcan"},{"postalCode":"97199","state":"Yucatán","municipality":"Mérida","setelement":"Maria Luisa"},{"postalCode":"97203","state":"Yucatán","municipality":"Mérida","setelement":"Cordeleros de Chuburna"},{"postalCode":"97203","state":"Yucatán","municipality":"Mérida","setelement":"El Prado"},{"postalCode":"97203","state":"Yucatán","municipality":"Mérida","setelement":"San Pedro Uxmal"},{"postalCode":"97203","state":"Yucatán","municipality":"Mérida","setelement":"Tulias de Chuburna"},{"postalCode":"97203","state":"Yucatán","municipality":"Mérida","setelement":"Arcos del Sol"},{"postalCode":"97203","state":"Yucatán","municipality":"Mérida","setelement":"Aurea Residencial"},{"postalCode":"97203","state":"Yucatán","municipality":"Mérida","setelement":"Arekas"},{"postalCode":"97203","state":"Yucatán","municipality":"Mérida","setelement":"Brisas de Chuburna"},{"postalCode":"97203","state":"Yucatán","municipality":"Mérida","setelement":"Camara de La Construcción"},{"postalCode":"97203","state":"Yucatán","municipality":"Mérida","setelement":"Cocoteros"},{"postalCode":"97203","state":"Yucatán","municipality":"Mérida","setelement":"Del Bosque"},{"postalCode":"97203","state":"Yucatán","municipality":"Mérida","setelement":"El Conquistador"},{"postalCode":"97203","state":"Yucatán","municipality":"Mérida","setelement":"San Pablo"},{"postalCode":"97203","state":"Yucatán","municipality":"Mérida","setelement":"Terranova"},{"postalCode":"97203","state":"Yucatán","municipality":"Mérida","setelement":"Villas Palma Real"},{"postalCode":"97203","state":"Yucatán","municipality":"Mérida","setelement":"Villas Del Prado"},{"postalCode":"97203","state":"Yucatán","municipality":"Mérida","setelement":"Vista Alegre de Chuburna"},{"postalCode":"97203","state":"Yucatán","municipality":"Mérida","setelement":"Privada Chuburna de Hidalgo (II)"},{"postalCode":"97203","state":"Yucatán","municipality":"Mérida","setelement":"Privada Chuburna Plus"},{"postalCode":"97203","state":"Yucatán","municipality":"Mérida","setelement":"Privada Palma Caribeña"},{"postalCode":"97203","state":"Yucatán","municipality":"Mérida","setelement":"Francisco de Montejo"},{"postalCode":"97203","state":"Yucatán","municipality":"Mérida","setelement":"San José Chuburna"},{"postalCode":"97203","state":"Yucatán","municipality":"Mérida","setelement":"Magnolias"},{"postalCode":"97203","state":"Yucatán","municipality":"Mérida","setelement":"Rincón Colonial"},{"postalCode":"97203","state":"Yucatán","municipality":"Mérida","setelement":"Puesta del Sol"},{"postalCode":"97203","state":"Yucatán","municipality":"Mérida","setelement":"Las Haciendas III"},{"postalCode":"97203","state":"Yucatán","municipality":"Mérida","setelement":"La Castellana"},{"postalCode":"97203","state":"Yucatán","municipality":"Mérida","setelement":"Privada Corozal"},{"postalCode":"97203","state":"Yucatán","municipality":"Mérida","setelement":"Ampliación Francisco de Montejo"},{"postalCode":"97203","state":"Yucatán","municipality":"Mérida","setelement":"Arboledas Chuburna"},{"postalCode":"97203","state":"Yucatán","municipality":"Mérida","setelement":"Francisco de Montejo II"},{"postalCode":"97203","state":"Yucatán","municipality":"Mérida","setelement":"Francisco de Montejo III"},{"postalCode":"97203","state":"Yucatán","municipality":"Mérida","setelement":"Francisco de Montejo IV"},{"postalCode":"97203","state":"Yucatán","municipality":"Mérida","setelement":"Francisco de Montejo V"},{"postalCode":"97203","state":"Yucatán","municipality":"Mérida","setelement":"Platino"},{"postalCode":"97204","state":"Yucatán","municipality":"Mérida","setelement":"Xcumpich"},{"postalCode":"97204","state":"Yucatán","municipality":"Mérida","setelement":"Vía Montejo"},{"postalCode":"97204","state":"Yucatán","municipality":"Mérida","setelement":"Residencial Piedrasul"},{"postalCode":"97204","state":"Yucatán","municipality":"Mérida","setelement":"Residencial Galerias"},{"postalCode":"97204","state":"Yucatán","municipality":"Mérida","setelement":"Revolución"},{"postalCode":"97205","state":"Yucatán","municipality":"Mérida","setelement":"Residencial Hacienda Real"},{"postalCode":"97205","state":"Yucatán","municipality":"Mérida","setelement":"Chuburna de Hidalgo"},{"postalCode":"97205","state":"Yucatán","municipality":"Mérida","setelement":"Bugambilias"},{"postalCode":"97205","state":"Yucatán","municipality":"Mérida","setelement":"El Cortijo I"},{"postalCode":"97205","state":"Yucatán","municipality":"Mérida","setelement":"El Cortijo II"},{"postalCode":"97205","state":"Yucatán","municipality":"Mérida","setelement":"Juan B Sosa"},{"postalCode":"97205","state":"Yucatán","municipality":"Mérida","setelement":"Loma Bonita Xcumpich"},{"postalCode":"97205","state":"Yucatán","municipality":"Mérida","setelement":"Las Hadas"},{"postalCode":"97205","state":"Yucatán","municipality":"Mérida","setelement":"Boulevares de Chuburna"},{"postalCode":"97205","state":"Yucatán","municipality":"Mérida","setelement":"Chuburna Inn"},{"postalCode":"97205","state":"Yucatán","municipality":"Mérida","setelement":"El Campanario"},{"postalCode":"97205","state":"Yucatán","municipality":"Mérida","setelement":"San Ángel"},{"postalCode":"97205","state":"Yucatán","municipality":"Mérida","setelement":"Chuburna de Hidalgo (La Floresta)"},{"postalCode":"97205","state":"Yucatán","municipality":"Mérida","setelement":"Tabachines"},{"postalCode":"97205","state":"Yucatán","municipality":"Mérida","setelement":"San Luis Chuburna"},{"postalCode":"97205","state":"Yucatán","municipality":"Mérida","setelement":"Pinzon"},{"postalCode":"97205","state":"Yucatán","municipality":"Mérida","setelement":"Privada las Flores"},{"postalCode":"97205","state":"Yucatán","municipality":"Mérida","setelement":"Privada Chuburna de Hidalgo I"},{"postalCode":"97205","state":"Yucatán","municipality":"Mérida","setelement":"Privada Pedregal II"},{"postalCode":"97205","state":"Yucatán","municipality":"Mérida","setelement":"Privada Arboledas"},{"postalCode":"97205","state":"Yucatán","municipality":"Mérida","setelement":"Privada Campestre Chuburna"},{"postalCode":"97205","state":"Yucatán","municipality":"Mérida","setelement":"Loma Bonita"},{"postalCode":"97206","state":"Yucatán","municipality":"Mérida","setelement":"El Rosario"},{"postalCode":"97206","state":"Yucatán","municipality":"Mérida","setelement":"Residencial La Noria"},{"postalCode":"97206","state":"Yucatán","municipality":"Mérida","setelement":"San Francisco Chuburna"},{"postalCode":"97206","state":"Yucatán","municipality":"Mérida","setelement":"San Francisco Chuburna II"},{"postalCode":"97206","state":"Yucatán","municipality":"Mérida","setelement":"San Jose I"},{"postalCode":"97206","state":"Yucatán","municipality":"Mérida","setelement":"San Jose II"},{"postalCode":"97206","state":"Yucatán","municipality":"Mérida","setelement":"Mérida (Elefante Grande)"},{"postalCode":"97206","state":"Yucatán","municipality":"Mérida","setelement":"San Vicente Chuburna"},{"postalCode":"97206","state":"Yucatán","municipality":"Mérida","setelement":"Las Dalias II y III"},{"postalCode":"97206","state":"Yucatán","municipality":"Mérida","setelement":"Villas Chuburna IV"},{"postalCode":"97206","state":"Yucatán","municipality":"Mérida","setelement":"Lotificacion San Vicente Chuburna"},{"postalCode":"97206","state":"Yucatán","municipality":"Mérida","setelement":"Paraíso"},{"postalCode":"97206","state":"Yucatán","municipality":"Mérida","setelement":"Las Dalias"},{"postalCode":"97206","state":"Yucatán","municipality":"Mérida","setelement":"Privada Cipreses"},{"postalCode":"97206","state":"Yucatán","municipality":"Mérida","setelement":"Yaxche"},{"postalCode":"97206","state":"Yucatán","municipality":"Mérida","setelement":"Residencial Turquesa"},{"postalCode":"97206","state":"Yucatán","municipality":"Mérida","setelement":"Privada San Ángel Chuburna"},{"postalCode":"97207","state":"Yucatán","municipality":"Mérida","setelement":"Callejones de Chuburna"},{"postalCode":"97207","state":"Yucatán","municipality":"Mérida","setelement":"Villas de Chuburna"},{"postalCode":"97208","state":"Yucatán","municipality":"Mérida","setelement":"Malaga"},{"postalCode":"97208","state":"Yucatán","municipality":"Mérida","setelement":"Rinconada de Chuburna"},{"postalCode":"97208","state":"Yucatán","municipality":"Mérida","setelement":"Residencial Atlantis"},{"postalCode":"97208","state":"Yucatán","municipality":"Mérida","setelement":"El Cedral"},{"postalCode":"97208","state":"Yucatán","municipality":"Mérida","setelement":"Felipe Carrillo Puerto"},{"postalCode":"97208","state":"Yucatán","municipality":"Mérida","setelement":"Las Quintas (Chuburna)"},{"postalCode":"97208","state":"Yucatán","municipality":"Mérida","setelement":"Privada Chuburna de Hidalgo"},{"postalCode":"97209","state":"Yucatán","municipality":"Mérida","setelement":"Jardines de Chuburna"},{"postalCode":"97209","state":"Yucatán","municipality":"Mérida","setelement":"Privada San Jorge (Chuburna)"},{"postalCode":"97210","state":"Yucatán","municipality":"Mérida","setelement":"Tanlum"},{"postalCode":"97210","state":"Yucatán","municipality":"Mérida","setelement":"Joaquín Ceballos Mimenza"},{"postalCode":"97210","state":"Yucatán","municipality":"Mérida","setelement":"Pedregales de Tanlum"},{"postalCode":"97215","state":"Yucatán","municipality":"Mérida","setelement":"Colonial Buenavista"},{"postalCode":"97215","state":"Yucatán","municipality":"Mérida","setelement":"Colonial Chuburna"},{"postalCode":"97215","state":"Yucatán","municipality":"Mérida","setelement":"Águilas Chuburna"},{"postalCode":"97217","state":"Yucatán","municipality":"Mérida","setelement":"Fovissste"},{"postalCode":"97217","state":"Yucatán","municipality":"Mérida","setelement":"Residencial Pensiones I y II"},{"postalCode":"97217","state":"Yucatán","municipality":"Mérida","setelement":"Francisco El Porvenir"},{"postalCode":"97217","state":"Yucatán","municipality":"Mérida","setelement":"Residencial Pensiones III"},{"postalCode":"97217","state":"Yucatán","municipality":"Mérida","setelement":"Residencial Pensiones IV"},{"postalCode":"97217","state":"Yucatán","municipality":"Mérida","setelement":"Residencial Pensiones V"},{"postalCode":"97217","state":"Yucatán","municipality":"Mérida","setelement":"Residencial Pensiones VI"},{"postalCode":"97217","state":"Yucatán","municipality":"Mérida","setelement":"Residencial Pensiones III (1)"},{"postalCode":"97217","state":"Yucatán","municipality":"Mérida","setelement":"Residencial Pensiones III (II)"},{"postalCode":"97217","state":"Yucatán","municipality":"Mérida","setelement":"Pensiones Norte"},{"postalCode":"97218","state":"Yucatán","municipality":"Mérida","setelement":"Roma"},{"postalCode":"97218","state":"Yucatán","municipality":"Mérida","setelement":"San Damián"},{"postalCode":"97218","state":"Yucatán","municipality":"Mérida","setelement":"Residencial Roma"},{"postalCode":"97218","state":"Yucatán","municipality":"Mérida","setelement":"San Isidro"},{"postalCode":"97218","state":"Yucatán","municipality":"Mérida","setelement":"Conjunto los Naranjos"},{"postalCode":"97218","state":"Yucatán","municipality":"Mérida","setelement":"Lotificacion San Damián"},{"postalCode":"97218","state":"Yucatán","municipality":"Mérida","setelement":"Privada San Damián"},{"postalCode":"97219","state":"Yucatán","municipality":"Mérida","setelement":"Francisco Villa"},{"postalCode":"97219","state":"Yucatán","municipality":"Mérida","setelement":"Lindavista"},{"postalCode":"97219","state":"Yucatán","municipality":"Mérida","setelement":"Limones"},{"postalCode":"97219","state":"Yucatán","municipality":"Mérida","setelement":"Privada Pensiones"},{"postalCode":"97219","state":"Yucatán","municipality":"Mérida","setelement":"San Damiancito"},{"postalCode":"97219","state":"Yucatán","municipality":"Mérida","setelement":"Jardines de Pensiones"},{"postalCode":"97219","state":"Yucatán","municipality":"Mérida","setelement":"Residencial del Norte"},{"postalCode":"97219","state":"Yucatán","municipality":"Mérida","setelement":"Amapola"},{"postalCode":"97219","state":"Yucatán","municipality":"Mérida","setelement":"Lindavista II"},{"postalCode":"97219","state":"Yucatán","municipality":"Mérida","setelement":"Jardines de Lindavista"},{"postalCode":"97219","state":"Yucatán","municipality":"Mérida","setelement":"Lotificacion San Damiancito I"},{"postalCode":"97219","state":"Yucatán","municipality":"Mérida","setelement":"Lotificacion San Damiancito II"},{"postalCode":"97219","state":"Yucatán","municipality":"Mérida","setelement":"Quinta Versalles"},{"postalCode":"97219","state":"Yucatán","municipality":"Mérida","setelement":"Unidad Habitacional Mérida Issste"},{"postalCode":"97219","state":"Yucatán","municipality":"Mérida","setelement":"Residencial Pensiones VII"},{"postalCode":"97219","state":"Yucatán","municipality":"Mérida","setelement":"Paseos de Pensiones"},{"postalCode":"97219","state":"Yucatán","municipality":"Mérida","setelement":"Pensiones"},{"postalCode":"97219","state":"Yucatán","municipality":"Mérida","setelement":"Ampliación Lindavista (Elefante Chico)"},{"postalCode":"97219","state":"Yucatán","municipality":"Mérida","setelement":"Paseos de Chenku"},{"postalCode":"97219","state":"Yucatán","municipality":"Mérida","setelement":"Pedregal de Lindavista"},{"postalCode":"97220","state":"Yucatán","municipality":"Mérida","setelement":"Nueva Hidalgo"},{"postalCode":"97220","state":"Yucatán","municipality":"Mérida","setelement":"La Vaca Feliz"},{"postalCode":"97220","state":"Yucatán","municipality":"Mérida","setelement":"Miguel Hidalgo"},{"postalCode":"97220","state":"Yucatán","municipality":"Mérida","setelement":"Zona Dorada"},{"postalCode":"97220","state":"Yucatán","municipality":"Mérida","setelement":"Atlántida"},{"postalCode":"97225","state":"Yucatán","municipality":"Mérida","setelement":"Paseo de las Fuentes"},{"postalCode":"97225","state":"Yucatán","municipality":"Mérida","setelement":"Privada San Pedro"},{"postalCode":"97226","state":"Yucatán","municipality":"Mérida","setelement":"El Porvenir"},{"postalCode":"97227","state":"Yucatán","municipality":"Mérida","setelement":"Jacinto Canek"},{"postalCode":"97227","state":"Yucatán","municipality":"Mérida","setelement":"Las Vigas"},{"postalCode":"97229","state":"Yucatán","municipality":"Mérida","setelement":"Luis Echeverría Alvarez"},{"postalCode":"97229","state":"Yucatán","municipality":"Mérida","setelement":"15 de Mayo"},{"postalCode":"97229","state":"Yucatán","municipality":"Mérida","setelement":"Hacienda San Antonio"},{"postalCode":"97229","state":"Yucatán","municipality":"Mérida","setelement":"Xcom"},{"postalCode":"97229","state":"Yucatán","municipality":"Mérida","setelement":"Zona Dorada II"},{"postalCode":"97229","state":"Yucatán","municipality":"Mérida","setelement":"Villa Zona Dorada"},{"postalCode":"97229","state":"Yucatán","municipality":"Mérida","setelement":"Ampliación Roma (Luis Echeverría)"},{"postalCode":"97229","state":"Yucatán","municipality":"Mérida","setelement":"Hacienda Inn"},{"postalCode":"97230","state":"Yucatán","municipality":"Mérida","setelement":"Bojorquez"},{"postalCode":"97230","state":"Yucatán","municipality":"Mérida","setelement":"Armando Avila Gurrutia"},{"postalCode":"97237","state":"Yucatán","municipality":"Mérida","setelement":"Central de Abasto"},{"postalCode":"97238","state":"Yucatán","municipality":"Mérida","setelement":"Nora Quintana"},{"postalCode":"97238","state":"Yucatán","municipality":"Mérida","setelement":"Yucalpeten"},{"postalCode":"97238","state":"Yucatán","municipality":"Mérida","setelement":"Villas de Yucalpeten"},{"postalCode":"97238","state":"Yucatán","municipality":"Mérida","setelement":"Residencial Casa Blanca"},{"postalCode":"97238","state":"Yucatán","municipality":"Mérida","setelement":"Brisas del Poniente (Yucalpeten)"},{"postalCode":"97238","state":"Yucatán","municipality":"Mérida","setelement":"Jardines de Yucalpeten"},{"postalCode":"97239","state":"Yucatán","municipality":"Mérida","setelement":"Yucalpeten Secc Florida"},{"postalCode":"97240","state":"Yucatán","municipality":"Mérida","setelement":"Francisco I Madero"},{"postalCode":"97245","state":"Yucatán","municipality":"Mérida","setelement":"Lopez Portillo"},{"postalCode":"97245","state":"Yucatán","municipality":"Mérida","setelement":"Xoclan Canto"},{"postalCode":"97245","state":"Yucatán","municipality":"Mérida","setelement":"Xoclan Santos"},{"postalCode":"97246","state":"Yucatán","municipality":"Mérida","setelement":"Juan Pablo II Secc. Mérida 2000"},{"postalCode":"97246","state":"Yucatán","municipality":"Mérida","setelement":"Bosques del Poniente"},{"postalCode":"97246","state":"Yucatán","municipality":"Mérida","setelement":"Jardines de Nueva Mulsay"},{"postalCode":"97246","state":"Yucatán","municipality":"Mérida","setelement":"La Reja"},{"postalCode":"97246","state":"Yucatán","municipality":"Mérida","setelement":"Mulsay"},{"postalCode":"97246","state":"Yucatán","municipality":"Mérida","setelement":"Mulsay de La Magdalena"},{"postalCode":"97246","state":"Yucatán","municipality":"Mérida","setelement":"Xoclan"},{"postalCode":"97246","state":"Yucatán","municipality":"Mérida","setelement":"Xoclan Xbech"},{"postalCode":"97246","state":"Yucatán","municipality":"Mérida","setelement":"Juan Pablo II Cardenales"},{"postalCode":"97246","state":"Yucatán","municipality":"Mérida","setelement":"Juan Pablo II"},{"postalCode":"97246","state":"Yucatán","municipality":"Mérida","setelement":"México Poniente"},{"postalCode":"97246","state":"Yucatán","municipality":"Mérida","setelement":"Xoclan Carmelitas"},{"postalCode":"97246","state":"Yucatán","municipality":"Mérida","setelement":"Bosques de Mulsay"},{"postalCode":"97246","state":"Yucatán","municipality":"Mérida","setelement":"Granja Fruticola Susula"},{"postalCode":"97246","state":"Yucatán","municipality":"Mérida","setelement":"Mulsay Solidaridad"},{"postalCode":"97246","state":"Yucatán","municipality":"Mérida","setelement":"Hacienda Mulsay"},{"postalCode":"97246","state":"Yucatán","municipality":"Mérida","setelement":"Ampliación Juan Pablo II"},{"postalCode":"97246","state":"Yucatán","municipality":"Mérida","setelement":"Paseos de Opichen"},{"postalCode":"97246","state":"Yucatán","municipality":"Mérida","setelement":"Villas de Tixcacal"},{"postalCode":"97246","state":"Yucatán","municipality":"Mérida","setelement":"Los Ángeles"},{"postalCode":"97246","state":"Yucatán","municipality":"Mérida","setelement":"Angeles II"},{"postalCode":"97246","state":"Yucatán","municipality":"Mérida","setelement":"Anexo Juan Pablo II"},{"postalCode":"97247","state":"Yucatán","municipality":"Mérida","setelement":"San Lorenzo"},{"postalCode":"97249","state":"Yucatán","municipality":"Mérida","setelement":"Mulsay"},{"postalCode":"97249","state":"Yucatán","municipality":"Mérida","setelement":"Nueva Mulsay"},{"postalCode":"97249","state":"Yucatán","municipality":"Mérida","setelement":"Nueva Mulsay I"},{"postalCode":"97249","state":"Yucatán","municipality":"Mérida","setelement":"Plantel México"},{"postalCode":"97249","state":"Yucatán","municipality":"Mérida","setelement":"Pedregales de Nueva Mulsay Etapa"},{"postalCode":"97249","state":"Yucatán","municipality":"Mérida","setelement":"Xoclan Susula"},{"postalCode":"97249","state":"Yucatán","municipality":"Mérida","setelement":"Jardines de Nueva Mulsay II"},{"postalCode":"97249","state":"Yucatán","municipality":"Mérida","setelement":"Nueva Reforma Agraria"},{"postalCode":"97249","state":"Yucatán","municipality":"Mérida","setelement":"Tixcacal Opichen"},{"postalCode":"97249","state":"Yucatán","municipality":"Mérida","setelement":"Villa Magna"},{"postalCode":"97249","state":"Yucatán","municipality":"Mérida","setelement":"Cinturón Verde"},{"postalCode":"97249","state":"Yucatán","municipality":"Mérida","setelement":"Villa Magna II"},{"postalCode":"97249","state":"Yucatán","municipality":"Mérida","setelement":"Ampliación Tixcacal Opichen"},{"postalCode":"97249","state":"Yucatán","municipality":"Mérida","setelement":"Hacienda Opichen"},{"postalCode":"97249","state":"Yucatán","municipality":"Mérida","setelement":"Jardines de Nueva Mulsay III"},{"postalCode":"97249","state":"Yucatán","municipality":"Mérida","setelement":"Núcleo Mulsay"},{"postalCode":"97249","state":"Yucatán","municipality":"Mérida","setelement":"Girasoles de Opichen"},{"postalCode":"97249","state":"Yucatán","municipality":"Mérida","setelement":"Hacienda Opichen"},{"postalCode":"97249","state":"Yucatán","municipality":"Mérida","setelement":"Residencial Valparaiso"},{"postalCode":"97249","state":"Yucatán","municipality":"Mérida","setelement":"Diamante Paseos de Opichen"},{"postalCode":"97250","state":"Yucatán","municipality":"Mérida","setelement":"Nueva Sambula"},{"postalCode":"97250","state":"Yucatán","municipality":"Mérida","setelement":"Sambula"},{"postalCode":"97255","state":"Yucatán","municipality":"Mérida","setelement":"Bicentenario"},{"postalCode":"97255","state":"Yucatán","municipality":"Mérida","setelement":"El Roble"},{"postalCode":"97255","state":"Yucatán","municipality":"Mérida","setelement":"Manuel Crescencio Rejon"},{"postalCode":"97255","state":"Yucatán","municipality":"Mérida","setelement":"El Roble II"},{"postalCode":"97255","state":"Yucatán","municipality":"Mérida","setelement":"Roble Agrícola III"},{"postalCode":"97256","state":"Yucatán","municipality":"Mérida","setelement":"Álvaro Torres"},{"postalCode":"97256","state":"Yucatán","municipality":"Mérida","setelement":"Graciano Ricalde"},{"postalCode":"97256","state":"Yucatán","municipality":"Mérida","setelement":"Libertad II"},{"postalCode":"97256","state":"Yucatán","municipality":"Mérida","setelement":"Villas Mérida"},{"postalCode":"97256","state":"Yucatán","municipality":"Mérida","setelement":"Pino Suárez"},{"postalCode":"97256","state":"Yucatán","municipality":"Mérida","setelement":"Renacimiento I"},{"postalCode":"97256","state":"Yucatán","municipality":"Mérida","setelement":"Industrial Bridec"},{"postalCode":"97256","state":"Yucatán","municipality":"Mérida","setelement":"Libertad III"},{"postalCode":"97256","state":"Yucatán","municipality":"Mérida","setelement":"Lol-Be"},{"postalCode":"97256","state":"Yucatán","municipality":"Mérida","setelement":"Residencial Nicte"},{"postalCode":"97260","state":"Yucatán","municipality":"Mérida","setelement":"Obrera"},{"postalCode":"97260","state":"Yucatán","municipality":"Mérida","setelement":"Villa de la Obrera II"},{"postalCode":"97260","state":"Yucatán","municipality":"Mérida","setelement":"Villas del Mayab"},{"postalCode":"97260","state":"Yucatán","municipality":"Mérida","setelement":"Nueva Obrera"},{"postalCode":"97260","state":"Yucatán","municipality":"Mérida","setelement":"Bosques del Pedregal"},{"postalCode":"97260","state":"Yucatán","municipality":"Mérida","setelement":"Circuito Colonias"},{"postalCode":"97260","state":"Yucatán","municipality":"Mérida","setelement":"Villa Moderna"},{"postalCode":"97267","state":"Yucatán","municipality":"Mérida","setelement":"Manzana 115"},{"postalCode":"97268","state":"Yucatán","municipality":"Mérida","setelement":"Delio Moreno Canton"},{"postalCode":"97268","state":"Yucatán","municipality":"Mérida","setelement":"Quinta Valencia"},{"postalCode":"97269","state":"Yucatán","municipality":"Mérida","setelement":"Meliton Salazar"},{"postalCode":"97269","state":"Yucatán","municipality":"Mérida","setelement":"Santa Maria de Guadalupe"},{"postalCode":"97270","state":"Yucatán","municipality":"Mérida","setelement":"Dolores Otero"},{"postalCode":"97277","state":"Yucatán","municipality":"Mérida","setelement":"Mercedes Barrera"},{"postalCode":"97278","state":"Yucatán","municipality":"Mérida","setelement":"Castilla Camara"},{"postalCode":"97279","state":"Yucatán","municipality":"Mérida","setelement":"Santa Rosa"},{"postalCode":"97279","state":"Yucatán","municipality":"Mérida","setelement":"Quinta Santa Rosa"},{"postalCode":"97280","state":"Yucatán","municipality":"Mérida","setelement":"5 Colonias"},{"postalCode":"97280","state":"Yucatán","municipality":"Mérida","setelement":"Santa Rita"},{"postalCode":"97284","state":"Yucatán","municipality":"Mérida","setelement":"Lomas Del Sur"},{"postalCode":"97284","state":"Yucatán","municipality":"Mérida","setelement":"Lindavista"},{"postalCode":"97285","state":"Yucatán","municipality":"Mérida","setelement":"Bellavista"},{"postalCode":"97285","state":"Yucatán","municipality":"Mérida","setelement":"Serapio Rendón"},{"postalCode":"97285","state":"Yucatán","municipality":"Mérida","setelement":"San José Tzal"},{"postalCode":"97285","state":"Yucatán","municipality":"Mérida","setelement":"Villa Bonita"},{"postalCode":"97285","state":"Yucatán","municipality":"Mérida","setelement":"Ampliación Plan de Ayala"},{"postalCode":"97285","state":"Yucatán","municipality":"Mérida","setelement":"Haltunchén"},{"postalCode":"97285","state":"Yucatán","municipality":"Mérida","setelement":"Plan de Ayala Sur"},{"postalCode":"97285","state":"Yucatán","municipality":"Mérida","setelement":"Serapio Rendón III"},{"postalCode":"97285","state":"Yucatán","municipality":"Mérida","setelement":"Villas Del Sur"},{"postalCode":"97285","state":"Yucatán","municipality":"Mérida","setelement":"Lotificacion Serapio Rendón 1"},{"postalCode":"97285","state":"Yucatán","municipality":"Mérida","setelement":"San Carlos del Sur"},{"postalCode":"97285","state":"Yucatán","municipality":"Mérida","setelement":"Villa Magna del Sur"},{"postalCode":"97285","state":"Yucatán","municipality":"Mérida","setelement":"Jardines del Sur"},{"postalCode":"97285","state":"Yucatán","municipality":"Mérida","setelement":"Álamos del Sur"},{"postalCode":"97285","state":"Yucatán","municipality":"Mérida","setelement":"Plan de Ayala Sur III"},{"postalCode":"97285","state":"Yucatán","municipality":"Mérida","setelement":"Serapio Rendón II"},{"postalCode":"97285","state":"Yucatán","municipality":"Mérida","setelement":"Las Nubes"},{"postalCode":"97285","state":"Yucatán","municipality":"Mérida","setelement":"Palmas del Sur"},{"postalCode":"97286","state":"Yucatán","municipality":"Mérida","setelement":"Las Brisas Del Sur"},{"postalCode":"97287","state":"Yucatán","municipality":"Mérida","setelement":"Del Sur"},{"postalCode":"97288","state":"Yucatán","municipality":"Mérida","setelement":"Ciudad Industrial"},{"postalCode":"97289","state":"Yucatán","municipality":"Mérida","setelement":"La Hacienda"},{"postalCode":"97289","state":"Yucatán","municipality":"Mérida","setelement":"San Nicolás Del Sur"},{"postalCode":"97289","state":"Yucatán","municipality":"Mérida","setelement":"Ampliación La Hacienda"},{"postalCode":"97290","state":"Yucatán","municipality":"Mérida","setelement":"San Antonio Xluch"},{"postalCode":"97290","state":"Yucatán","municipality":"Mérida","setelement":"Nueva San Jose Tecoh"},{"postalCode":"97290","state":"Yucatán","municipality":"Mérida","setelement":"San Antonio Xluch II"},{"postalCode":"97290","state":"Yucatán","municipality":"Mérida","setelement":"La Guadalupana"},{"postalCode":"97295","state":"Yucatán","municipality":"Mérida","setelement":"Mérida (Lic. Manuel Crescencio Rejón)"},{"postalCode":"97295","state":"Yucatán","municipality":"Mérida","setelement":"San Marcos"},{"postalCode":"97295","state":"Yucatán","municipality":"Mérida","setelement":"Gran Roble"},{"postalCode":"97295","state":"Yucatán","municipality":"Mérida","setelement":"El Roble Agrícola"},{"postalCode":"97295","state":"Yucatán","municipality":"Mérida","setelement":"Santa Cruz"},{"postalCode":"97296","state":"Yucatán","municipality":"Mérida","setelement":"San Marcos Nocoh"},{"postalCode":"97297","state":"Yucatán","municipality":"Mérida","setelement":"Villas Quetzal"},{"postalCode":"97297","state":"Yucatán","municipality":"Mérida","setelement":"Emiliano Zapata Sur"},{"postalCode":"97297","state":"Yucatán","municipality":"Mérida","setelement":"El Rosal"},{"postalCode":"97297","state":"Yucatán","municipality":"Mérida","setelement":"San Luis Sur"},{"postalCode":"97297","state":"Yucatán","municipality":"Mérida","setelement":"Metropolitana"},{"postalCode":"97297","state":"Yucatán","municipality":"Mérida","setelement":"San Antonio Xluch III"},{"postalCode":"97298","state":"Yucatán","municipality":"Mérida","setelement":"Zacilha"},{"postalCode":"97298","state":"Yucatán","municipality":"Mérida","setelement":"San Jose Tecoh Sur"},{"postalCode":"97298","state":"Yucatán","municipality":"Mérida","setelement":"Privada Zuzil - Ha"},{"postalCode":"97298","state":"Yucatán","municipality":"Mérida","setelement":"Zazil - Ha II"},{"postalCode":"97298","state":"Yucatán","municipality":"Mérida","setelement":"Brisas de San José"},{"postalCode":"97299","state":"Yucatán","municipality":"Mérida","setelement":"San Jose Tecoh"},{"postalCode":"97302","state":"Yucatán","municipality":"Mérida","setelement":"Los Tamarindos"},{"postalCode":"97302","state":"Yucatán","municipality":"Mérida","setelement":"Residencial Xcanatún"},{"postalCode":"97302","state":"Yucatán","municipality":"Mérida","setelement":"Royal del Parque"},{"postalCode":"97302","state":"Yucatán","municipality":"Mérida","setelement":"Chablekal"},{"postalCode":"97302","state":"Yucatán","municipality":"Mérida","setelement":"Komchén"},{"postalCode":"97302","state":"Yucatán","municipality":"Mérida","setelement":"Xcanatún"},{"postalCode":"97302","state":"Yucatán","municipality":"Mérida","setelement":"Dzidzilché"},{"postalCode":"97302","state":"Yucatán","municipality":"Mérida","setelement":"Sierra Papacal"},{"postalCode":"97302","state":"Yucatán","municipality":"Mérida","setelement":"Piedra Antigua"},{"postalCode":"97302","state":"Yucatán","municipality":"Mérida","setelement":"Palmequén"},{"postalCode":"97302","state":"Yucatán","municipality":"Mérida","setelement":"Xotik"},{"postalCode":"97302","state":"Yucatán","municipality":"Mérida","setelement":"San Antonio Residencial"},{"postalCode":"97302","state":"Yucatán","municipality":"Mérida","setelement":"Residencial La Alborada"},{"postalCode":"97302","state":"Yucatán","municipality":"Mérida","setelement":"Residencial Club Norte Mérida"},{"postalCode":"97302","state":"Yucatán","municipality":"Mérida","setelement":"San Antonio Hool"},{"postalCode":"97302","state":"Yucatán","municipality":"Mérida","setelement":"Real de Dzityá"},{"postalCode":"97302","state":"Yucatán","municipality":"Mérida","setelement":"Punta Lago"},{"postalCode":"97302","state":"Yucatán","municipality":"Mérida","setelement":"Parque Industrial Yucatán"},{"postalCode":"97302","state":"Yucatán","municipality":"Mérida","setelement":"San Juan Bautista"},{"postalCode":"97302","state":"Yucatán","municipality":"Mérida","setelement":"Dzityá"},{"postalCode":"97302","state":"Yucatán","municipality":"Mérida","setelement":"Sac-Nicté"},{"postalCode":"97302","state":"Yucatán","municipality":"Mérida","setelement":"Temozón Norte"},{"postalCode":"97302","state":"Yucatán","municipality":"Mérida","setelement":"Club de Golf La Ceiba"},{"postalCode":"97302","state":"Yucatán","municipality":"Mérida","setelement":"Las Américas"},{"postalCode":"97302","state":"Yucatán","municipality":"Mérida","setelement":"Real Montejo"},{"postalCode":"97302","state":"Yucatán","municipality":"Mérida","setelement":"Residencial del Mayab"},{"postalCode":"97302","state":"Yucatán","municipality":"Mérida","setelement":"Las Fincas"},{"postalCode":"97302","state":"Yucatán","municipality":"Mérida","setelement":"Núcleo Sodzil"},{"postalCode":"97303","state":"Yucatán","municipality":"Mérida","setelement":"Cosgaya"},{"postalCode":"97303","state":"Yucatán","municipality":"Mérida","setelement":"Kikteil"},{"postalCode":"97303","state":"Yucatán","municipality":"Mérida","setelement":"Noc Ac"},{"postalCode":"97303","state":"Yucatán","municipality":"Mérida","setelement":"Cheumán"},{"postalCode":"97304","state":"Yucatán","municipality":"Mérida","setelement":"Xcunyá"},{"postalCode":"97304","state":"Yucatán","municipality":"Mérida","setelement":"Tamanché"},{"postalCode":"97305","state":"Yucatán","municipality":"Mérida","setelement":"Residencial Campestre Viladiu"},{"postalCode":"97305","state":"Yucatán","municipality":"Mérida","setelement":"Gran San Pedro Cholul"},{"postalCode":"97305","state":"Yucatán","municipality":"Mérida","setelement":"Villas Cholul"},{"postalCode":"97305","state":"Yucatán","municipality":"Mérida","setelement":"Bogdan"},{"postalCode":"97305","state":"Yucatán","municipality":"Mérida","setelement":"San Luis Cholul"},{"postalCode":"97305","state":"Yucatán","municipality":"Mérida","setelement":"Cholul"},{"postalCode":"97305","state":"Yucatán","municipality":"Mérida","setelement":"Parque Central"},{"postalCode":"97305","state":"Yucatán","municipality":"Mérida","setelement":"Sian Kaan"},{"postalCode":"97305","state":"Yucatán","municipality":"Mérida","setelement":"Residencial Anturio"},{"postalCode":"97305","state":"Yucatán","municipality":"Mérida","setelement":"Altavista"},{"postalCode":"97305","state":"Yucatán","municipality":"Mérida","setelement":"Granjas Cholul"},{"postalCode":"97305","state":"Yucatán","municipality":"Mérida","setelement":"Alura"},{"postalCode":"97305","state":"Yucatán","municipality":"Mérida","setelement":"Tixcuytún"},{"postalCode":"97305","state":"Yucatán","municipality":"Mérida","setelement":"Villas del Bosque Cholul"},{"postalCode":"97305","state":"Yucatán","municipality":"Mérida","setelement":"San Gabriel Tulipanes"},{"postalCode":"97305","state":"Yucatán","municipality":"Mérida","setelement":"Cabo Norte"},{"postalCode":"97305","state":"Yucatán","municipality":"Mérida","setelement":"Parque Natura"},{"postalCode":"97305","state":"Yucatán","municipality":"Mérida","setelement":"El Triunfo"},{"postalCode":"97305","state":"Yucatán","municipality":"Mérida","setelement":"Santa Gertrudis Copo"},{"postalCode":"97305","state":"Yucatán","municipality":"Mérida","setelement":"Algarrobos Desarrollo Residencial"},{"postalCode":"97305","state":"Yucatán","municipality":"Mérida","setelement":"Las Margaritas de Cholul"},{"postalCode":"97305","state":"Yucatán","municipality":"Mérida","setelement":"Dzibilchaltún"},{"postalCode":"97305","state":"Yucatán","municipality":"Mérida","setelement":"Cocoyoles"},{"postalCode":"97305","state":"Yucatán","municipality":"Mérida","setelement":"Jalapa"},{"postalCode":"97306","state":"Yucatán","municipality":"Mérida","setelement":"Chichi Suárez"},{"postalCode":"97306","state":"Yucatán","municipality":"Mérida","setelement":"Sitpach"},{"postalCode":"97306","state":"Yucatán","municipality":"Mérida","setelement":"Residencial Floresta"},{"postalCode":"97306","state":"Yucatán","municipality":"Mérida","setelement":"Santa María Chí"},{"postalCode":"97306","state":"Yucatán","municipality":"Mérida","setelement":"Los Héroes"},{"postalCode":"97307","state":"Yucatán","municipality":"Mérida","setelement":"La Rejoyada"},{"postalCode":"97307","state":"Yucatán","municipality":"Mérida","setelement":"Jardines de Rejoyada"},{"postalCode":"97307","state":"Yucatán","municipality":"Mérida","setelement":"Komchén (Santuario)"},{"postalCode":"97308","state":"Yucatán","municipality":"Mérida","setelement":"Santa María Yaxché"},{"postalCode":"97308","state":"Yucatán","municipality":"Mérida","setelement":"Yucatán Country Club"},{"postalCode":"97308","state":"Yucatán","municipality":"Mérida","setelement":"Misnébalam"},{"postalCode":"97308","state":"Yucatán","municipality":"Mérida","setelement":"Universidad del Mayab"},{"postalCode":"97309","state":"Yucatán","municipality":"Mérida","setelement":"Yaxché Casares"},{"postalCode":"97310","state":"Yucatán","municipality":"Mérida","setelement":"Oncán"},{"postalCode":"97312","state":"Yucatán","municipality":"Mérida","setelement":"Los Faisanes de Tixcacal"},{"postalCode":"97312","state":"Yucatán","municipality":"Mérida","setelement":"Solana Residencial"},{"postalCode":"97312","state":"Yucatán","municipality":"Mérida","setelement":"Providencia"},{"postalCode":"97312","state":"Yucatán","municipality":"Mérida","setelement":"Tixcacal"},{"postalCode":"97312","state":"Yucatán","municipality":"Mérida","setelement":"Chalmuch"},{"postalCode":"97314","state":"Yucatán","municipality":"Mérida","setelement":"Balcones II"},{"postalCode":"97314","state":"Yucatán","municipality":"Mérida","setelement":"Ciudad Caucel II"},{"postalCode":"97314","state":"Yucatán","municipality":"Mérida","setelement":"Hogares Caucel"},{"postalCode":"97314","state":"Yucatán","municipality":"Mérida","setelement":"Caucel"},{"postalCode":"97314","state":"Yucatán","municipality":"Mérida","setelement":"Cerradas de la Herradura"},{"postalCode":"97314","state":"Yucatán","municipality":"Mérida","setelement":"Villa Jardín"},{"postalCode":"97314","state":"Yucatán","municipality":"Mérida","setelement":"La Ceiba"},{"postalCode":"97314","state":"Yucatán","municipality":"Mérida","setelement":"La Perla Ciudad Caucel"},{"postalCode":"97314","state":"Yucatán","municipality":"Mérida","setelement":"Gran Herradura"},{"postalCode":"97314","state":"Yucatán","municipality":"Mérida","setelement":"La Ciudadela"},{"postalCode":"97314","state":"Yucatán","municipality":"Mérida","setelement":"Sol Caucel"},{"postalCode":"97314","state":"Yucatán","municipality":"Mérida","setelement":"Jardines de Caucel"},{"postalCode":"97314","state":"Yucatán","municipality":"Mérida","setelement":"Susulá"},{"postalCode":"97314","state":"Yucatán","municipality":"Mérida","setelement":"Los Balcones"},{"postalCode":"97314","state":"Yucatán","municipality":"Mérida","setelement":"Los Almendros"},{"postalCode":"97314","state":"Yucatán","municipality":"Mérida","setelement":"Villas de Caucel"},{"postalCode":"97314","state":"Yucatán","municipality":"Mérida","setelement":"Boulevares"},{"postalCode":"97314","state":"Yucatán","municipality":"Mérida","setelement":"Arboleda"},{"postalCode":"97314","state":"Yucatán","municipality":"Mérida","setelement":"Las Torres I"},{"postalCode":"97314","state":"Yucatán","municipality":"Mérida","setelement":"Pedregales de Ciudad Caucel"},{"postalCode":"97314","state":"Yucatán","municipality":"Mérida","setelement":"La Herradura II"},{"postalCode":"97314","state":"Yucatán","municipality":"Mérida","setelement":"Gran Santa Fe"},{"postalCode":"97314","state":"Yucatán","municipality":"Mérida","setelement":"Las Torres"},{"postalCode":"97314","state":"Yucatán","municipality":"Mérida","setelement":"Viva Caucel"},{"postalCode":"97314","state":"Yucatán","municipality":"Mérida","setelement":"Hacienda Caucel"},{"postalCode":"97314","state":"Yucatán","municipality":"Mérida","setelement":"La Herradura III"},{"postalCode":"97314","state":"Yucatán","municipality":"Mérida","setelement":"Las Torres II"},{"postalCode":"97314","state":"Yucatán","municipality":"Mérida","setelement":"Centenario Cámara de Comercio Caucel"},{"postalCode":"97314","state":"Yucatán","municipality":"Mérida","setelement":"Sol Caucel III"},{"postalCode":"97314","state":"Yucatán","municipality":"Mérida","setelement":"Ciudad Caucel"},{"postalCode":"97315","state":"Yucatán","municipality":"Mérida","setelement":"Nuevo San José Tecoh III"},{"postalCode":"97315","state":"Yucatán","municipality":"Mérida","setelement":"Dzununcán"},{"postalCode":"97315","state":"Yucatán","municipality":"Mérida","setelement":"Molas"},{"postalCode":"97315","state":"Yucatán","municipality":"Mérida","setelement":"San José Tzal"},{"postalCode":"97315","state":"Yucatán","municipality":"Mérida","setelement":"Tahdzibichén"},{"postalCode":"97315","state":"Yucatán","municipality":"Mérida","setelement":"San Antonio Tzacalá"},{"postalCode":"97315","state":"Yucatán","municipality":"Mérida","setelement":"Dzununcan"},{"postalCode":"97315","state":"Yucatán","municipality":"Mérida","setelement":"Hunxectamán"},{"postalCode":"97315","state":"Yucatán","municipality":"Mérida","setelement":"Jardines de Tahdzibichén"},{"postalCode":"97315","state":"Yucatán","municipality":"Mérida","setelement":"San Pedro Chimay"},{"postalCode":"97315","state":"Yucatán","municipality":"Mérida","setelement":"Texán Cámara"},{"postalCode":"97315","state":"Yucatán","municipality":"Mérida","setelement":"Santa Cruz Palomeque"},{"postalCode":"97315","state":"Yucatán","municipality":"Mérida","setelement":"Xmatkuil"},{"postalCode":"97315","state":"Yucatán","municipality":"Mérida","setelement":"La Guadalupana"},{"postalCode":"97315","state":"Yucatán","municipality":"Mérida","setelement":"Nuevo San José Tecoh"},{"postalCode":"97315","state":"Yucatán","municipality":"Mérida","setelement":"Petac"},{"postalCode":"97316","state":"Yucatán","municipality":"Mérida","setelement":"Dzoyaxché"},{"postalCode":"97316","state":"Yucatán","municipality":"Mérida","setelement":"San Ignacio Tesip"},{"postalCode":"97316","state":"Yucatán","municipality":"Mérida","setelement":"Yaxnic"},{"postalCode":"97320","state":"Yucatán","municipality":"Progreso","setelement":"Las Fuentes II"},{"postalCode":"97320","state":"Yucatán","municipality":"Progreso","setelement":"Vicente Guerrero"},{"postalCode":"97320","state":"Yucatán","municipality":"Progreso","setelement":"Progreso de Castro Centro"},{"postalCode":"97320","state":"Yucatán","municipality":"Progreso","setelement":"Feliciano Canul Reyes"},{"postalCode":"97320","state":"Yucatán","municipality":"Progreso","setelement":"Ismael Garcia"},{"postalCode":"97320","state":"Yucatán","municipality":"Progreso","setelement":"Juan Montalvo"},{"postalCode":"97320","state":"Yucatán","municipality":"Progreso","setelement":"Nueva Yucalpeten"},{"postalCode":"97320","state":"Yucatán","municipality":"Progreso","setelement":"Revolución"},{"postalCode":"97320","state":"Yucatán","municipality":"Progreso","setelement":"Hector Victoria"},{"postalCode":"97320","state":"Yucatán","municipality":"Progreso","setelement":"Costa Azul"},{"postalCode":"97320","state":"Yucatán","municipality":"Progreso","setelement":"23 de Noviembre"},{"postalCode":"97320","state":"Yucatán","municipality":"Progreso","setelement":"La Fuente"},{"postalCode":"97320","state":"Yucatán","municipality":"Progreso","setelement":"Fovissste"},{"postalCode":"97320","state":"Yucatán","municipality":"Progreso","setelement":"Las Palmas"},{"postalCode":"97320","state":"Yucatán","municipality":"Progreso","setelement":"Fovissste Brisas"},{"postalCode":"97320","state":"Yucatán","municipality":"Progreso","setelement":"Ciénega 2000"},{"postalCode":"97320","state":"Yucatán","municipality":"Progreso","setelement":"Francisco I. Madero"},{"postalCode":"97324","state":"Yucatán","municipality":"Progreso","setelement":"Campestre Flamboyanes"},{"postalCode":"97330","state":"Yucatán","municipality":"Progreso","setelement":"Chicxulub Puerto"},{"postalCode":"97334","state":"Yucatán","municipality":"Progreso","setelement":"San Ignacio"},{"postalCode":"97336","state":"Yucatán","municipality":"Progreso","setelement":"Chuburna Puerto"},{"postalCode":"97336","state":"Yucatán","municipality":"Progreso","setelement":"Chelem"},{"postalCode":"97336","state":"Yucatán","municipality":"Progreso","setelement":"Yucalpeten"},{"postalCode":"97337","state":"Yucatán","municipality":"Progreso","setelement":"Muelle y Puerto de Altura"},{"postalCode":"97340","state":"Yucatán","municipality":"Chicxulub Pueblo","setelement":"Chicxulub"},{"postalCode":"97342","state":"Yucatán","municipality":"Chicxulub Pueblo","setelement":"Quintas Baspul"},{"postalCode":"97343","state":"Yucatán","municipality":"Ixil","setelement":"Ixil"},{"postalCode":"97343","state":"Yucatán","municipality":"Ixil","setelement":"Concepción"},{"postalCode":"97343","state":"Yucatán","municipality":"Ixil","setelement":"San Rafael"},{"postalCode":"97345","state":"Yucatán","municipality":"Conkal","setelement":"Jardines de Conkal"},{"postalCode":"97345","state":"Yucatán","municipality":"Conkal","setelement":"Villas de Conkal"},{"postalCode":"97345","state":"Yucatán","municipality":"Conkal","setelement":"Real de Conkal"},{"postalCode":"97345","state":"Yucatán","municipality":"Conkal","setelement":"Paseo del Ángel"},{"postalCode":"97345","state":"Yucatán","municipality":"Conkal","setelement":"Santa Cruz"},{"postalCode":"97345","state":"Yucatán","municipality":"Conkal","setelement":"Pedregales de Conkal"},{"postalCode":"97345","state":"Yucatán","municipality":"Conkal","setelement":"Palma Real"},{"postalCode":"97345","state":"Yucatán","municipality":"Conkal","setelement":"Bosques de Conkal"},{"postalCode":"97345","state":"Yucatán","municipality":"Conkal","setelement":"Magnolia Residencial"},{"postalCode":"97345","state":"Yucatán","municipality":"Conkal","setelement":"Manere"},{"postalCode":"97345","state":"Yucatán","municipality":"Conkal","setelement":"Conkal"},{"postalCode":"97345","state":"Yucatán","municipality":"Conkal","setelement":"Los Laureles"},{"postalCode":"97345","state":"Yucatán","municipality":"Conkal","setelement":"Verde Limón"},{"postalCode":"97346","state":"Yucatán","municipality":"Conkal","setelement":"Vega del Mayab"},{"postalCode":"97346","state":"Yucatán","municipality":"Conkal","setelement":"X-Cuyum"},{"postalCode":"97346","state":"Yucatán","municipality":"Conkal","setelement":"Santa María Rosas"},{"postalCode":"97347","state":"Yucatán","municipality":"Conkal","setelement":"Praderas del Mayab"},{"postalCode":"97347","state":"Yucatán","municipality":"Conkal","setelement":"Kantoyna"},{"postalCode":"97348","state":"Yucatán","municipality":"Yaxkukul","setelement":"Yaxkukul"},{"postalCode":"97350","state":"Yucatán","municipality":"Hunucmá","setelement":"Papagayos"},{"postalCode":"97350","state":"Yucatán","municipality":"Hunucmá","setelement":"Centro Hunucmá"},{"postalCode":"97353","state":"Yucatán","municipality":"Hunucmá","setelement":"Texán de Palomeque"},{"postalCode":"97353","state":"Yucatán","municipality":"Hunucmá","setelement":"San Antonio Chel"},{"postalCode":"97353","state":"Yucatán","municipality":"Hunucmá","setelement":"Hunkanab"},{"postalCode":"97356","state":"Yucatán","municipality":"Hunucmá","setelement":"Sisal"},{"postalCode":"97357","state":"Yucatán","municipality":"Ucú","setelement":"San Juan"},{"postalCode":"97357","state":"Yucatán","municipality":"Ucú","setelement":"Ucú"},{"postalCode":"97357","state":"Yucatán","municipality":"Ucú","setelement":"Yaxche de Peón"},{"postalCode":"97360","state":"Yucatán","municipality":"Kinchil","setelement":"Kinchil"},{"postalCode":"97362","state":"Yucatán","municipality":"Kinchil","setelement":"Tamchén"},{"postalCode":"97364","state":"Yucatán","municipality":"Tetiz","setelement":"Tetiz"},{"postalCode":"97365","state":"Yucatán","municipality":"Tetiz","setelement":"Nohuayun"},{"postalCode":"97367","state":"Yucatán","municipality":"Celestún","setelement":"Celestún"},{"postalCode":"97367","state":"Yucatán","municipality":"Celestún","setelement":"Chac Canché"},{"postalCode":"97367","state":"Yucatán","municipality":"Celestún","setelement":"Santa Cruz Xixim"},{"postalCode":"97370","state":"Yucatán","municipality":"Kanasín","setelement":"Santa Cecilia"},{"postalCode":"97370","state":"Yucatán","municipality":"Kanasín","setelement":"Valle Azul"},{"postalCode":"97370","state":"Yucatán","municipality":"Kanasín","setelement":"Privada del Sol"},{"postalCode":"97370","state":"Yucatán","municipality":"Kanasín","setelement":"Girasoles"},{"postalCode":"97370","state":"Yucatán","municipality":"Kanasín","setelement":"Fontana I"},{"postalCode":"97370","state":"Yucatán","municipality":"Kanasín","setelement":"Las Palmeras"},{"postalCode":"97370","state":"Yucatán","municipality":"Kanasín","setelement":"Arecas"},{"postalCode":"97370","state":"Yucatán","municipality":"Kanasín","setelement":"San Haroldo San José Tzal"},{"postalCode":"97370","state":"Yucatán","municipality":"Kanasín","setelement":"Leona Vicario"},{"postalCode":"97370","state":"Yucatán","municipality":"Kanasín","setelement":"Jardines de San Pedro Noh Pat"},{"postalCode":"97370","state":"Yucatán","municipality":"Kanasín","setelement":"Puerta del Sol"},{"postalCode":"97370","state":"Yucatán","municipality":"Kanasín","setelement":"Pedregales de Kanasín II"},{"postalCode":"97370","state":"Yucatán","municipality":"Kanasín","setelement":"Valle Oriente"},{"postalCode":"97370","state":"Yucatán","municipality":"Kanasín","setelement":"Villas Turquesa"},{"postalCode":"97370","state":"Yucatán","municipality":"Kanasín","setelement":"Álamos de Oriente"},{"postalCode":"97370","state":"Yucatán","municipality":"Kanasín","setelement":"Cuauhtémoc"},{"postalCode":"97370","state":"Yucatán","municipality":"Kanasín","setelement":"Los Pinos de Mulchechen"},{"postalCode":"97370","state":"Yucatán","municipality":"Kanasín","setelement":"Puerta Esmeralda"},{"postalCode":"97370","state":"Yucatán","municipality":"Kanasín","setelement":"La Ceiba"},{"postalCode":"97370","state":"Yucatán","municipality":"Kanasín","setelement":"Pedregales del Oriente"},{"postalCode":"97370","state":"Yucatán","municipality":"Kanasín","setelement":"Las Palmas Yucatán"},{"postalCode":"97370","state":"Yucatán","municipality":"Kanasín","setelement":"Xelpac"},{"postalCode":"97370","state":"Yucatán","municipality":"Kanasín","setelement":"Ampliación Xelpac"},{"postalCode":"97370","state":"Yucatán","municipality":"Kanasín","setelement":"San Ignacio"},{"postalCode":"97370","state":"Yucatán","municipality":"Kanasín","setelement":"Santa Ana"},{"postalCode":"97370","state":"Yucatán","municipality":"Kanasín","setelement":"Condesa"},{"postalCode":"97370","state":"Yucatán","municipality":"Kanasín","setelement":"Mulchechén II"},{"postalCode":"97370","state":"Yucatán","municipality":"Kanasín","setelement":"Cielo Alto"},{"postalCode":"97370","state":"Yucatán","municipality":"Kanasín","setelement":"Despertare"},{"postalCode":"97370","state":"Yucatán","municipality":"Kanasín","setelement":"Coyoles"},{"postalCode":"97370","state":"Yucatán","municipality":"Kanasín","setelement":"El Encanto Kanasín"},{"postalCode":"97370","state":"Yucatán","municipality":"Kanasín","setelement":"Arboleda Kanasín"},{"postalCode":"97370","state":"Yucatán","municipality":"Kanasín","setelement":"San José Kanasín"},{"postalCode":"97370","state":"Yucatán","municipality":"Kanasín","setelement":"Villa Bonita"},{"postalCode":"97370","state":"Yucatán","municipality":"Kanasín","setelement":"Rinconada Kanasín"},{"postalCode":"97370","state":"Yucatán","municipality":"Kanasín","setelement":"Villa Mercedes"},{"postalCode":"97370","state":"Yucatán","municipality":"Kanasín","setelement":"Las Perlas"},{"postalCode":"97370","state":"Yucatán","municipality":"Kanasín","setelement":"Valle Oriente de San Pedro Noh Pat"},{"postalCode":"97370","state":"Yucatán","municipality":"Kanasín","setelement":"Pedregales de Kanasín"},{"postalCode":"97370","state":"Yucatán","municipality":"Kanasín","setelement":"Residencial"},{"postalCode":"97370","state":"Yucatán","municipality":"Kanasín","setelement":"VIVAH"},{"postalCode":"97370","state":"Yucatán","municipality":"Kanasín","setelement":"Las Haciendas"},{"postalCode":"97370","state":"Yucatán","municipality":"Kanasín","setelement":"La Piedra"},{"postalCode":"97370","state":"Yucatán","municipality":"Kanasín","setelement":"Andrés Quintana Roo"},{"postalCode":"97370","state":"Yucatán","municipality":"Kanasín","setelement":"Alamos Mulchechen"},{"postalCode":"97370","state":"Yucatán","municipality":"Kanasín","setelement":"El Cerrito"},{"postalCode":"97370","state":"Yucatán","municipality":"Kanasín","setelement":"Amalia Solorzano II"},{"postalCode":"97370","state":"Yucatán","municipality":"Kanasín","setelement":"Kanasín Centro"},{"postalCode":"97370","state":"Yucatán","municipality":"Kanasín","setelement":"Colibrí"},{"postalCode":"97370","state":"Yucatán","municipality":"Kanasín","setelement":"CROC"},{"postalCode":"97370","state":"Yucatán","municipality":"Kanasín","setelement":"Francisco Villa Oriente"},{"postalCode":"97370","state":"Yucatán","municipality":"Kanasín","setelement":"Mulchechén"},{"postalCode":"97370","state":"Yucatán","municipality":"Kanasín","setelement":"San Antonio Kaua III"},{"postalCode":"97370","state":"Yucatán","municipality":"Kanasín","setelement":"Hector Victoria"},{"postalCode":"97370","state":"Yucatán","municipality":"Kanasín","setelement":"Pablo Moreno"},{"postalCode":"97370","state":"Yucatán","municipality":"Kanasín","setelement":"Reparto las Granjas"},{"postalCode":"97370","state":"Yucatán","municipality":"Kanasín","setelement":"San Camilo"},{"postalCode":"97370","state":"Yucatán","municipality":"Kanasín","setelement":"Los Encinos"},{"postalCode":"97370","state":"Yucatán","municipality":"Kanasín","setelement":"San Pedro Noh Pat"},{"postalCode":"97370","state":"Yucatán","municipality":"Kanasín","setelement":"Flor de Mayo"},{"postalCode":"97370","state":"Yucatán","municipality":"Kanasín","setelement":"Jardines de Mulchechen"},{"postalCode":"97370","state":"Yucatán","municipality":"Kanasín","setelement":"Jardines de Kanasín"},{"postalCode":"97370","state":"Yucatán","municipality":"Kanasín","setelement":"Los Tulipanes"},{"postalCode":"97370","state":"Yucatán","municipality":"Kanasín","setelement":"Palmas San Pedro"},{"postalCode":"97370","state":"Yucatán","municipality":"Kanasín","setelement":"Las Flores"},{"postalCode":"97370","state":"Yucatán","municipality":"Kanasín","setelement":"Los Robles III"},{"postalCode":"97370","state":"Yucatán","municipality":"Kanasín","setelement":"La Joya"},{"postalCode":"97370","state":"Yucatán","municipality":"Kanasín","setelement":"Los Robles"},{"postalCode":"97370","state":"Yucatán","municipality":"Kanasín","setelement":"Villas del Oriente"},{"postalCode":"97370","state":"Yucatán","municipality":"Kanasín","setelement":"Cecilio Chi"},{"postalCode":"97373","state":"Yucatán","municipality":"Kanasín","setelement":"Santa Isabel"},{"postalCode":"97374","state":"Yucatán","municipality":"Kanasín","setelement":"San Aroldo"},{"postalCode":"97374","state":"Yucatán","municipality":"Kanasín","setelement":"San Pedro (Deshuesadero)"},{"postalCode":"97374","state":"Yucatán","municipality":"Kanasín","setelement":"Teya"},{"postalCode":"97376","state":"Yucatán","municipality":"Kanasín","setelement":"San Antonio Tehuitz"},{"postalCode":"97377","state":"Yucatán","municipality":"Timucuy","setelement":"Tekik de Regil"},{"postalCode":"97377","state":"Yucatán","municipality":"Timucuy","setelement":"Timucuy"},{"postalCode":"97378","state":"Yucatán","municipality":"Timucuy","setelement":"Subincancab"},{"postalCode":"97380","state":"Yucatán","municipality":"Acanceh","setelement":"Santiago"},{"postalCode":"97380","state":"Yucatán","municipality":"Acanceh","setelement":"Acanceh"},{"postalCode":"97380","state":"Yucatán","municipality":"Acanceh","setelement":"Canicab"},{"postalCode":"97380","state":"Yucatán","municipality":"Acanceh","setelement":"Ticopó"},{"postalCode":"97380","state":"Yucatán","municipality":"Acanceh","setelement":"El Zapotal"},{"postalCode":"97382","state":"Yucatán","municipality":"Acanceh","setelement":"Tepich Carrillo"},{"postalCode":"97383","state":"Yucatán","municipality":"Acanceh","setelement":"Cibceh"},{"postalCode":"97383","state":"Yucatán","municipality":"Acanceh","setelement":"Petectunich"},{"postalCode":"97383","state":"Yucatán","municipality":"Acanceh","setelement":"Sacchich"},{"postalCode":"97386","state":"Yucatán","municipality":"Tixpéhual","setelement":"Tixpéhual"},{"postalCode":"97387","state":"Yucatán","municipality":"Tixpéhual","setelement":"Chocho"},{"postalCode":"97387","state":"Yucatán","municipality":"Tixpéhual","setelement":"Kilinche"},{"postalCode":"97388","state":"Yucatán","municipality":"Tixpéhual","setelement":"Sahe"},{"postalCode":"97388","state":"Yucatán","municipality":"Tixpéhual","setelement":"Cuca"},{"postalCode":"97389","state":"Yucatán","municipality":"Tixpéhual","setelement":"Techoh"},{"postalCode":"97390","state":"Yucatán","municipality":"Umán","setelement":"Brisas de Umán"},{"postalCode":"97390","state":"Yucatán","municipality":"Umán","setelement":"Las Perlas de Umán"},{"postalCode":"97390","state":"Yucatán","municipality":"Umán","setelement":"El Oasis"},{"postalCode":"97390","state":"Yucatán","municipality":"Umán","setelement":"Camino Real"},{"postalCode":"97390","state":"Yucatán","municipality":"Umán","setelement":"Los Arcos I"},{"postalCode":"97390","state":"Yucatán","municipality":"Umán","setelement":"Residencial San Lázaro"},{"postalCode":"97390","state":"Yucatán","municipality":"Umán","setelement":"Centro Umán"},{"postalCode":"97390","state":"Yucatán","municipality":"Umán","setelement":"Acim I"},{"postalCode":"97390","state":"Yucatán","municipality":"Umán","setelement":"Los Ceibos"},{"postalCode":"97390","state":"Yucatán","municipality":"Umán","setelement":"Ampliación Ciudad Industrial"},{"postalCode":"97390","state":"Yucatán","municipality":"Umán","setelement":"La Mejorada"},{"postalCode":"97390","state":"Yucatán","municipality":"Umán","setelement":"Bosques de San Francisco"},{"postalCode":"97390","state":"Yucatán","municipality":"Umán","setelement":"San Lorenzo"},{"postalCode":"97390","state":"Yucatán","municipality":"Umán","setelement":"Cepeda Peraza"},{"postalCode":"97390","state":"Yucatán","municipality":"Umán","setelement":"Lázaro Cárdenas"},{"postalCode":"97390","state":"Yucatán","municipality":"Umán","setelement":"La Candelaria"},{"postalCode":"97390","state":"Yucatán","municipality":"Umán","setelement":"Dzibikal"},{"postalCode":"97390","state":"Yucatán","municipality":"Umán","setelement":"Santa Elena"},{"postalCode":"97390","state":"Yucatán","municipality":"Umán","setelement":"Miguel Hidalgo y Costilla"},{"postalCode":"97390","state":"Yucatán","municipality":"Umán","setelement":"Bosques de Umán"},{"postalCode":"97390","state":"Yucatán","municipality":"Umán","setelement":"Los Arcos II"},{"postalCode":"97390","state":"Yucatán","municipality":"Umán","setelement":"Acim II"},{"postalCode":"97390","state":"Yucatán","municipality":"Umán","setelement":"San Carlos"},{"postalCode":"97392","state":"Yucatán","municipality":"Umán","setelement":"Piedra de Agua"},{"postalCode":"97392","state":"Yucatán","municipality":"Umán","setelement":"El Roble Agrícola IV"},{"postalCode":"97392","state":"Yucatán","municipality":"Umán","setelement":"Itzincab"},{"postalCode":"97393","state":"Yucatán","municipality":"Umán","setelement":"Oxcum"},{"postalCode":"97393","state":"Yucatán","municipality":"Umán","setelement":"Dzibikak"},{"postalCode":"97394","state":"Yucatán","municipality":"Umán","setelement":"Taníl"},{"postalCode":"97394","state":"Yucatán","municipality":"Umán","setelement":"Xcucul Sur"},{"postalCode":"97394","state":"Yucatán","municipality":"Umán","setelement":"Gran Santa Cruz"},{"postalCode":"97394","state":"Yucatán","municipality":"Umán","setelement":"Tebec"},{"postalCode":"97394","state":"Yucatán","municipality":"Umán","setelement":"Ticimul"},{"postalCode":"97394","state":"Yucatán","municipality":"Umán","setelement":"Petecbiltun"},{"postalCode":"97394","state":"Yucatán","municipality":"Umán","setelement":"Xtepen"},{"postalCode":"97395","state":"Yucatán","municipality":"Umán","setelement":"Hotzuc"},{"postalCode":"97396","state":"Yucatán","municipality":"Umán","setelement":"Yaxcopoil"},{"postalCode":"97396","state":"Yucatán","municipality":"Umán","setelement":"San Antonio Mulix"},{"postalCode":"97397","state":"Yucatán","municipality":"Umán","setelement":"Bolon"},{"postalCode":"97397","state":"Yucatán","municipality":"Umán","setelement":"Oxholon"},{"postalCode":"97397","state":"Yucatán","municipality":"Umán","setelement":"San Antonio Chun"},{"postalCode":"97397","state":"Yucatán","municipality":"Umán","setelement":"Poxila"},{"postalCode":"97400","state":"Yucatán","municipality":"Telchac Pueblo","setelement":"Centro Telchac Pueblo"},{"postalCode":"97404","state":"Yucatán","municipality":"Dzemul","setelement":"INFONAVIT"},{"postalCode":"97404","state":"Yucatán","municipality":"Dzemul","setelement":"Dzemul"},{"postalCode":"97405","state":"Yucatán","municipality":"Dzemul","setelement":"Xtampú"},{"postalCode":"97405","state":"Yucatán","municipality":"Dzemul","setelement":"Xcambó"},{"postalCode":"97406","state":"Yucatán","municipality":"Dzemul","setelement":"San Eduardo"},{"postalCode":"97406","state":"Yucatán","municipality":"Dzemul","setelement":"San Diego"},{"postalCode":"97407","state":"Yucatán","municipality":"Telchac Puerto","setelement":"Telchac Puerto"},{"postalCode":"97410","state":"Yucatán","municipality":"Cansahcab","setelement":"Cansahcab"},{"postalCode":"97414","state":"Yucatán","municipality":"Cansahcab","setelement":"Santa María"},{"postalCode":"97415","state":"Yucatán","municipality":"Cansahcab","setelement":"San Antonio Xiat"},{"postalCode":"97415","state":"Yucatán","municipality":"Cansahcab","setelement":"Kankabchen de Molina"},{"postalCode":"97417","state":"Yucatán","municipality":"Cansahcab","setelement":"San Antonio"},{"postalCode":"97420","state":"Yucatán","municipality":"Sinanché","setelement":"Sinanché"},{"postalCode":"97420","state":"Yucatán","municipality":"Sinanché","setelement":"Miguel Alemán"},{"postalCode":"97424","state":"Yucatán","municipality":"Sinanché","setelement":"San Crisanto"},{"postalCode":"97425","state":"Yucatán","municipality":"Yobaín","setelement":"Yobaín"},{"postalCode":"97426","state":"Yucatán","municipality":"Yobaín","setelement":"Chabihau"},{"postalCode":"97430","state":"Yucatán","municipality":"Motul","setelement":"Motul de Carrillo Puerto Centro"},{"postalCode":"97430","state":"Yucatán","municipality":"Motul","setelement":"Sambula"},{"postalCode":"97432","state":"Yucatán","municipality":"Motul","setelement":"San Silverio"},{"postalCode":"97432","state":"Yucatán","municipality":"Motul","setelement":"Felipe Carrillo Puerto"},{"postalCode":"97432","state":"Yucatán","municipality":"Motul","setelement":"Infonavit"},{"postalCode":"97432","state":"Yucatán","municipality":"Motul","setelement":"Mario H Cuevas"},{"postalCode":"97432","state":"Yucatán","municipality":"Motul","setelement":"Perla de La Costa"},{"postalCode":"97432","state":"Yucatán","municipality":"Motul","setelement":"Las Huertas"},{"postalCode":"97432","state":"Yucatán","municipality":"Motul","setelement":"Puerta del Sol"},{"postalCode":"97432","state":"Yucatán","municipality":"Motul","setelement":"Londres"},{"postalCode":"97432","state":"Yucatán","municipality":"Motul","setelement":"Vivah"},{"postalCode":"97433","state":"Yucatán","municipality":"Motul","setelement":"San Carlos"},{"postalCode":"97433","state":"Yucatán","municipality":"Motul","setelement":"Santiago Castillo"},{"postalCode":"97433","state":"Yucatán","municipality":"Motul","setelement":"San Juan"},{"postalCode":"97433","state":"Yucatán","municipality":"Motul","setelement":"Santa Cruz Pachón"},{"postalCode":"97434","state":"Yucatán","municipality":"Motul","setelement":"Edesio Carrillo"},{"postalCode":"97434","state":"Yucatán","municipality":"Motul","setelement":"Rogelio Chale"},{"postalCode":"97434","state":"Yucatán","municipality":"Motul","setelement":"La Herradura"},{"postalCode":"97434","state":"Yucatán","municipality":"Motul","setelement":"San Roque"},{"postalCode":"97434","state":"Yucatán","municipality":"Motul","setelement":"El Roble"},{"postalCode":"97436","state":"Yucatán","municipality":"Motul","setelement":"Sacapuc"},{"postalCode":"97436","state":"Yucatán","municipality":"Motul","setelement":"Timul"},{"postalCode":"97437","state":"Yucatán","municipality":"Motul","setelement":"Kini"},{"postalCode":"97440","state":"Yucatán","municipality":"Motul","setelement":"Uci"},{"postalCode":"97440","state":"Yucatán","municipality":"Motul","setelement":"Kancabchen"},{"postalCode":"97440","state":"Yucatán","municipality":"Motul","setelement":"Komchén Martínez"},{"postalCode":"97440","state":"Yucatán","municipality":"Motul","setelement":"Santa Teresa"},{"postalCode":"97440","state":"Yucatán","municipality":"Motul","setelement":"San Pedro Chacabal"},{"postalCode":"97443","state":"Yucatán","municipality":"Motul","setelement":"Tanya"},{"postalCode":"97443","state":"Yucatán","municipality":"Motul","setelement":"Kancabal"},{"postalCode":"97444","state":"Yucatán","municipality":"Motul","setelement":"Kaxatah"},{"postalCode":"97444","state":"Yucatán","municipality":"Motul","setelement":"Mesatunich"},{"postalCode":"97444","state":"Yucatán","municipality":"Motul","setelement":"Kopte"},{"postalCode":"97444","state":"Yucatán","municipality":"Motul","setelement":"Kambul"},{"postalCode":"97444","state":"Yucatán","municipality":"Motul","setelement":"Dzununcan"},{"postalCode":"97444","state":"Yucatán","municipality":"Motul","setelement":"Kancabchén Uci"},{"postalCode":"97444","state":"Yucatán","municipality":"Motul","setelement":"San Pedro Camara"},{"postalCode":"97445","state":"Yucatán","municipality":"Motul","setelement":"San Antonio Dzinah"},{"postalCode":"97446","state":"Yucatán","municipality":"Motul","setelement":"San José Hili"},{"postalCode":"97446","state":"Yucatán","municipality":"Motul","setelement":"Sakolá"},{"postalCode":"97450","state":"Yucatán","municipality":"Baca","setelement":"Baca"},{"postalCode":"97452","state":"Yucatán","municipality":"Baca","setelement":"Tixkuncheil"},{"postalCode":"97452","state":"Yucatán","municipality":"Baca","setelement":"Kankabchen"},{"postalCode":"97453","state":"Yucatán","municipality":"Baca","setelement":"San Isidro Kuxub"},{"postalCode":"97453","state":"Yucatán","municipality":"Baca","setelement":"San Nicolás"},{"postalCode":"97454","state":"Yucatán","municipality":"Mocochá","setelement":"Mococha"},{"postalCode":"97455","state":"Yucatán","municipality":"Mocochá","setelement":"Too"},{"postalCode":"97456","state":"Yucatán","municipality":"Mocochá","setelement":"Tekat"},{"postalCode":"97457","state":"Yucatán","municipality":"Muxupip","setelement":"Muxupip"},{"postalCode":"97458","state":"Yucatán","municipality":"Muxupip","setelement":"San Juan Koop"},{"postalCode":"97458","state":"Yucatán","municipality":"Muxupip","setelement":"San José Grande"},{"postalCode":"97460","state":"Yucatán","municipality":"Cacalchén","setelement":"Santa Teresa"},{"postalCode":"97460","state":"Yucatán","municipality":"Cacalchén","setelement":"Cacalchen"},{"postalCode":"97466","state":"Yucatán","municipality":"Bokobá","setelement":"Bokobá"},{"postalCode":"97470","state":"Yucatán","municipality":"Tixkokob","setelement":"Tixkokob"},{"postalCode":"97473","state":"Yucatán","municipality":"Tixkokob","setelement":"Kankabchen"},{"postalCode":"97473","state":"Yucatán","municipality":"Tixkokob","setelement":"San José"},{"postalCode":"97474","state":"Yucatán","municipality":"Tixkokob","setelement":"Ekmul"},{"postalCode":"97474","state":"Yucatán","municipality":"Tixkokob","setelement":"Euan"},{"postalCode":"97474","state":"Yucatán","municipality":"Tixkokob","setelement":"Ruinas de Ake"},{"postalCode":"97475","state":"Yucatán","municipality":"Tixkokob","setelement":"Hubila"},{"postalCode":"97476","state":"Yucatán","municipality":"Tixkokob","setelement":"San Antonio Millet"},{"postalCode":"97477","state":"Yucatán","municipality":"Tixkokob","setelement":"Nolo"},{"postalCode":"97480","state":"Yucatán","municipality":"Hoctún","setelement":"Hoctun"},{"postalCode":"97483","state":"Yucatán","municipality":"Hoctún","setelement":"Dziuche"},{"postalCode":"97486","state":"Yucatán","municipality":"Hoctún","setelement":"San José Oriente"},{"postalCode":"97490","state":"Yucatán","municipality":"Tahmek","setelement":"Tahmek"},{"postalCode":"97500","state":"Yucatán","municipality":"Dzidzantún","setelement":"Dzidzantún"},{"postalCode":"97500","state":"Yucatán","municipality":"Dzidzantún","setelement":"Emiliano Zapata"},{"postalCode":"97500","state":"Yucatán","municipality":"Dzidzantún","setelement":"San Diego Chumul"},{"postalCode":"97500","state":"Yucatán","municipality":"Dzidzantún","setelement":"San Juan"},{"postalCode":"97500","state":"Yucatán","municipality":"Dzidzantún","setelement":"Vicente Guerrero"},{"postalCode":"97504","state":"Yucatán","municipality":"Dzidzantún","setelement":"Mina de Oro"},{"postalCode":"97504","state":"Yucatán","municipality":"Dzidzantún","setelement":"Santa Clara"},{"postalCode":"97506","state":"Yucatán","municipality":"Dzidzantún","setelement":"San Francisco Manzanilla"},{"postalCode":"97510","state":"Yucatán","municipality":"Temax","setelement":"Temax"},{"postalCode":"97513","state":"Yucatán","municipality":"Temax","setelement":"San Antonio Camara"},{"postalCode":"97515","state":"Yucatán","municipality":"Temax","setelement":"Chucmichén"},{"postalCode":"97515","state":"Yucatán","municipality":"Temax","setelement":"Chenche de Las Torres"},{"postalCode":"97516","state":"Yucatán","municipality":"Temax","setelement":"Santa Ursula"},{"postalCode":"97520","state":"Yucatán","municipality":"Tekantó","setelement":"Tekantó"},{"postalCode":"97522","state":"Yucatán","municipality":"Tekantó","setelement":"Tixkocho"},{"postalCode":"97522","state":"Yucatán","municipality":"Tekantó","setelement":"Sanlatah"},{"postalCode":"97523","state":"Yucatán","municipality":"Tekantó","setelement":"San Francisco Dzan"},{"postalCode":"97524","state":"Yucatán","municipality":"Teya","setelement":"Teya"},{"postalCode":"97527","state":"Yucatán","municipality":"Suma","setelement":"Suma"},{"postalCode":"97527","state":"Yucatán","municipality":"Suma","setelement":"San Nicolás"},{"postalCode":"97530","state":"Yucatán","municipality":"Tepakán","setelement":"Tepakán"},{"postalCode":"97532","state":"Yucatán","municipality":"Tepakán","setelement":"Kantirix"},{"postalCode":"97535","state":"Yucatán","municipality":"Tekal de Venegas","setelement":"Tekal de Venegas"},{"postalCode":"97536","state":"Yucatán","municipality":"Tekal de Venegas","setelement":"El Ancla"},{"postalCode":"97536","state":"Yucatán","municipality":"Tekal de Venegas","setelement":"Tohoku"},{"postalCode":"97536","state":"Yucatán","municipality":"Tekal de Venegas","setelement":"San Felipe"},{"postalCode":"97540","state":"Yucatán","municipality":"Izamal","setelement":"Benito Juárez"},{"postalCode":"97540","state":"Yucatán","municipality":"Izamal","setelement":"Quinta Real"},{"postalCode":"97540","state":"Yucatán","municipality":"Izamal","setelement":"San Genaro"},{"postalCode":"97540","state":"Yucatán","municipality":"Izamal","setelement":"Santo Domingo"},{"postalCode":"97540","state":"Yucatán","municipality":"Izamal","setelement":"Emiliano Zapata"},{"postalCode":"97540","state":"Yucatán","municipality":"Izamal","setelement":"Izamal"},{"postalCode":"97540","state":"Yucatán","municipality":"Izamal","setelement":"Real del Sol"},{"postalCode":"97540","state":"Yucatán","municipality":"Izamal","setelement":"San Juan Izamal"},{"postalCode":"97545","state":"Yucatán","municipality":"Izamal","setelement":"Sitilpech"},{"postalCode":"97550","state":"Yucatán","municipality":"Izamal","setelement":"Citilcum"},{"postalCode":"97550","state":"Yucatán","municipality":"Izamal","setelement":"Kimbila"},{"postalCode":"97553","state":"Yucatán","municipality":"Izamal","setelement":"San José Kanán"},{"postalCode":"97555","state":"Yucatán","municipality":"Izamal","setelement":"Cuauhtémoc"},{"postalCode":"97556","state":"Yucatán","municipality":"Izamal","setelement":"Xanabá"},{"postalCode":"97556","state":"Yucatán","municipality":"Izamal","setelement":"Yaxché"},{"postalCode":"97556","state":"Yucatán","municipality":"Izamal","setelement":"Popolá"},{"postalCode":"97557","state":"Yucatán","municipality":"Izamal","setelement":"San José"},{"postalCode":"97557","state":"Yucatán","municipality":"Izamal","setelement":"San Antonio"},{"postalCode":"97560","state":"Yucatán","municipality":"Hocabá","setelement":"Hocabá"},{"postalCode":"97563","state":"Yucatán","municipality":"Hocabá","setelement":"El Nance"},{"postalCode":"97564","state":"Yucatán","municipality":"Hocabá","setelement":"Sahcaba"},{"postalCode":"97566","state":"Yucatán","municipality":"Xocchel","setelement":"Xocchel"},{"postalCode":"97570","state":"Yucatán","municipality":"Seyé","setelement":"Seyé"},{"postalCode":"97570","state":"Yucatán","municipality":"Seyé","setelement":"Vicente Guerrero"},{"postalCode":"97573","state":"Yucatán","municipality":"Seyé","setelement":"Holactún"},{"postalCode":"97574","state":"Yucatán","municipality":"Seyé","setelement":"Xucu"},{"postalCode":"97575","state":"Yucatán","municipality":"Seyé","setelement":"San Bernardino"},{"postalCode":"97575","state":"Yucatán","municipality":"Seyé","setelement":"Nohcham"},{"postalCode":"97577","state":"Yucatán","municipality":"Cuzamá","setelement":"Cuzama"},{"postalCode":"97577","state":"Yucatán","municipality":"Cuzamá","setelement":"Eknacan"},{"postalCode":"97577","state":"Yucatán","municipality":"Cuzamá","setelement":"Nohchacan"},{"postalCode":"97578","state":"Yucatán","municipality":"Cuzamá","setelement":"Yaxkukul"},{"postalCode":"97578","state":"Yucatán","municipality":"Cuzamá","setelement":"Chunkanan"},{"postalCode":"97579","state":"Yucatán","municipality":"Cuzamá","setelement":"San Francisco Sisal"},{"postalCode":"97580","state":"Yucatán","municipality":"Homún","setelement":"Viva"},{"postalCode":"97580","state":"Yucatán","municipality":"Homún","setelement":"Homun"},{"postalCode":"97583","state":"Yucatán","municipality":"Homún","setelement":"Polabán"},{"postalCode":"97585","state":"Yucatán","municipality":"Homún","setelement":"Yalahau"},{"postalCode":"97586","state":"Yucatán","municipality":"Homún","setelement":"San Isidro Ochil"},{"postalCode":"97587","state":"Yucatán","municipality":"Sanahcat","setelement":"Sanahcat"},{"postalCode":"97590","state":"Yucatán","municipality":"Huhí","setelement":"Huhí"},{"postalCode":"97596","state":"Yucatán","municipality":"Huhí","setelement":"Tixcacal Quintero"},{"postalCode":"97600","state":"Yucatán","municipality":"Dzilam González","setelement":"Dzilam González"},{"postalCode":"97604","state":"Yucatán","municipality":"Dzilam González","setelement":"Dzonot Sabila"},{"postalCode":"97606","state":"Yucatán","municipality":"Dzilam de Bravo","setelement":"Dzilam de Bravo"},{"postalCode":"97608","state":"Yucatán","municipality":"Dzilam de Bravo","setelement":"Chun-Xaan"},{"postalCode":"97609","state":"Yucatán","municipality":"Dzilam de Bravo","setelement":"Kennedy"},{"postalCode":"97610","state":"Yucatán","municipality":"Panabá","setelement":"Panaba"},{"postalCode":"97614","state":"Yucatán","municipality":"Panabá","setelement":"San Juan del Río"},{"postalCode":"97614","state":"Yucatán","municipality":"Panabá","setelement":"Loche"},{"postalCode":"97614","state":"Yucatán","municipality":"Panabá","setelement":"San Francisco"},{"postalCode":"97615","state":"Yucatán","municipality":"Panabá","setelement":"San Antonio"},{"postalCode":"97615","state":"Yucatán","municipality":"Panabá","setelement":"Cenote Yalsihón Buena Fe"},{"postalCode":"97615","state":"Yucatán","municipality":"Panabá","setelement":"Vista Alegre"},{"postalCode":"97615","state":"Yucatán","municipality":"Panabá","setelement":"Noczal"},{"postalCode":"97616","state":"Yucatán","municipality":"San Felipe","setelement":"San Felipe"},{"postalCode":"97620","state":"Yucatán","municipality":"Buctzotz","setelement":"Buctzotz"},{"postalCode":"97623","state":"Yucatán","municipality":"Buctzotz","setelement":"X-bec"},{"postalCode":"97623","state":"Yucatán","municipality":"Buctzotz","setelement":"Chanmotul"},{"postalCode":"97624","state":"Yucatán","municipality":"Buctzotz","setelement":"Nohyaxche"},{"postalCode":"97624","state":"Yucatán","municipality":"Buctzotz","setelement":"La Gran Lucha"},{"postalCode":"97625","state":"Yucatán","municipality":"Buctzotz","setelement":"Nup-Dzonot"},{"postalCode":"97625","state":"Yucatán","municipality":"Buctzotz","setelement":"B. Esperanza"},{"postalCode":"97625","state":"Yucatán","municipality":"Buctzotz","setelement":"San Francisco"},{"postalCode":"97625","state":"Yucatán","municipality":"Buctzotz","setelement":"Grano de Oro"},{"postalCode":"97625","state":"Yucatán","municipality":"Buctzotz","setelement":"U. Juárez"},{"postalCode":"97626","state":"Yucatán","municipality":"Buctzotz","setelement":"San Juan"},{"postalCode":"97626","state":"Yucatán","municipality":"Buctzotz","setelement":"San Pedro"},{"postalCode":"97627","state":"Yucatán","municipality":"Buctzotz","setelement":"Santo Domingo"},{"postalCode":"97630","state":"Yucatán","municipality":"Sucilá","setelement":"Sucilá"},{"postalCode":"97634","state":"Yucatán","municipality":"Sucilá","setelement":"Chan Panaba"},{"postalCode":"97636","state":"Yucatán","municipality":"Sucilá","setelement":"A.G. San Martín"},{"postalCode":"97640","state":"Yucatán","municipality":"Cenotillo","setelement":"Cenotillo"},{"postalCode":"97645","state":"Yucatán","municipality":"Cenotillo","setelement":"Tixbacab"},{"postalCode":"97645","state":"Yucatán","municipality":"Cenotillo","setelement":"X-Lobos"},{"postalCode":"97645","state":"Yucatán","municipality":"Cenotillo","setelement":"Tucina"},{"postalCode":"97646","state":"Yucatán","municipality":"Dzoncauich","setelement":"Dzoncauich"},{"postalCode":"97647","state":"Yucatán","municipality":"Dzoncauich","setelement":"Chacmay"},{"postalCode":"97650","state":"Yucatán","municipality":"Tunkás","setelement":"Tunkás"},{"postalCode":"97653","state":"Yucatán","municipality":"Tunkás","setelement":"San José Pibtuch"},{"postalCode":"97653","state":"Yucatán","municipality":"Tunkás","setelement":"Chabak"},{"postalCode":"97654","state":"Yucatán","municipality":"Tunkás","setelement":"Nicte Ha"},{"postalCode":"97654","state":"Yucatán","municipality":"Tunkás","setelement":"Mactun"},{"postalCode":"97654","state":"Yucatán","municipality":"Tunkás","setelement":"Kancabchén"},{"postalCode":"97654","state":"Yucatán","municipality":"Tunkás","setelement":"Noc Ac"},{"postalCode":"97654","state":"Yucatán","municipality":"Tunkás","setelement":"Chakan Ebula"},{"postalCode":"97654","state":"Yucatán","municipality":"Tunkás","setelement":"Onichen"},{"postalCode":"97654","state":"Yucatán","municipality":"Tunkás","setelement":"San Román"},{"postalCode":"97654","state":"Yucatán","municipality":"Tunkás","setelement":"San Antonio Chuc"},{"postalCode":"97654","state":"Yucatán","municipality":"Tunkás","setelement":"Yaxha"},{"postalCode":"97654","state":"Yucatán","municipality":"Tunkás","setelement":"Santa Rosa"},{"postalCode":"97655","state":"Yucatán","municipality":"Quintana Roo","setelement":"Quintana Roo"},{"postalCode":"97660","state":"Yucatán","municipality":"Dzitás","setelement":"Dzitás"},{"postalCode":"97666","state":"Yucatán","municipality":"Dzitás","setelement":"Xocempich"},{"postalCode":"97666","state":"Yucatán","municipality":"Dzitás","setelement":"Yaxche"},{"postalCode":"97670","state":"Yucatán","municipality":"Kantunil","setelement":"Kantunil"},{"postalCode":"97675","state":"Yucatán","municipality":"Kantunil","setelement":"Holcá"},{"postalCode":"97676","state":"Yucatán","municipality":"Sudzal","setelement":"Sudzal"},{"postalCode":"97677","state":"Yucatán","municipality":"Sudzal","setelement":"Brasil"},{"postalCode":"97677","state":"Yucatán","municipality":"Sudzal","setelement":"San Antonio Chalante"},{"postalCode":"97677","state":"Yucatán","municipality":"Sudzal","setelement":"San Juan"},{"postalCode":"97677","state":"Yucatán","municipality":"Sudzal","setelement":"Tzalam"},{"postalCode":"97677","state":"Yucatán","municipality":"Sudzal","setelement":"San Martín"},{"postalCode":"97678","state":"Yucatán","municipality":"Sudzal","setelement":"Chumbec"},{"postalCode":"97678","state":"Yucatán","municipality":"Sudzal","setelement":"Kamcabchen"},{"postalCode":"97680","state":"Yucatán","municipality":"Tekit","setelement":"Tekit"},{"postalCode":"97684","state":"Yucatán","municipality":"Tekit","setelement":"Susula"},{"postalCode":"97686","state":"Yucatán","municipality":"Tekit","setelement":"Yaxic"},{"postalCode":"97690","state":"Yucatán","municipality":"Sotuta","setelement":"Sotuta"},{"postalCode":"97694","state":"Yucatán","municipality":"Sotuta","setelement":"Tibolon"},{"postalCode":"97695","state":"Yucatán","municipality":"Sotuta","setelement":"Tabi"},{"postalCode":"97697","state":"Yucatán","municipality":"Sotuta","setelement":"Zavala"},{"postalCode":"97700","state":"Yucatán","municipality":"Tizimín","setelement":"Tizimin Centro"},{"postalCode":"97700","state":"Yucatán","municipality":"Tizimín","setelement":"Santa Cruz"},{"postalCode":"97702","state":"Yucatán","municipality":"Tizimín","setelement":"Las Palmas"},{"postalCode":"97702","state":"Yucatán","municipality":"Tizimín","setelement":"Residencial Tizimín"},{"postalCode":"97702","state":"Yucatán","municipality":"Tizimín","setelement":"Comichén"},{"postalCode":"97702","state":"Yucatán","municipality":"Tizimín","setelement":"Benito Juárez"},{"postalCode":"97702","state":"Yucatán","municipality":"Tizimín","setelement":"Fovissste"},{"postalCode":"97702","state":"Yucatán","municipality":"Tizimín","setelement":"Jacinto Canek"},{"postalCode":"97702","state":"Yucatán","municipality":"Tizimín","setelement":"8 Calles"},{"postalCode":"97702","state":"Yucatán","municipality":"Tizimín","setelement":"Los Reyes"},{"postalCode":"97702","state":"Yucatán","municipality":"Tizimín","setelement":"Aviación"},{"postalCode":"97702","state":"Yucatán","municipality":"Tizimín","setelement":"Santa Maria"},{"postalCode":"97702","state":"Yucatán","municipality":"Tizimín","setelement":"Zoológico"},{"postalCode":"97702","state":"Yucatán","municipality":"Tizimín","setelement":"Villas Campestre"},{"postalCode":"97702","state":"Yucatán","municipality":"Tizimín","setelement":"Campestre San Francisco"},{"postalCode":"97702","state":"Yucatán","municipality":"Tizimín","setelement":"Justo Sierra"},{"postalCode":"97702","state":"Yucatán","municipality":"Tizimín","setelement":"Viva"},{"postalCode":"97702","state":"Yucatán","municipality":"Tizimín","setelement":"San Martín"},{"postalCode":"97703","state":"Yucatán","municipality":"Tizimín","setelement":"Adolfo Lopez Mateos"},{"postalCode":"97703","state":"Yucatán","municipality":"Tizimín","setelement":"San Jose Nabalam"},{"postalCode":"97703","state":"Yucatán","municipality":"Tizimín","setelement":"Santo Domingo"},{"postalCode":"97703","state":"Yucatán","municipality":"Tizimín","setelement":"Lázaro Cárdenas"},{"postalCode":"97703","state":"Yucatán","municipality":"Tizimín","setelement":"San Carlos"},{"postalCode":"97703","state":"Yucatán","municipality":"Tizimín","setelement":"Huayita"},{"postalCode":"97703","state":"Yucatán","municipality":"Tizimín","setelement":"Los Reyes"},{"postalCode":"97704","state":"Yucatán","municipality":"Tizimín","setelement":"Adolfo López Mateos"},{"postalCode":"97704","state":"Yucatán","municipality":"Tizimín","setelement":"Los Aguacates"},{"postalCode":"97704","state":"Yucatán","municipality":"Tizimín","setelement":"Santa Maria de Lima"},{"postalCode":"97704","state":"Yucatán","municipality":"Tizimín","setelement":"Residencial Del Parque"},{"postalCode":"97705","state":"Yucatán","municipality":"Tizimín","setelement":"Sucopó"},{"postalCode":"97705","state":"Yucatán","municipality":"Tizimín","setelement":"Chan San Antonio"},{"postalCode":"97705","state":"Yucatán","municipality":"Tizimín","setelement":"Kikil"},{"postalCode":"97705","state":"Yucatán","municipality":"Tizimín","setelement":"Yokdzonot Meneses"},{"postalCode":"97705","state":"Yucatán","municipality":"Tizimín","setelement":"X-Pambihá"},{"postalCode":"97706","state":"Yucatán","municipality":"Tizimín","setelement":"Xkalax de Dzibalkú"},{"postalCode":"97706","state":"Yucatán","municipality":"Tizimín","setelement":"Santa Clara Dzibalkú"},{"postalCode":"97706","state":"Yucatán","municipality":"Tizimín","setelement":"Dzadz Palma"},{"postalCode":"97706","state":"Yucatán","municipality":"Tizimín","setelement":"San Antonio"},{"postalCode":"97706","state":"Yucatán","municipality":"Tizimín","setelement":"Libre Unión"},{"postalCode":"97706","state":"Yucatán","municipality":"Tizimín","setelement":"Dzonot Box"},{"postalCode":"97706","state":"Yucatán","municipality":"Tizimín","setelement":"San Román"},{"postalCode":"97706","state":"Yucatán","municipality":"Tizimín","setelement":"Chunsubul"},{"postalCode":"97706","state":"Yucatán","municipality":"Tizimín","setelement":"X-Panhatoro"},{"postalCode":"97706","state":"Yucatán","municipality":"Tizimín","setelement":"Chenkekén"},{"postalCode":"97706","state":"Yucatán","municipality":"Tizimín","setelement":"Buena Esperanza"},{"postalCode":"97706","state":"Yucatán","municipality":"Tizimín","setelement":"Bondzonot Número Dos"},{"postalCode":"97706","state":"Yucatán","municipality":"Tizimín","setelement":"X-Lal"},{"postalCode":"97706","state":"Yucatán","municipality":"Tizimín","setelement":"X-Cail"},{"postalCode":"97706","state":"Yucatán","municipality":"Tizimín","setelement":"Dzonot Tigre"},{"postalCode":"97707","state":"Yucatán","municipality":"Tizimín","setelement":"Yohactún de Hidalgo"},{"postalCode":"97707","state":"Yucatán","municipality":"Tizimín","setelement":"Dzonot Carretero"},{"postalCode":"97707","state":"Yucatán","municipality":"Tizimín","setelement":"El Cuyo"},{"postalCode":"97707","state":"Yucatán","municipality":"Tizimín","setelement":"San Francisco"},{"postalCode":"97707","state":"Yucatán","municipality":"Tizimín","setelement":"Benito Juárez"},{"postalCode":"97707","state":"Yucatán","municipality":"Tizimín","setelement":"San Juan"},{"postalCode":"97707","state":"Yucatán","municipality":"Tizimín","setelement":"Moctezuma"},{"postalCode":"97707","state":"Yucatán","municipality":"Tizimín","setelement":"Dolores"},{"postalCode":"97707","state":"Yucatán","municipality":"Tizimín","setelement":"Emiliano Zapata"},{"postalCode":"97710","state":"Yucatán","municipality":"Tizimín","setelement":"San Pedro Juárez"},{"postalCode":"97710","state":"Yucatán","municipality":"Tizimín","setelement":"Colonia Yucatán"},{"postalCode":"97710","state":"Yucatán","municipality":"Tizimín","setelement":"Dzonot Aké"},{"postalCode":"97710","state":"Yucatán","municipality":"Tizimín","setelement":"San Isidro Chuncopó"},{"postalCode":"97710","state":"Yucatán","municipality":"Tizimín","setelement":"Yaxchekú"},{"postalCode":"97710","state":"Yucatán","municipality":"Tizimín","setelement":"Teapa"},{"postalCode":"97710","state":"Yucatán","municipality":"Tizimín","setelement":"La Sierra"},{"postalCode":"97710","state":"Yucatán","municipality":"Tizimín","setelement":"Lázaro Cárdenas"},{"postalCode":"97710","state":"Yucatán","municipality":"Tizimín","setelement":"Felipe Carrillo Puerto Dos"},{"postalCode":"97710","state":"Yucatán","municipality":"Tizimín","setelement":"San Enrique"},{"postalCode":"97710","state":"Yucatán","municipality":"Tizimín","setelement":"Kabichén"},{"postalCode":"97710","state":"Yucatán","municipality":"Tizimín","setelement":"El Ramonal"},{"postalCode":"97710","state":"Yucatán","municipality":"Tizimín","setelement":"Orizaba"},{"postalCode":"97710","state":"Yucatán","municipality":"Tizimín","setelement":"San Luis Tzuctuk"},{"postalCode":"97712","state":"Yucatán","municipality":"Tizimín","setelement":"Santa Rosa Concepción"},{"postalCode":"97713","state":"Yucatán","municipality":"Tizimín","setelement":"San Miguel"},{"postalCode":"97713","state":"Yucatán","municipality":"Tizimín","setelement":"Santa Pilar"},{"postalCode":"97713","state":"Yucatán","municipality":"Tizimín","setelement":"Santa Isabel"},{"postalCode":"97713","state":"Yucatán","municipality":"Tizimín","setelement":"Santa Rosa y Anexas"},{"postalCode":"97713","state":"Yucatán","municipality":"Tizimín","setelement":"Cenote Azul"},{"postalCode":"97713","state":"Yucatán","municipality":"Tizimín","setelement":"Samaria"},{"postalCode":"97713","state":"Yucatán","municipality":"Tizimín","setelement":"Benito Juárez"},{"postalCode":"97713","state":"Yucatán","municipality":"Tizimín","setelement":"Rancho Grande"},{"postalCode":"97713","state":"Yucatán","municipality":"Tizimín","setelement":"Santa Ana"},{"postalCode":"97713","state":"Yucatán","municipality":"Tizimín","setelement":"Paraíso"},{"postalCode":"97713","state":"Yucatán","municipality":"Tizimín","setelement":"La Libertad"},{"postalCode":"97714","state":"Yucatán","municipality":"Tizimín","setelement":"Santa María"},{"postalCode":"97714","state":"Yucatán","municipality":"Tizimín","setelement":"San Pedro Sacboc"},{"postalCode":"97715","state":"Yucatán","municipality":"Tizimín","setelement":"San Hipólito"},{"postalCode":"97715","state":"Yucatán","municipality":"Tizimín","setelement":"El Limonar"},{"postalCode":"97715","state":"Yucatán","municipality":"Tizimín","setelement":"San Pedro Bacab"},{"postalCode":"97715","state":"Yucatán","municipality":"Tizimín","setelement":"Nuevo León"},{"postalCode":"97715","state":"Yucatán","municipality":"Tizimín","setelement":"Nuevo Tezoco"},{"postalCode":"97715","state":"Yucatán","municipality":"Tizimín","setelement":"San Arturo"},{"postalCode":"97715","state":"Yucatán","municipality":"Tizimín","setelement":"San Isidro"},{"postalCode":"97715","state":"Yucatán","municipality":"Tizimín","setelement":"Francisco Villa"},{"postalCode":"97715","state":"Yucatán","municipality":"Tizimín","setelement":"Manuel Cepeda Peraza"},{"postalCode":"97715","state":"Yucatán","municipality":"Tizimín","setelement":"Santa Clara"},{"postalCode":"97715","state":"Yucatán","municipality":"Tizimín","setelement":"Tres Marias"},{"postalCode":"97715","state":"Yucatán","municipality":"Tizimín","setelement":"San Juan"},{"postalCode":"97715","state":"Yucatán","municipality":"Tizimín","setelement":"Santa Elena"},{"postalCode":"97715","state":"Yucatán","municipality":"Tizimín","setelement":"Luis Rosado Vega"},{"postalCode":"97716","state":"Yucatán","municipality":"Tizimín","setelement":"San Manuel"},{"postalCode":"97716","state":"Yucatán","municipality":"Tizimín","setelement":"Papoinah"},{"postalCode":"97716","state":"Yucatán","municipality":"Tizimín","setelement":"El Edén (Yaxic)"},{"postalCode":"97716","state":"Yucatán","municipality":"Tizimín","setelement":"Adolfo López Mateos"},{"postalCode":"97716","state":"Yucatán","municipality":"Tizimín","setelement":"Santa Rosa"},{"postalCode":"97716","state":"Yucatán","municipality":"Tizimín","setelement":"Quintana"},{"postalCode":"97716","state":"Yucatán","municipality":"Tizimín","setelement":"San José Montecristo"},{"postalCode":"97716","state":"Yucatán","municipality":"Tizimín","setelement":"Felipe Carrillo Puerto Número Uno"},{"postalCode":"97716","state":"Yucatán","municipality":"Tizimín","setelement":"Chan Tres Reyes"},{"postalCode":"97716","state":"Yucatán","municipality":"Tizimín","setelement":"La Esperanza"},{"postalCode":"97716","state":"Yucatán","municipality":"Tizimín","setelement":"San Isidro Kilómetro Catorce (San Isidro)"},{"postalCode":"97717","state":"Yucatán","municipality":"Tizimín","setelement":"Tixcancal"},{"postalCode":"97717","state":"Yucatán","municipality":"Tizimín","setelement":"Chan Cenote"},{"postalCode":"97717","state":"Yucatán","municipality":"Tizimín","setelement":"San Isidro Kancabdzonot"},{"postalCode":"97717","state":"Yucatán","municipality":"Tizimín","setelement":"Trascorral"},{"postalCode":"97717","state":"Yucatán","municipality":"Tizimín","setelement":"Dzonot Mezo"},{"postalCode":"97717","state":"Yucatán","municipality":"Tizimín","setelement":"San Lorenzo"},{"postalCode":"97717","state":"Yucatán","municipality":"Tizimín","setelement":"San Lorenzo Chiquilá"},{"postalCode":"97720","state":"Yucatán","municipality":"Río Lagartos","setelement":"Río Lagartos"},{"postalCode":"97723","state":"Yucatán","municipality":"Río Lagartos","setelement":"Las Coloradas"},{"postalCode":"97726","state":"Yucatán","municipality":"Río Lagartos","setelement":"Quinientos"},{"postalCode":"97730","state":"Yucatán","municipality":"Espita","setelement":"Espita"},{"postalCode":"97730","state":"Yucatán","municipality":"Espita","setelement":"Santa Cruz Regario"},{"postalCode":"97733","state":"Yucatán","municipality":"Espita","setelement":"Nacuche"},{"postalCode":"97734","state":"Yucatán","municipality":"Espita","setelement":"San Antonio Xuilub"},{"postalCode":"97734","state":"Yucatán","municipality":"Espita","setelement":"Kunche"},{"postalCode":"97734","state":"Yucatán","municipality":"Espita","setelement":"San Pedro Chenchelo"},{"postalCode":"97739","state":"Yucatán","municipality":"Espita","setelement":"Holcá"},{"postalCode":"97740","state":"Yucatán","municipality":"Temozón","setelement":"Temozón"},{"postalCode":"97743","state":"Yucatán","municipality":"Temozón","setelement":"Santa Rita"},{"postalCode":"97743","state":"Yucatán","municipality":"Temozón","setelement":"Xeb"},{"postalCode":"97743","state":"Yucatán","municipality":"Temozón","setelement":"Kante"},{"postalCode":"97743","state":"Yucatán","municipality":"Temozón","setelement":"Actuncah"},{"postalCode":"97743","state":"Yucatán","municipality":"Temozón","setelement":"Ekbalam"},{"postalCode":"97743","state":"Yucatán","municipality":"Temozón","setelement":"Xuch"},{"postalCode":"97744","state":"Yucatán","municipality":"Temozón","setelement":"Hunukú"},{"postalCode":"97744","state":"Yucatán","municipality":"Temozón","setelement":"Nahbalam"},{"postalCode":"97744","state":"Yucatán","municipality":"Temozón","setelement":"Yokdzonot Presentado"},{"postalCode":"97744","state":"Yucatán","municipality":"Temozón","setelement":"Xcanchechen"},{"postalCode":"97744","state":"Yucatán","municipality":"Temozón","setelement":"Xtut"},{"postalCode":"97744","state":"Yucatán","municipality":"Temozón","setelement":"Dzalbay"},{"postalCode":"97745","state":"Yucatán","municipality":"Calotmul","setelement":"Calotmul"},{"postalCode":"97746","state":"Yucatán","municipality":"Calotmul","setelement":"Tahcabo"},{"postalCode":"97747","state":"Yucatán","municipality":"Calotmul","setelement":"Pocoboch"},{"postalCode":"97748","state":"Yucatán","municipality":"Calotmul","setelement":"Yokdzonot"},{"postalCode":"97750","state":"Yucatán","municipality":"Tinum","setelement":"Tinum"},{"postalCode":"97751","state":"Yucatán","municipality":"Tinum","setelement":"Piste"},{"postalCode":"97753","state":"Yucatán","municipality":"Tinum","setelement":"Poom"},{"postalCode":"97754","state":"Yucatán","municipality":"Tinum","setelement":"Balantun"},{"postalCode":"97755","state":"Yucatán","municipality":"Tinum","setelement":"San Francisco"},{"postalCode":"97755","state":"Yucatán","municipality":"Tinum","setelement":"San Francisco Grande"},{"postalCode":"97755","state":"Yucatán","municipality":"Tinum","setelement":"Tohopku"},{"postalCode":"97756","state":"Yucatán","municipality":"Tinum","setelement":"X-Calakoop"},{"postalCode":"97756","state":"Yucatán","municipality":"Tinum","setelement":"San Felipe"},{"postalCode":"97757","state":"Yucatán","municipality":"Tinum","setelement":"Chichen-itza"},{"postalCode":"97758","state":"Yucatán","municipality":"Chankom","setelement":"Tzukmuc"},{"postalCode":"97758","state":"Yucatán","municipality":"Chankom","setelement":"Xanlá"},{"postalCode":"97758","state":"Yucatán","municipality":"Chankom","setelement":"Muchucuxcáh"},{"postalCode":"97758","state":"Yucatán","municipality":"Chankom","setelement":"Chankom"},{"postalCode":"97758","state":"Yucatán","municipality":"Chankom","setelement":"Ticimul"},{"postalCode":"97758","state":"Yucatán","municipality":"Chankom","setelement":"Xcopteil"},{"postalCode":"97758","state":"Yucatán","municipality":"Chankom","setelement":"Xcatun"},{"postalCode":"97758","state":"Yucatán","municipality":"Chankom","setelement":"Xtohil"},{"postalCode":"97758","state":"Yucatán","municipality":"Chankom","setelement":"San Isidro"},{"postalCode":"97758","state":"Yucatán","municipality":"Chankom","setelement":"Pambá"},{"postalCode":"97758","state":"Yucatán","municipality":"Chankom","setelement":"Nicte-Ha"},{"postalCode":"97758","state":"Yucatán","municipality":"Chankom","setelement":"X-Cocail"},{"postalCode":"97758","state":"Yucatán","municipality":"Chankom","setelement":"X-Bohom"},{"postalCode":"97758","state":"Yucatán","municipality":"Chankom","setelement":"Yokdzonot"},{"postalCode":"97758","state":"Yucatán","municipality":"Chankom","setelement":"San Juan"},{"postalCode":"97759","state":"Yucatán","municipality":"Chankom","setelement":"San Juan Xkalakdzonot"},{"postalCode":"97759","state":"Yucatán","municipality":"Chankom","setelement":"Xcalakdzonot"},{"postalCode":"97760","state":"Yucatán","municipality":"Chichimilá","setelement":"Chichimilá"},{"postalCode":"97760","state":"Yucatán","municipality":"Chichimilá","setelement":"San José"},{"postalCode":"97760","state":"Yucatán","municipality":"Chichimilá","setelement":"Celtun"},{"postalCode":"97760","state":"Yucatán","municipality":"Chichimilá","setelement":"X-Chay"},{"postalCode":"97760","state":"Yucatán","municipality":"Chichimilá","setelement":"Chan X-Cail"},{"postalCode":"97760","state":"Yucatán","municipality":"Chichimilá","setelement":"Tixcancal Dzonot"},{"postalCode":"97760","state":"Yucatán","municipality":"Chichimilá","setelement":"San Pedro"},{"postalCode":"97761","state":"Yucatán","municipality":"Chichimilá","setelement":"Dzitox"},{"postalCode":"97762","state":"Yucatán","municipality":"Tixcacalcupul","setelement":"Tixcacalcupul"},{"postalCode":"97763","state":"Yucatán","municipality":"Tixcacalcupul","setelement":"Carolina"},{"postalCode":"97763","state":"Yucatán","municipality":"Tixcacalcupul","setelement":"San José"},{"postalCode":"97763","state":"Yucatán","municipality":"Tixcacalcupul","setelement":"Monte Verde"},{"postalCode":"97763","state":"Yucatán","municipality":"Tixcacalcupul","setelement":"Poop"},{"postalCode":"97763","state":"Yucatán","municipality":"Tixcacalcupul","setelement":"Ekpedz"},{"postalCode":"97763","state":"Yucatán","municipality":"Tixcacalcupul","setelement":"Mahas"},{"postalCode":"97763","state":"Yucatán","municipality":"Tixcacalcupul","setelement":"Xtobil"},{"postalCode":"97764","state":"Yucatán","municipality":"Kaua","setelement":"Kaua"},{"postalCode":"97764","state":"Yucatán","municipality":"Kaua","setelement":"Xtzeal"},{"postalCode":"97765","state":"Yucatán","municipality":"Kaua","setelement":"San Esteban"},{"postalCode":"97766","state":"Yucatán","municipality":"Cuncunul","setelement":"Cuncunul"},{"postalCode":"97766","state":"Yucatán","municipality":"Cuncunul","setelement":"San Francisco"},{"postalCode":"97766","state":"Yucatán","municipality":"Cuncunul","setelement":"San Diego"},{"postalCode":"97767","state":"Yucatán","municipality":"Cuncunul","setelement":"Chebalam"},{"postalCode":"97768","state":"Yucatán","municipality":"Tekom","setelement":"Tekom"},{"postalCode":"97768","state":"Yucatán","municipality":"Tekom","setelement":"San Antonio"},{"postalCode":"97768","state":"Yucatán","municipality":"Tekom","setelement":"Dzidzilché"},{"postalCode":"97769","state":"Yucatán","municipality":"Tekom","setelement":"X-Cocmil"},{"postalCode":"97769","state":"Yucatán","municipality":"Tekom","setelement":"Chindzonot"},{"postalCode":"97769","state":"Yucatán","municipality":"Tekom","setelement":"Pocbichen"},{"postalCode":"97769","state":"Yucatán","municipality":"Tekom","setelement":"Xuxcab"},{"postalCode":"97769","state":"Yucatán","municipality":"Tekom","setelement":"Chibilub"},{"postalCode":"97770","state":"Yucatán","municipality":"Chemax","setelement":"Chemax"},{"postalCode":"97770","state":"Yucatán","municipality":"Chemax","setelement":"Benito Juárez García"},{"postalCode":"97773","state":"Yucatán","municipality":"Chemax","setelement":"X-Catzín (Catzín)"},{"postalCode":"97773","state":"Yucatán","municipality":"Chemax","setelement":"Uspibil"},{"postalCode":"97773","state":"Yucatán","municipality":"Chemax","setelement":"Chechmil"},{"postalCode":"97773","state":"Yucatán","municipality":"Chemax","setelement":"Xmaab"},{"postalCode":"97773","state":"Yucatán","municipality":"Chemax","setelement":"Xuneb"},{"postalCode":"97773","state":"Yucatán","municipality":"Chemax","setelement":"Xalaú"},{"postalCode":"97773","state":"Yucatán","municipality":"Chemax","setelement":"Kuxeb"},{"postalCode":"97774","state":"Yucatán","municipality":"Chemax","setelement":"X-can"},{"postalCode":"97774","state":"Yucatán","municipality":"Chemax","setelement":"Santa Cruz"},{"postalCode":"97774","state":"Yucatán","municipality":"Chemax","setelement":"Cholul"},{"postalCode":"97774","state":"Yucatán","municipality":"Chemax","setelement":"San Andrés"},{"postalCode":"97774","state":"Yucatán","municipality":"Chemax","setelement":"San Roman"},{"postalCode":"97774","state":"Yucatán","municipality":"Chemax","setelement":"San Pedro Chemax"},{"postalCode":"97774","state":"Yucatán","municipality":"Chemax","setelement":"Santa Elena"},{"postalCode":"97774","state":"Yucatán","municipality":"Chemax","setelement":"San Juan Chen"},{"postalCode":"97774","state":"Yucatán","municipality":"Chemax","setelement":"Mucel"},{"postalCode":"97774","state":"Yucatán","municipality":"Chemax","setelement":"Xtejas"},{"postalCode":"97775","state":"Yucatán","municipality":"Chemax","setelement":"Cocoyol"},{"postalCode":"97775","state":"Yucatán","municipality":"Chemax","setelement":"Buenavista"},{"postalCode":"97775","state":"Yucatán","municipality":"Chemax","setelement":"Santa Rita"},{"postalCode":"97776","state":"Yucatán","municipality":"Chemax","setelement":"Sisbichén"},{"postalCode":"97776","state":"Yucatán","municipality":"Chemax","setelement":"Pabalam"},{"postalCode":"97776","state":"Yucatán","municipality":"Chemax","setelement":"Champolin"},{"postalCode":"97777","state":"Yucatán","municipality":"Chemax","setelement":"Chachadzonot"},{"postalCode":"97777","state":"Yucatán","municipality":"Chemax","setelement":"Lol-Bé"},{"postalCode":"97777","state":"Yucatán","municipality":"Chemax","setelement":"Chuluntan"},{"postalCode":"97777","state":"Yucatán","municipality":"Chemax","setelement":"Yaxche"},{"postalCode":"97780","state":"Yucatán","municipality":"Valladolid","setelement":"Valladolid Centro"},{"postalCode":"97782","state":"Yucatán","municipality":"Valladolid","setelement":"San Isidro"},{"postalCode":"97782","state":"Yucatán","municipality":"Valladolid","setelement":"Las Palmas"},{"postalCode":"97782","state":"Yucatán","municipality":"Valladolid","setelement":"Orquídeas"},{"postalCode":"97782","state":"Yucatán","municipality":"Valladolid","setelement":"Los Cipreses"},{"postalCode":"97782","state":"Yucatán","municipality":"Valladolid","setelement":"Candelaria"},{"postalCode":"97782","state":"Yucatán","municipality":"Valladolid","setelement":"Flor Campestre"},{"postalCode":"97782","state":"Yucatán","municipality":"Valladolid","setelement":"Jardines Del Oriente"},{"postalCode":"97782","state":"Yucatán","municipality":"Valladolid","setelement":"Lol-beh"},{"postalCode":"97782","state":"Yucatán","municipality":"Valladolid","setelement":"Residencial Campestre"},{"postalCode":"97782","state":"Yucatán","municipality":"Valladolid","setelement":"Santa Ana"},{"postalCode":"97782","state":"Yucatán","municipality":"Valladolid","setelement":"Santa Lucia"},{"postalCode":"97782","state":"Yucatán","municipality":"Valladolid","setelement":"Fernando Novelo"},{"postalCode":"97782","state":"Yucatán","municipality":"Valladolid","setelement":"Santa Ana"},{"postalCode":"97782","state":"Yucatán","municipality":"Valladolid","setelement":"Militar"},{"postalCode":"97782","state":"Yucatán","municipality":"Valladolid","setelement":"Santa Cruz"},{"postalCode":"97783","state":"Yucatán","municipality":"Valladolid","setelement":"Leonardo Rodríguez Alcaine"},{"postalCode":"97783","state":"Yucatán","municipality":"Valladolid","setelement":"Militar"},{"postalCode":"97783","state":"Yucatán","municipality":"Valladolid","setelement":"Oaxaqueña"},{"postalCode":"97783","state":"Yucatán","municipality":"Valladolid","setelement":"San Juan"},{"postalCode":"97783","state":"Yucatán","municipality":"Valladolid","setelement":"San Antonio"},{"postalCode":"97783","state":"Yucatán","municipality":"Valladolid","setelement":"Sacyabil"},{"postalCode":"97783","state":"Yucatán","municipality":"Valladolid","setelement":"Santana"},{"postalCode":"97783","state":"Yucatán","municipality":"Valladolid","setelement":"San Francisco"},{"postalCode":"97783","state":"Yucatán","municipality":"Valladolid","setelement":"San Vicente"},{"postalCode":"97784","state":"Yucatán","municipality":"Valladolid","setelement":"Residencial del Bosque"},{"postalCode":"97784","state":"Yucatán","municipality":"Valladolid","setelement":"Bacalar"},{"postalCode":"97784","state":"Yucatán","municipality":"Valladolid","setelement":"Sisal"},{"postalCode":"97784","state":"Yucatán","municipality":"Valladolid","setelement":"Xcorazon"},{"postalCode":"97784","state":"Yucatán","municipality":"Valladolid","setelement":"Emiliano Zapata"},{"postalCode":"97784","state":"Yucatán","municipality":"Valladolid","setelement":"Puesta Del Sol"},{"postalCode":"97784","state":"Yucatán","municipality":"Valladolid","setelement":"Capules"},{"postalCode":"97784","state":"Yucatán","municipality":"Valladolid","setelement":"Flamboyanes"},{"postalCode":"97784","state":"Yucatán","municipality":"Valladolid","setelement":"Colonos"},{"postalCode":"97784","state":"Yucatán","municipality":"Valladolid","setelement":"San Carlos"},{"postalCode":"97784","state":"Yucatán","municipality":"Valladolid","setelement":"Cruz Verde"},{"postalCode":"97785","state":"Yucatán","municipality":"Valladolid","setelement":"Kanxoc"},{"postalCode":"97785","state":"Yucatán","municipality":"Valladolid","setelement":"Xocen"},{"postalCode":"97785","state":"Yucatán","municipality":"Valladolid","setelement":"Batun"},{"postalCode":"97785","state":"Yucatán","municipality":"Valladolid","setelement":"Kampepén"},{"postalCode":"97786","state":"Yucatán","municipality":"Valladolid","setelement":"Sidra Kin"},{"postalCode":"97786","state":"Yucatán","municipality":"Valladolid","setelement":"Timas"},{"postalCode":"97787","state":"Yucatán","municipality":"Valladolid","setelement":"Santa Cruz"},{"postalCode":"97787","state":"Yucatán","municipality":"Valladolid","setelement":"Xuilib"},{"postalCode":"97787","state":"Yucatán","municipality":"Valladolid","setelement":"Nohsuytun"},{"postalCode":"97787","state":"Yucatán","municipality":"Valladolid","setelement":"Yaxche"},{"postalCode":"97787","state":"Yucatán","municipality":"Valladolid","setelement":"Chamul"},{"postalCode":"97790","state":"Yucatán","municipality":"Valladolid","setelement":"La Guadalupana"},{"postalCode":"97790","state":"Yucatán","municipality":"Valladolid","setelement":"Pixoy"},{"postalCode":"97790","state":"Yucatán","municipality":"Valladolid","setelement":"Popola"},{"postalCode":"97793","state":"Yucatán","municipality":"Valladolid","setelement":"Tesoco"},{"postalCode":"97793","state":"Yucatán","municipality":"Valladolid","setelement":"Ticúch"},{"postalCode":"97793","state":"Yucatán","municipality":"Valladolid","setelement":"Chan Yokdzonot"},{"postalCode":"97793","state":"Yucatán","municipality":"Valladolid","setelement":"Tepakan"},{"postalCode":"97793","state":"Yucatán","municipality":"Valladolid","setelement":"Tahmuy"},{"postalCode":"97793","state":"Yucatán","municipality":"Valladolid","setelement":"Zodzilchén"},{"postalCode":"97793","state":"Yucatán","municipality":"Valladolid","setelement":"Yunchen"},{"postalCode":"97794","state":"Yucatán","municipality":"Valladolid","setelement":"Yalcoba"},{"postalCode":"97794","state":"Yucatán","municipality":"Valladolid","setelement":"Chiople"},{"postalCode":"97794","state":"Yucatán","municipality":"Valladolid","setelement":"San Andres Bac"},{"postalCode":"97795","state":"Yucatán","municipality":"Valladolid","setelement":"Dzitnup"},{"postalCode":"97795","state":"Yucatán","municipality":"Valladolid","setelement":"Yalcon"},{"postalCode":"97795","state":"Yucatán","municipality":"Valladolid","setelement":"Ebtun"},{"postalCode":"97795","state":"Yucatán","municipality":"Valladolid","setelement":"X-Kekén"},{"postalCode":"97795","state":"Yucatán","municipality":"Valladolid","setelement":"Tixhualactún"},{"postalCode":"97796","state":"Yucatán","municipality":"Uayma","setelement":"Uayma"},{"postalCode":"97798","state":"Yucatán","municipality":"Uayma","setelement":"Santa María"},{"postalCode":"97799","state":"Yucatán","municipality":"Uayma","setelement":"San Lorenzo"},{"postalCode":"97800","state":"Yucatán","municipality":"Maxcanú","setelement":"Maxcanu"},{"postalCode":"97800","state":"Yucatán","municipality":"Maxcanú","setelement":"Guadalupe"},{"postalCode":"97800","state":"Yucatán","municipality":"Maxcanú","setelement":"La Sirena"},{"postalCode":"97803","state":"Yucatán","municipality":"Maxcanú","setelement":"Chan Chocholá (Santa Eduviges Chan Chocholá)"},{"postalCode":"97803","state":"Yucatán","municipality":"Maxcanú","setelement":"Granada (Chican Granada)"},{"postalCode":"97803","state":"Yucatán","municipality":"Maxcanú","setelement":"Santa Cruz"},{"postalCode":"97803","state":"Yucatán","municipality":"Maxcanú","setelement":"Kanachén"},{"postalCode":"97804","state":"Yucatán","municipality":"Maxcanú","setelement":"Kochol"},{"postalCode":"97804","state":"Yucatán","municipality":"Maxcanú","setelement":"Santo Domingo"},{"postalCode":"97804","state":"Yucatán","municipality":"Maxcanú","setelement":"San Fernando"},{"postalCode":"97804","state":"Yucatán","municipality":"Maxcanú","setelement":"Santa Rosa"},{"postalCode":"97804","state":"Yucatán","municipality":"Maxcanú","setelement":"Paraíso"},{"postalCode":"97804","state":"Yucatán","municipality":"Maxcanú","setelement":"Coahuila (Santa Teresa Coahuila)"},{"postalCode":"97804","state":"Yucatán","municipality":"Maxcanú","setelement":"X-Cacal"},{"postalCode":"97804","state":"Yucatán","municipality":"Maxcanú","setelement":"Yaxcaba"},{"postalCode":"97804","state":"Yucatán","municipality":"Maxcanú","setelement":"Lázaro Cárdenas"},{"postalCode":"97805","state":"Yucatán","municipality":"Maxcanú","setelement":"Chunchucmil"},{"postalCode":"97805","state":"Yucatán","municipality":"Maxcanú","setelement":"San Simón Sinkehuel"},{"postalCode":"97806","state":"Yucatán","municipality":"Maxcanú","setelement":"San Rafael"},{"postalCode":"97807","state":"Yucatán","municipality":"Maxcanú","setelement":"Chencoh"},{"postalCode":"97810","state":"Yucatán","municipality":"Samahil","setelement":"Samahil"},{"postalCode":"97810","state":"Yucatán","municipality":"Samahil","setelement":"Kuchel"},{"postalCode":"97812","state":"Yucatán","municipality":"Samahil","setelement":"San Antonio Tedzidz"},{"postalCode":"97813","state":"Yucatán","municipality":"Opichén","setelement":"Opichen"},{"postalCode":"97814","state":"Yucatán","municipality":"Opichén","setelement":"Calcehtoc"},{"postalCode":"97816","state":"Yucatán","municipality":"Chocholá","setelement":"Chochola"},{"postalCode":"97816","state":"Yucatán","municipality":"Chocholá","setelement":"San Antonio Chable"},{"postalCode":"97818","state":"Yucatán","municipality":"Kopomá","setelement":"Kopomá"},{"postalCode":"97818","state":"Yucatán","municipality":"Kopomá","setelement":"San Bernardo"},{"postalCode":"97820","state":"Yucatán","municipality":"Tecoh","setelement":"Tecoh"},{"postalCode":"97822","state":"Yucatán","municipality":"Tecoh","setelement":"Lepan"},{"postalCode":"97822","state":"Yucatán","municipality":"Tecoh","setelement":"Oxtapacab"},{"postalCode":"97822","state":"Yucatán","municipality":"Tecoh","setelement":"Itzincab"},{"postalCode":"97822","state":"Yucatán","municipality":"Tecoh","setelement":"Sotuta de Peón"},{"postalCode":"97823","state":"Yucatán","municipality":"Tecoh","setelement":"Chinkilá"},{"postalCode":"97823","state":"Yucatán","municipality":"Tecoh","setelement":"Sabacché"},{"postalCode":"97823","state":"Yucatán","municipality":"Tecoh","setelement":"Pixyah"},{"postalCode":"97824","state":"Yucatán","municipality":"Tecoh","setelement":"Telchaquillo"},{"postalCode":"97824","state":"Yucatán","municipality":"Tecoh","setelement":"Xcanchakan"},{"postalCode":"97824","state":"Yucatán","municipality":"Tecoh","setelement":"Mayapan"},{"postalCode":"97824","state":"Yucatán","municipality":"Tecoh","setelement":"Mahzucil"},{"postalCode":"97825","state":"Yucatán","municipality":"Abalá","setelement":"Abalá"},{"postalCode":"97825","state":"Yucatán","municipality":"Abalá","setelement":"Mukuiche"},{"postalCode":"97825","state":"Yucatán","municipality":"Abalá","setelement":"Uayalceh"},{"postalCode":"97826","state":"Yucatán","municipality":"Abalá","setelement":"Sinhuchen"},{"postalCode":"97826","state":"Yucatán","municipality":"Abalá","setelement":"Cacao"},{"postalCode":"97826","state":"Yucatán","municipality":"Abalá","setelement":"Peba"},{"postalCode":"97827","state":"Yucatán","municipality":"Abalá","setelement":"Temozon Sur"},{"postalCode":"97830","state":"Yucatán","municipality":"Halachó","setelement":"Halacho"},{"postalCode":"97830","state":"Yucatán","municipality":"Halachó","setelement":"San José"},{"postalCode":"97835","state":"Yucatán","municipality":"Halachó","setelement":"Cepeda"},{"postalCode":"97835","state":"Yucatán","municipality":"Halachó","setelement":"Cuch Holoch"},{"postalCode":"97835","state":"Yucatán","municipality":"Halachó","setelement":"Siho"},{"postalCode":"97835","state":"Yucatán","municipality":"Halachó","setelement":"Unidad Agrícola Guadalupe"},{"postalCode":"97835","state":"Yucatán","municipality":"Halachó","setelement":"Concepción"},{"postalCode":"97836","state":"Yucatán","municipality":"Halachó","setelement":"San Mateo"},{"postalCode":"97836","state":"Yucatán","municipality":"Halachó","setelement":"Dzbzibachi"},{"postalCode":"97836","state":"Yucatán","municipality":"Halachó","setelement":"Kankabchen"},{"postalCode":"97837","state":"Yucatán","municipality":"Halachó","setelement":"Santa Maria Acu"},{"postalCode":"97837","state":"Yucatán","municipality":"Halachó","setelement":"Santa Sofia"},{"postalCode":"97840","state":"Yucatán","municipality":"Muna","setelement":"Tepakán"},{"postalCode":"97840","state":"Yucatán","municipality":"Muna","setelement":"Muna de Leopoldo Arana Cabrera"},{"postalCode":"97840","state":"Yucatán","municipality":"Muna","setelement":"Benito Juárez"},{"postalCode":"97840","state":"Yucatán","municipality":"Muna","setelement":"San Bernardo"},{"postalCode":"97840","state":"Yucatán","municipality":"Muna","setelement":"San Mateo"},{"postalCode":"97840","state":"Yucatán","municipality":"Muna","setelement":"San Sebastián"},{"postalCode":"97840","state":"Yucatán","municipality":"Muna","setelement":"Víctor Cervera Pacheco"},{"postalCode":"97843","state":"Yucatán","municipality":"Muna","setelement":"Choyob"},{"postalCode":"97843","state":"Yucatán","municipality":"Muna","setelement":"Yaxha"},{"postalCode":"97844","state":"Yucatán","municipality":"Muna","setelement":"San Jose Tipceh"},{"postalCode":"97844","state":"Yucatán","municipality":"Muna","setelement":"U.F. Lázaro Cárdenas"},{"postalCode":"97845","state":"Yucatán","municipality":"Sacalum","setelement":"Sacalum"},{"postalCode":"97847","state":"Yucatán","municipality":"Sacalum","setelement":"San Antonio Sodzil"},{"postalCode":"97848","state":"Yucatán","municipality":"Sacalum","setelement":"Yunku"},{"postalCode":"97850","state":"Yucatán","municipality":"Maní","setelement":"Mani"},{"postalCode":"97851","state":"Yucatán","municipality":"Maní","setelement":"Tipikal"},{"postalCode":"97854","state":"Yucatán","municipality":"Dzan","setelement":"Dzan"},{"postalCode":"97857","state":"Yucatán","municipality":"Chapab","setelement":"Chapab"},{"postalCode":"97858","state":"Yucatán","municipality":"Chapab","setelement":"Citincabchen"},{"postalCode":"97858","state":"Yucatán","municipality":"Chapab","setelement":"Hunabchen"},{"postalCode":"97858","state":"Yucatán","municipality":"Chapab","setelement":"San Cristóbal"},{"postalCode":"97860","state":"Yucatán","municipality":"Ticul","setelement":"Ticul Centro"},{"postalCode":"97862","state":"Yucatán","municipality":"Ticul","setelement":"De los Electricistas"},{"postalCode":"97862","state":"Yucatán","municipality":"Ticul","setelement":"Deportivo Campestre"},{"postalCode":"97862","state":"Yucatán","municipality":"Ticul","setelement":"Mejorada"},{"postalCode":"97862","state":"Yucatán","municipality":"Ticul","setelement":"Guadalupe"},{"postalCode":"97862","state":"Yucatán","municipality":"Ticul","setelement":"Obrera"},{"postalCode":"97862","state":"Yucatán","municipality":"Ticul","setelement":"Campestre"},{"postalCode":"97863","state":"Yucatán","municipality":"Ticul","setelement":"San Juan"},{"postalCode":"97864","state":"Yucatán","municipality":"Ticul","setelement":"San Joaquín"},{"postalCode":"97864","state":"Yucatán","municipality":"Ticul","setelement":"San Enrique"},{"postalCode":"97864","state":"Yucatán","municipality":"Ticul","setelement":"Las Tinajas"},{"postalCode":"97864","state":"Yucatán","municipality":"Ticul","setelement":"San Benito"},{"postalCode":"97864","state":"Yucatán","municipality":"Ticul","setelement":"Santa Maria"},{"postalCode":"97864","state":"Yucatán","municipality":"Ticul","setelement":"San Román"},{"postalCode":"97864","state":"Yucatán","municipality":"Ticul","setelement":"Santiago"},{"postalCode":"97870","state":"Yucatán","municipality":"Ticul","setelement":"Pustunich"},{"postalCode":"97873","state":"Yucatán","municipality":"Ticul","setelement":"Yotholin"},{"postalCode":"97880","state":"Yucatán","municipality":"Oxkutzcab","setelement":"Tutul Xiú"},{"postalCode":"97880","state":"Yucatán","municipality":"Oxkutzcab","setelement":"Oxkutzcab"},{"postalCode":"97882","state":"Yucatán","municipality":"Oxkutzcab","setelement":"San José Kunché"},{"postalCode":"97883","state":"Yucatán","municipality":"Oxkutzcab","setelement":"Lol-Tún"},{"postalCode":"97883","state":"Yucatán","municipality":"Oxkutzcab","setelement":"Yaaxhom"},{"postalCode":"97883","state":"Yucatán","municipality":"Oxkutzcab","setelement":"Emiliano Zapata"},{"postalCode":"97883","state":"Yucatán","municipality":"Oxkutzcab","setelement":"Xohuayan"},{"postalCode":"97884","state":"Yucatán","municipality":"Oxkutzcab","setelement":"Nohcacab"},{"postalCode":"97884","state":"Yucatán","municipality":"Oxkutzcab","setelement":"Xul"},{"postalCode":"97884","state":"Yucatán","municipality":"Oxkutzcab","setelement":"Sacamucuy"},{"postalCode":"97884","state":"Yucatán","municipality":"Oxkutzcab","setelement":"Xobenhaltun"},{"postalCode":"97885","state":"Yucatán","municipality":"Oxkutzcab","setelement":"Sayil"},{"postalCode":"97886","state":"Yucatán","municipality":"Oxkutzcab","setelement":"Yaxhacchen"},{"postalCode":"97886","state":"Yucatán","municipality":"Oxkutzcab","setelement":"Kihuic"},{"postalCode":"97887","state":"Yucatán","municipality":"Oxkutzcab","setelement":"Tabi"},{"postalCode":"97887","state":"Yucatán","municipality":"Oxkutzcab","setelement":"Xlapak"},{"postalCode":"97887","state":"Yucatán","municipality":"Oxkutzcab","setelement":"Labna"},{"postalCode":"97890","state":"Yucatán","municipality":"Santa Elena","setelement":"Santa Elena"},{"postalCode":"97890","state":"Yucatán","municipality":"Santa Elena","setelement":"San Agustín"},{"postalCode":"97894","state":"Yucatán","municipality":"Santa Elena","setelement":"Kabah"},{"postalCode":"97895","state":"Yucatán","municipality":"Santa Elena","setelement":"San Simón"},{"postalCode":"97899","state":"Yucatán","municipality":"Santa Elena","setelement":"Hotel Villas Arqueológicas"},{"postalCode":"97899","state":"Yucatán","municipality":"Santa Elena","setelement":"Hotel Hacienda Uxmal"},{"postalCode":"97900","state":"Yucatán","municipality":"Mama","setelement":"Mama"},{"postalCode":"97904","state":"Yucatán","municipality":"Chumayel","setelement":"Chumayel"},{"postalCode":"97908","state":"Yucatán","municipality":"Mayapán","setelement":"Mayapan"},{"postalCode":"97910","state":"Yucatán","municipality":"Teabo","setelement":"Teabo"},{"postalCode":"97915","state":"Yucatán","municipality":"Cantamayec","setelement":"Cantamayec"},{"postalCode":"97917","state":"Yucatán","municipality":"Cantamayec","setelement":"Nenela"},{"postalCode":"97918","state":"Yucatán","municipality":"Cantamayec","setelement":"Cholul"},{"postalCode":"97920","state":"Yucatán","municipality":"Yaxcabá","setelement":"Yaxcaba"},{"postalCode":"97922","state":"Yucatán","municipality":"Yaxcabá","setelement":"Yokdzonot"},{"postalCode":"97922","state":"Yucatán","municipality":"Yaxcabá","setelement":"Mexil"},{"postalCode":"97923","state":"Yucatán","municipality":"Yaxcabá","setelement":"Libre Unión"},{"postalCode":"97923","state":"Yucatán","municipality":"Yaxcabá","setelement":"Cenote Xtohil"},{"postalCode":"97924","state":"Yucatán","municipality":"Yaxcabá","setelement":"Cenote Aban"},{"postalCode":"97924","state":"Yucatán","municipality":"Yaxcabá","setelement":"San Marcos"},{"postalCode":"97924","state":"Yucatán","municipality":"Yaxcabá","setelement":"Popola"},{"postalCode":"97924","state":"Yucatán","municipality":"Yaxcabá","setelement":"Chimay"},{"postalCode":"97924","state":"Yucatán","municipality":"Yaxcabá","setelement":"Yaxunah"},{"postalCode":"97924","state":"Yucatán","municipality":"Yaxcabá","setelement":"Z.A. Yaxuna"},{"postalCode":"97925","state":"Yucatán","municipality":"Yaxcabá","setelement":"Tiholop"},{"postalCode":"97925","state":"Yucatán","municipality":"Yaxcabá","setelement":"Santa Maria"},{"postalCode":"97925","state":"Yucatán","municipality":"Yaxcabá","setelement":"Kancabdzonot"},{"postalCode":"97925","state":"Yucatán","municipality":"Yaxcabá","setelement":"Yokdzonot-Hú"},{"postalCode":"97925","state":"Yucatán","municipality":"Yaxcabá","setelement":"Huechen Balam"},{"postalCode":"97925","state":"Yucatán","municipality":"Yaxcabá","setelement":"San Pedro"},{"postalCode":"97925","state":"Yucatán","municipality":"Yaxcabá","setelement":"Sahcabá"},{"postalCode":"97926","state":"Yucatán","municipality":"Yaxcabá","setelement":"Cacalchen"},{"postalCode":"97926","state":"Yucatán","municipality":"Yaxcabá","setelement":"Canakom"},{"postalCode":"97927","state":"Yucatán","municipality":"Yaxcabá","setelement":"Tahdzibichen"},{"postalCode":"97927","state":"Yucatán","municipality":"Yaxcabá","setelement":"Tixcacaltuyub"},{"postalCode":"97929","state":"Yucatán","municipality":"Yaxcabá","setelement":"Tinuncah"},{"postalCode":"97929","state":"Yucatán","municipality":"Yaxcabá","setelement":"Cipché"},{"postalCode":"97930","state":"Yucatán","municipality":"Peto","setelement":"Peto Centro"},{"postalCode":"97930","state":"Yucatán","municipality":"Peto","setelement":"Benito Juárez"},{"postalCode":"97930","state":"Yucatán","municipality":"Peto","setelement":"Francisco I Madero"},{"postalCode":"97930","state":"Yucatán","municipality":"Peto","setelement":"Francisco Sarabia"},{"postalCode":"97930","state":"Yucatán","municipality":"Peto","setelement":"Miraflores"},{"postalCode":"97930","state":"Yucatán","municipality":"Peto","setelement":"Morelos y Fátima"},{"postalCode":"97930","state":"Yucatán","municipality":"Peto","setelement":"3 Cruces"},{"postalCode":"97930","state":"Yucatán","municipality":"Peto","setelement":"Trinidad"},{"postalCode":"97930","state":"Yucatán","municipality":"Peto","setelement":"Felipe Carrillo Puerto"},{"postalCode":"97930","state":"Yucatán","municipality":"Peto","setelement":"Jacinto Kanek"},{"postalCode":"97930","state":"Yucatán","municipality":"Peto","setelement":"Ciprés"},{"postalCode":"97932","state":"Yucatán","municipality":"Peto","setelement":"Xoy"},{"postalCode":"97933","state":"Yucatán","municipality":"Peto","setelement":"Progresito"},{"postalCode":"97933","state":"Yucatán","municipality":"Peto","setelement":"Tixhualactun"},{"postalCode":"97933","state":"Yucatán","municipality":"Peto","setelement":"San Gregorio"},{"postalCode":"97933","state":"Yucatán","municipality":"Peto","setelement":"Temozon"},{"postalCode":"97933","state":"Yucatán","municipality":"Peto","setelement":"San Pedro"},{"postalCode":"97934","state":"Yucatán","municipality":"Peto","setelement":"Guadalupe"},{"postalCode":"97934","state":"Yucatán","municipality":"Peto","setelement":"San Diego"},{"postalCode":"97934","state":"Yucatán","municipality":"Peto","setelement":"Xcabanchen"},{"postalCode":"97934","state":"Yucatán","municipality":"Peto","setelement":"San Nicolás Yoactún"},{"postalCode":"97934","state":"Yucatán","municipality":"Peto","setelement":"San Bernabe"},{"postalCode":"97935","state":"Yucatán","municipality":"Peto","setelement":"Papacal"},{"postalCode":"97935","state":"Yucatán","municipality":"Peto","setelement":"Santa Elena"},{"postalCode":"97935","state":"Yucatán","municipality":"Peto","setelement":"San Francisco"},{"postalCode":"97935","state":"Yucatán","municipality":"Peto","setelement":"Dzonotchel"},{"postalCode":"97935","state":"Yucatán","municipality":"Peto","setelement":"Chan Calotmul"},{"postalCode":"97935","state":"Yucatán","municipality":"Peto","setelement":"San Mateo"},{"postalCode":"97935","state":"Yucatán","municipality":"Peto","setelement":"Santa Cruz"},{"postalCode":"97936","state":"Yucatán","municipality":"Peto","setelement":"Polinkin"},{"postalCode":"97936","state":"Yucatán","municipality":"Peto","setelement":"La Esperanza"},{"postalCode":"97936","state":"Yucatán","municipality":"Peto","setelement":"Kambul"},{"postalCode":"97936","state":"Yucatán","municipality":"Peto","setelement":"Abal"},{"postalCode":"97936","state":"Yucatán","municipality":"Peto","setelement":"San Sebastián"},{"postalCode":"97936","state":"Yucatán","municipality":"Peto","setelement":"San Dionisio"},{"postalCode":"97936","state":"Yucatán","municipality":"Peto","setelement":"Petulillo"},{"postalCode":"97937","state":"Yucatán","municipality":"Peto","setelement":"Tobxila"},{"postalCode":"97937","state":"Yucatán","municipality":"Peto","setelement":"San Miguel"},{"postalCode":"97937","state":"Yucatán","municipality":"Peto","setelement":"Uitzina"},{"postalCode":"97937","state":"Yucatán","municipality":"Peto","setelement":"Trapiche"},{"postalCode":"97937","state":"Yucatán","municipality":"Peto","setelement":"San Salvador"},{"postalCode":"97937","state":"Yucatán","municipality":"Peto","setelement":"Santa Rosa"},{"postalCode":"97937","state":"Yucatán","municipality":"Peto","setelement":"Justicia Social"},{"postalCode":"97937","state":"Yucatán","municipality":"Peto","setelement":"Santa Ursula"},{"postalCode":"97937","state":"Yucatán","municipality":"Peto","setelement":"Xpechil"},{"postalCode":"97937","state":"Yucatán","municipality":"Peto","setelement":"Candelaria (San Pedro)"},{"postalCode":"97937","state":"Yucatán","municipality":"Peto","setelement":"Macmay"},{"postalCode":"97937","state":"Yucatán","municipality":"Peto","setelement":"Yaxcopil"},{"postalCode":"97940","state":"Yucatán","municipality":"Chikindzonot","setelement":"Chikindzonot"},{"postalCode":"97943","state":"Yucatán","municipality":"Chikindzonot","setelement":"Chan Santa María"},{"postalCode":"97943","state":"Yucatán","municipality":"Chikindzonot","setelement":"Chanchimila"},{"postalCode":"97943","state":"Yucatán","municipality":"Chikindzonot","setelement":"X-Poxil"},{"postalCode":"97943","state":"Yucatán","municipality":"Chikindzonot","setelement":"Xcampana"},{"postalCode":"97944","state":"Yucatán","municipality":"Chikindzonot","setelement":"Ichmul"},{"postalCode":"97945","state":"Yucatán","municipality":"Tahdziú","setelement":"Tahdziu"},{"postalCode":"97947","state":"Yucatán","municipality":"Tahdziú","setelement":"Timul"},{"postalCode":"97948","state":"Yucatán","municipality":"Tahdziú","setelement":"San Ignacio"},{"postalCode":"97948","state":"Yucatán","municipality":"Tahdziú","setelement":"Mocté"},{"postalCode":"97950","state":"Yucatán","municipality":"Tixmehuac","setelement":"Tixmehuac"},{"postalCode":"97953","state":"Yucatán","municipality":"Tixmehuac","setelement":"Chuchub"},{"postalCode":"97953","state":"Yucatán","municipality":"Tixmehuac","setelement":"Chican"},{"postalCode":"97953","state":"Yucatán","municipality":"Tixmehuac","setelement":"Sabacche"},{"postalCode":"97953","state":"Yucatán","municipality":"Tixmehuac","setelement":"Sisbic"},{"postalCode":"97953","state":"Yucatán","municipality":"Tixmehuac","setelement":"Kimbila"},{"postalCode":"97953","state":"Yucatán","municipality":"Tixmehuac","setelement":"Dzutoh"},{"postalCode":"97954","state":"Yucatán","municipality":"Tixmehuac","setelement":"Sacchacan"},{"postalCode":"97955","state":"Yucatán","municipality":"Chacsinkín","setelement":"Chacsinkin"},{"postalCode":"97956","state":"Yucatán","municipality":"Chacsinkín","setelement":"Xno-Huayab"},{"postalCode":"97957","state":"Yucatán","municipality":"Chacsinkín","setelement":"Xbox"},{"postalCode":"97960","state":"Yucatán","municipality":"Tzucacab","setelement":"México Primero"},{"postalCode":"97960","state":"Yucatán","municipality":"Tzucacab","setelement":"Tzucacab Centro"},{"postalCode":"97963","state":"Yucatán","municipality":"Tzucacab","setelement":"Ekbalam"},{"postalCode":"97963","state":"Yucatán","municipality":"Tzucacab","setelement":"Dzi"},{"postalCode":"97963","state":"Yucatán","municipality":"Tzucacab","setelement":"Kakalnah"},{"postalCode":"97963","state":"Yucatán","municipality":"Tzucacab","setelement":"Solidaridad"},{"postalCode":"97964","state":"Yucatán","municipality":"Tzucacab","setelement":"Bichcopo"},{"postalCode":"97964","state":"Yucatán","municipality":"Tzucacab","setelement":"Hobonil"},{"postalCode":"97964","state":"Yucatán","municipality":"Tzucacab","setelement":"Sacbecan"},{"postalCode":"97964","state":"Yucatán","municipality":"Tzucacab","setelement":"Noh-bec"},{"postalCode":"97964","state":"Yucatán","municipality":"Tzucacab","setelement":"Polhuaczil"},{"postalCode":"97965","state":"Yucatán","municipality":"Tzucacab","setelement":"Corral"},{"postalCode":"97965","state":"Yucatán","municipality":"Tzucacab","setelement":"Blanca Flor"},{"postalCode":"97965","state":"Yucatán","municipality":"Tzucacab","setelement":"El Escondido"},{"postalCode":"97965","state":"Yucatán","municipality":"Tzucacab","setelement":"Tigre Grande"},{"postalCode":"97966","state":"Yucatán","municipality":"Tzucacab","setelement":"La Esperanza"},{"postalCode":"97966","state":"Yucatán","municipality":"Tzucacab","setelement":"San Isidro"},{"postalCode":"97966","state":"Yucatán","municipality":"Tzucacab","setelement":"San Salvador Piste Akal"},{"postalCode":"97967","state":"Yucatán","municipality":"Tzucacab","setelement":"Caxaytuk"},{"postalCode":"97967","state":"Yucatán","municipality":"Tzucacab","setelement":"Thul"},{"postalCode":"97967","state":"Yucatán","municipality":"Tzucacab","setelement":"Lázaro Cárdenas"},{"postalCode":"97967","state":"Yucatán","municipality":"Tzucacab","setelement":"Emiliano Zapata"},{"postalCode":"97969","state":"Yucatán","municipality":"Tzucacab","setelement":"Catmís"},{"postalCode":"97970","state":"Yucatán","municipality":"Tekax","setelement":"Los Cedros"},{"postalCode":"97970","state":"Yucatán","municipality":"Tekax","setelement":"Villas Santa María"},{"postalCode":"97970","state":"Yucatán","municipality":"Tekax","setelement":"San Francisco"},{"postalCode":"97970","state":"Yucatán","municipality":"Tekax","setelement":"Villa Flores"},{"postalCode":"97970","state":"Yucatán","municipality":"Tekax","setelement":"Paraíso Tekax"},{"postalCode":"97970","state":"Yucatán","municipality":"Tekax","setelement":"Lázaro Cárdenas"},{"postalCode":"97970","state":"Yucatán","municipality":"Tekax","setelement":"Tekax de Álvaro Obregón"},{"postalCode":"97970","state":"Yucatán","municipality":"Tekax","setelement":"Benito Juárez"},{"postalCode":"97970","state":"Yucatán","municipality":"Tekax","setelement":"Francisco I Madero"},{"postalCode":"97970","state":"Yucatán","municipality":"Tekax","setelement":"Padre Eterno"},{"postalCode":"97970","state":"Yucatán","municipality":"Tekax","setelement":"Yocchenkax"},{"postalCode":"97970","state":"Yucatán","municipality":"Tekax","setelement":"Chunchucun"},{"postalCode":"97970","state":"Yucatán","municipality":"Tekax","setelement":"Chobenche"},{"postalCode":"97970","state":"Yucatán","municipality":"Tekax","setelement":"San Ignacio"},{"postalCode":"97970","state":"Yucatán","municipality":"Tekax","setelement":"Ermita"},{"postalCode":"97970","state":"Yucatán","municipality":"Tekax","setelement":"Fovissste (Módulo Social)"},{"postalCode":"97970","state":"Yucatán","municipality":"Tekax","setelement":"Unidad Antigua"},{"postalCode":"97973","state":"Yucatán","municipality":"Tekax","setelement":"Kinil"},{"postalCode":"97973","state":"Yucatán","municipality":"Tekax","setelement":"Xaya"},{"postalCode":"97973","state":"Yucatán","municipality":"Tekax","setelement":"Penkuyut"},{"postalCode":"97973","state":"Yucatán","municipality":"Tekax","setelement":"Tixcuytun"},{"postalCode":"97974","state":"Yucatán","municipality":"Tekax","setelement":"Ticum"},{"postalCode":"97975","state":"Yucatán","municipality":"Tekax","setelement":"Kantemo"},{"postalCode":"97975","state":"Yucatán","municipality":"Tekax","setelement":"San Marcos"},{"postalCode":"97977","state":"Yucatán","municipality":"Tekax","setelement":"Kancab"},{"postalCode":"97977","state":"Yucatán","municipality":"Tekax","setelement":"Canek"},{"postalCode":"97977","state":"Yucatán","municipality":"Tekax","setelement":"Chacmultun"},{"postalCode":"97979","state":"Yucatán","municipality":"Tekax","setelement":"Manuel Cepeda Peraza"},{"postalCode":"97979","state":"Yucatán","municipality":"Tekax","setelement":"Alfonso Caso"},{"postalCode":"97980","state":"Yucatán","municipality":"Tekax","setelement":"Benito Juárez"},{"postalCode":"97980","state":"Yucatán","municipality":"Tekax","setelement":"San Agustín (Salvador Alvarado)"},{"postalCode":"97980","state":"Yucatán","municipality":"Tekax","setelement":"San Pedro Zula"},{"postalCode":"97980","state":"Yucatán","municipality":"Tekax","setelement":"San Martín Hili"},{"postalCode":"97983","state":"Yucatán","municipality":"Tekax","setelement":"Chan Dzinup"},{"postalCode":"97983","state":"Yucatán","municipality":"Tekax","setelement":"Huntochac"},{"postalCode":"97983","state":"Yucatán","municipality":"Tekax","setelement":"Nuevo Popolá"},{"postalCode":"97983","state":"Yucatán","municipality":"Tekax","setelement":"Pocoboh"},{"postalCode":"97983","state":"Yucatán","municipality":"Tekax","setelement":"San Isidro Yaxche"},{"postalCode":"97983","state":"Yucatán","municipality":"Tekax","setelement":"San Salvador"},{"postalCode":"97983","state":"Yucatán","municipality":"Tekax","setelement":"Nueva Santa Cruz (Santa Cruz Cutzá)"},{"postalCode":"97983","state":"Yucatán","municipality":"Tekax","setelement":"Mac-Yan (San Isidro Mac-Yan)"},{"postalCode":"97984","state":"Yucatán","municipality":"Tekax","setelement":"Sacpukenhá"},{"postalCode":"97984","state":"Yucatán","municipality":"Tekax","setelement":"Becanchen"},{"postalCode":"97984","state":"Yucatán","municipality":"Tekax","setelement":"San Gaspar"},{"postalCode":"97984","state":"Yucatán","municipality":"Tekax","setelement":"San Diego Buenavista"},{"postalCode":"97985","state":"Yucatán","municipality":"Tekax","setelement":"Nohalal"},{"postalCode":"97986","state":"Yucatán","municipality":"Tekax","setelement":"Ayim"},{"postalCode":"97987","state":"Yucatán","municipality":"Tekax","setelement":"San Felipe Segundo"},{"postalCode":"97987","state":"Yucatán","municipality":"Tekax","setelement":"Mesatunich"},{"postalCode":"97987","state":"Yucatán","municipality":"Tekax","setelement":"San Rufino"},{"postalCode":"97987","state":"Yucatán","municipality":"Tekax","setelement":"San Pedro Xtokil"},{"postalCode":"97987","state":"Yucatán","municipality":"Tekax","setelement":"San Juan Tekax"},{"postalCode":"97989","state":"Yucatán","municipality":"Tekax","setelement":"Sudzal Chico"},{"postalCode":"97990","state":"Yucatán","municipality":"Akil","setelement":"Akil Centro"}]